{
"type": "FeatureCollection",
"features": [
{ "type": "Feature", "properties": { "PRODUCT": "24-hour QPF", "VALID_TIME": "12Z 06/21/25 - 12Z 06/22/25", "QPF": 1.75, "UNITS": "Inches", "ISSUE_TIME": "2025-06-20 09:59:07", "START_TIME": "2025-06-21 12:00:00", "END_TIME": "2025-06-22 12:00:00", "InPoly_FID": 8, "fill": "darkorchid", "color": "darkorchid" }, "geometry": { "type": "Polygon", "coordinates": [ [ [ -84.946901929870279, 46.241924270802507 ], [ -84.605687420843395, 46.333522302152261 ], [ -84.250630198426123, 46.248740814028785 ], [ -84.161458160992083, 46.141326941332842 ], [ -84.247954400658202, 46.064060676234256 ], [ -84.498789916646757, 46.058565120569384 ], [ -84.861949329463258, 46.140048492152324 ], [ -84.946901929870279, 46.241924270802507 ] ] ] } },
{ "type": "Feature", "properties": { "PRODUCT": "24-hour QPF", "VALID_TIME": "12Z 06/21/25 - 12Z 06/22/25", "QPF": 1.5, "UNITS": "Inches", "ISSUE_TIME": "2025-06-20 09:59:07", "START_TIME": "2025-06-21 12:00:00", "END_TIME": "2025-06-22 12:00:00", "InPoly_FID": 7, "fill": "mediumpurple", "color": "mediumpurple" }, "geometry": { "type": "Polygon", "coordinates": [ [ [ -83.643189801230022, 46.856583517362367 ], [ -83.556108188666769, 46.734480552216624 ], [ -83.645028694452293, 46.637274662641566 ], [ -83.846880653390571, 46.603437152415324 ], [ -84.207863952320238, 46.696972177653329 ], [ -84.528297185040103, 46.531371334373887 ], [ -83.865007117002193, 46.291931915104243 ], [ -83.836080355220929, 45.961490487028129 ], [ -83.910464286607706, 45.894672361126908 ], [ -84.515029310015663, 45.931616886580294 ], [ -85.060322396051589, 46.093528567054001 ], [ -85.238148858442784, 46.317827467343506 ], [ -84.859384995286874, 46.423650348160322 ], [ -84.820390234738397, 46.516344856314127 ], [ -84.978283041320111, 46.617043899687644 ], [ -85.330540742012005, 46.671402723595804 ], [ -85.512935858877555, 46.806719302051697 ], [ -85.440959974938394, 46.893001257664565 ], [ -85.164071840217147, 46.957090540496061 ], [ -84.638845313214219, 46.851993431068927 ], [ -83.993895724271553, 46.939761216043962 ], [ -83.643189801230022, 46.856583517362367 ] ] ] } },
{ "type": "Feature", "properties": { "PRODUCT": "24-hour QPF", "VALID_TIME": "12Z 06/21/25 - 12Z 06/22/25", "QPF": 1.0, "UNITS": "Inches", "ISSUE_TIME": "2025-06-20 09:59:07", "START_TIME": "2025-06-21 12:00:00", "END_TIME": "2025-06-22 12:00:00", "InPoly_FID": 5, "fill": "deepskyblue", "color": "deepskyblue" }, "geometry": { "type": "MultiPolygon", "coordinates": [ [ [ [ -75.103982074503165, 47.018501940851309 ], [ -74.902319200815114, 46.909650634378735 ], [ -75.307834580159749, 46.841307632553104 ], [ -75.317026304115018, 46.708685070299111 ], [ -74.770306861264473, 46.572944531465943 ], [ -74.331199531640365, 46.339101729091993 ], [ -74.299897830386612, 46.067996253251664 ], [ -74.605469210775468, 45.999616328879455 ], [ -74.231738643380794, 45.749379255478743 ], [ -74.229126041367167, 45.591768834670518 ], [ -74.38531451586492, 45.439040378220859 ], [ -74.722996454901832, 45.502140992961607 ], [ -75.921339166739571, 46.131617997598553 ], [ -76.61427887799961, 46.290336778065516 ], [ -77.194694132344381, 46.363667617410833 ], [ -77.432741371037167, 46.229988994034031 ], [ -77.965001929738904, 46.322029869913344 ], [ -78.581620533566266, 46.28403968373901 ], [ -79.524569053822887, 46.499365697564471 ], [ -79.67458803221362, 46.618003013164312 ], [ -79.523480145059224, 46.804759269638588 ], [ -79.73634530023233, 46.998589817120354 ], [ -79.147361658207302, 47.078392295634572 ], [ -78.765169804450963, 46.907050346762695 ], [ -77.916499998107568, 46.941668904265839 ], [ -77.964061445632495, 47.051202928082731 ], [ -78.353384638270285, 47.298038515475852 ], [ -78.99580506240757, 47.460406751085586 ], [ -79.363229911752185, 47.696743493070088 ], [ -79.319823580462227, 47.78979153028699 ], [ -79.003827682268039, 47.879184518125861 ], [ -78.77677757736609, 47.792583996874285 ], [ -78.726250474845301, 47.659158504535618 ], [ -77.737236537922414, 47.400890167643396 ], [ -77.056695904702934, 47.384536411836926 ], [ -76.547829503217685, 47.232848882194517 ], [ -76.216405605068346, 47.223018762611026 ], [ -75.59435038267226, 46.961811234611169 ], [ -75.103982074503165, 47.018501940851309 ] ], [ [ -75.991374272950907, 46.39860471130735 ], [ -76.028127341351606, 46.400555036501395 ], [ -76.043922932471048, 46.397685030080922 ], [ -76.000438277731845, 46.393923056083032 ], [ -75.991374272950907, 46.39860471130735 ] ] ], [ [ [ -86.0, 46.678818412617254 ], [ -86.0, 46.961388102432707 ], [ -85.400272770524026, 47.151943123615062 ], [ -83.787363697079215, 47.108274131223546 ], [ -82.534289751444149, 46.678368950113736 ], [ -82.448243014302605, 46.501394546533923 ], [ -82.961343809746936, 46.423987355029752 ], [ -83.010893662183676, 46.342132406244559 ], [ -82.531849906784743, 46.23810149031214 ], [ -82.171362280835439, 46.033702055809712 ], [ -82.447307671453601, 45.962847350712721 ], [ -82.37566706923721, 45.797086676380289 ], [ -82.494486476060288, 45.725561892922066 ], [ -82.791597760530124, 45.803601082030376 ], [ -83.446246082353497, 45.60552608971102 ], [ -84.488531787985778, 45.674074857809217 ], [ -85.553458582443241, 45.976012713519928 ], [ -86.0, 46.678818412617254 ] ] ], [ [ [ -81.243995860551465, 45.79758416102581 ], [ -81.180990831597271, 45.747909187279774 ], [ -81.37658553183762, 45.749144411542957 ], [ -82.124426974319604, 46.012070083115375 ], [ -81.82176679155927, 46.147857225189689 ], [ -80.966404691546899, 46.314268786887446 ], [ -80.699467295095815, 46.250033415395109 ], [ -80.705682783156107, 46.093798462153025 ], [ -80.906617850625423, 45.984522703853273 ], [ -81.522985889706945, 45.961752226259684 ], [ -81.243995860551465, 45.79758416102581 ] ] ], [ [ [ -79.478273273163609, 44.512750986068951 ], [ -79.401335915977342, 44.216845813639672 ], [ -80.2384179788137, 44.436544824768397 ], [ -81.355532709474375, 44.90004049831839 ], [ -81.033180015702825, 44.914270924368019 ], [ -81.245482563547256, 45.086104090000653 ], [ -81.206623939169219, 45.124654999257309 ], [ -80.705196129994405, 44.989892894215743 ], [ -80.113319456342111, 44.664829886274553 ], [ -79.647877752201282, 44.623367445074209 ], [ -79.478273273163609, 44.512750986068951 ] ] ] ] } },
{ "type": "Feature", "properties": { "PRODUCT": "24-hour QPF", "VALID_TIME": "12Z 06/21/25 - 12Z 06/22/25", "QPF": 1.25, "UNITS": "Inches", "ISSUE_TIME": "2025-06-20 09:59:07", "START_TIME": "2025-06-21 12:00:00", "END_TIME": "2025-06-22 12:00:00", "InPoly_FID": 6, "fill": "cyan", "color": "cyan" }, "geometry": { "type": "MultiPolygon", "coordinates": [ [ [ [ -83.286649233974913, 46.554304772847047 ], [ -83.484494558676886, 46.463941885609586 ], [ -83.531637897171152, 46.342964332138251 ], [ -83.153046502993675, 45.992402460705023 ], [ -83.188301498315468, 45.860644380433882 ], [ -83.59038292623103, 45.72243750188926 ], [ -84.5296337955632, 45.780497822216773 ], [ -85.369658871659567, 46.040666055893837 ], [ -85.850398061621206, 46.860113744253965 ], [ -85.76518221658597, 46.957224699860092 ], [ -85.334442310664087, 47.065826974035701 ], [ -83.940684866613253, 47.0286191161793 ], [ -83.54974888430354, 46.939966177397196 ], [ -83.023189285557066, 46.695476460770124 ], [ -83.286649233974913, 46.554304772847047 ] ] ] ] } },
{ "type": "Feature", "properties": { "PRODUCT": "24-hour QPF", "VALID_TIME": "12Z 06/21/25 - 12Z 06/22/25", "QPF": 0.75, "UNITS": "Inches", "ISSUE_TIME": "2025-06-20 09:59:07", "START_TIME": "2025-06-21 12:00:00", "END_TIME": "2025-06-22 12:00:00", "InPoly_FID": 4, "fill": "dodgerblue", "color": "dodgerblue" }, "geometry": { "type": "MultiPolygon", "coordinates": [ [ [ [ -86.0, 46.061851683142287 ], [ -86.0, 47.085410782087067 ], [ -85.317499265549088, 47.375405851718675 ], [ -84.656739469245437, 47.407917716994113 ], [ -83.697968710208571, 47.257076306537556 ], [ -81.441450514304719, 46.393706586305605 ], [ -80.638903844166109, 46.423296846477143 ], [ -80.393129396276478, 46.487951330824444 ], [ -80.590293054228567, 46.948562143787285 ], [ -80.50959733692261, 47.083260140400135 ], [ -79.480306497966893, 47.269327461677015 ], [ -79.906219384947093, 47.626685841936109 ], [ -80.198021081980244, 47.645699574891104 ], [ -80.286988862138614, 47.760871587922388 ], [ -80.611691381816499, 47.64431645158745 ], [ -80.815773973477135, 47.689063802686981 ], [ -80.79419281607683, 47.773237781179162 ], [ -80.455396465669679, 47.839297716823154 ], [ -80.595226604783448, 48.0 ], [ -78.080128483954965, 48.0 ], [ -77.695513854168425, 47.865630734025146 ], [ -77.308550222160918, 47.890412422073112 ], [ -76.803631328543375, 47.805922573845997 ], [ -75.182446436767506, 47.289753683451934 ], [ -74.695201039547655, 47.234952128668397 ], [ -74.349222036551836, 47.084693983727696 ], [ -73.829586099818442, 46.689054012221973 ], [ -73.215064815135989, 46.466484457440629 ], [ -73.029005117487628, 46.291265169673963 ], [ -72.762273581193199, 46.297159284572643 ], [ -72.796990540230027, 46.059494394373743 ], [ -72.604750631190697, 46.365357061726392 ], [ -72.290017910146588, 46.258584877298738 ], [ -72.176503291130075, 46.051236695286214 ], [ -72.385887848094029, 45.475117453234468 ], [ -72.229687819048053, 45.067549592037082 ], [ -72.381478701932437, 44.911144620354683 ], [ -72.136255613679438, 44.480956213555544 ], [ -72.31323791277751, 44.11974355605242 ], [ -72.416037097524764, 44.150116720610825 ], [ -72.390363905522534, 44.325737555911267 ], [ -72.526151911635139, 44.343535650746986 ], [ -72.737060750104916, 44.258181152471252 ], [ -72.971235537817833, 43.959894574708919 ], [ -73.100656042556992, 44.397714814438046 ], [ -73.354586472243966, 44.623740223765907 ], [ -74.221155446660205, 44.625410533643922 ], [ -74.393611970429632, 44.521110076304652 ], [ -74.454909238684607, 44.044596838670806 ], [ -74.846325864169259, 44.010543637647771 ], [ -75.186954927898668, 44.283172011444464 ], [ -75.280499685943695, 44.640094526579134 ], [ -75.091113834856898, 44.784121853551348 ], [ -74.545512008290061, 44.764954770019258 ], [ -74.463315793171347, 44.917481034783144 ], [ -74.654609823190398, 45.156607950509368 ], [ -75.110898759177189, 45.44210114991138 ], [ -75.473778889054756, 45.508585100383172 ], [ -75.605686165943013, 45.475771540441606 ], [ -75.632790671272815, 45.230645008133813 ], [ -75.765418820920488, 45.217919013122014 ], [ -75.852009979868441, 45.286161526933796 ], [ -75.819612804883917, 45.444806603123979 ], [ -75.896842607366622, 45.503685657623826 ], [ -76.859573387517145, 45.898585478251178 ], [ -77.464416428082387, 46.022979265531355 ], [ -77.902825313167696, 46.022250982929663 ], [ -77.987561315152618, 45.900104100527464 ], [ -78.476282652736018, 45.801497701937343 ], [ -78.937392211391838, 45.829153334643046 ], [ -78.987891621006952, 45.606538457499383 ], [ -79.148195992494607, 45.492787144406883 ], [ -79.740577015358028, 45.34482279370598 ], [ -80.034901387742494, 45.384000844004305 ], [ -80.227561635375139, 45.623169812852026 ], [ -80.534023593624127, 45.757895770368265 ], [ -80.712099343369005, 45.760669877020149 ], [ -80.897622126831905, 45.629925515980879 ], [ -81.633739858643352, 45.653570245586138 ], [ -81.466907482485055, 45.325917838752865 ], [ -80.487667504732912, 45.037264521424753 ], [ -80.085661661099877, 44.748069115337863 ], [ -79.271160932650545, 44.603859098590682 ], [ -79.170927539701552, 44.161197033026426 ], [ -79.621127922708297, 44.134361616561783 ], [ -80.671926029982913, 44.601590167684719 ], [ -81.258978235340848, 44.683252769612558 ], [ -81.622964972569875, 44.887279031242237 ], [ -81.823456003251167, 45.203445249772699 ], [ -82.561074632413195, 45.380825893964811 ], [ -82.736937069768473, 45.536549820878555 ], [ -84.248365495471745, 45.490554396809252 ], [ -85.746618101861202, 45.889422436411344 ], [ -86.0, 46.061851683142287 ] ], [ [ -72.813924502875167, 45.945826461994805 ], [ -72.84196087448602, 46.016286945834231 ], [ -72.980197908400655, 46.019036603358153 ], [ -72.936783091086312, 45.888402549229887 ], [ -72.813924502875167, 45.945826461994805 ] ], [ [ -81.948551908993011, 45.714806255264385 ], [ -81.883882192313422, 45.613956674524623 ], [ -81.771750055487971, 45.635364815923978 ], [ -81.83781560349594, 45.780441333226015 ], [ -81.948551908993011, 45.714806255264385 ] ], [ [ -76.053637516547937, 45.881018474346256 ], [ -76.246738952201227, 45.955836920189981 ], [ -76.369965584665479, 45.84485823575308 ], [ -76.092402217605525, 45.70374156459053 ], [ -75.975513693741419, 45.76592292727797 ], [ -76.053637516547937, 45.881018474346256 ] ], [ [ -72.39994829520603, 44.555692200501113 ], [ -72.433108290074728, 44.552186683485075 ], [ -72.435621503746418, 44.520888410193024 ], [ -72.395302708405325, 44.538557725175259 ], [ -72.39994829520603, 44.555692200501113 ] ], [ [ -72.707722776340006, 46.015025275274176 ], [ -72.73379821038057, 46.015540363365211 ], [ -72.744233931501668, 46.005616355962133 ], [ -72.707669292865177, 46.000456501749035 ], [ -72.707722776340006, 46.015025275274176 ] ], [ [ -80.402359948464976, 47.800362536796705 ], [ -80.392491970037085, 47.790397365715712 ], [ -80.383259513914027, 47.797927006256593 ], [ -80.394200160186301, 47.805378011404059 ], [ -80.402359948464976, 47.800362536796705 ] ], [ [ -72.829543568728397, 45.893034867046246 ], [ -72.816229014308149, 45.883781542715852 ], [ -72.80953128425314, 45.901761634601868 ], [ -72.822386094020899, 45.902669210162941 ], [ -72.829543568728397, 45.893034867046246 ] ], [ [ -72.432195953040761, 44.602158511970217 ], [ -72.432104842456994, 44.596533452581632 ], [ -72.426904384871065, 44.59264995162043 ], [ -72.423866869113638, 44.602437303406688 ], [ -72.432195953040761, 44.602158511970217 ] ], [ [ -73.053934584529514, 46.257838890087918 ], [ -73.03997174178761, 46.253300768254142 ], [ -73.033787691503861, 46.266584374682921 ], [ -73.046456103448691, 46.267472334239471 ], [ -73.053934584529514, 46.257838890087918 ] ], [ [ -72.88543146260939, 46.117186203067369 ], [ -72.876035675748028, 46.107790416206008 ], [ -72.866639888886667, 46.117186203067369 ], [ -72.876035675748028, 46.126581989928539 ], [ -72.88543146260939, 46.117186203067369 ] ] ] ] } },
{ "type": "Feature", "properties": { "PRODUCT": "24-hour QPF", "VALID_TIME": "12Z 06/21/25 - 12Z 06/22/25", "QPF": 0.5, "UNITS": "Inches", "ISSUE_TIME": "2025-06-20 09:59:07", "START_TIME": "2025-06-21 12:00:00", "END_TIME": "2025-06-22 12:00:00", "InPoly_FID": 3, "fill": "royalblue", "color": "royalblue" }, "geometry": { "type": "MultiPolygon", "coordinates": [ [ [ [ -86.0, 45.7954149299159 ], [ -86.0, 47.779617759180482 ], [ -85.788239344780962, 47.830168735431833 ], [ -85.814893183563015, 48.0 ], [ -84.706531837264762, 48.0 ], [ -84.644500723264187, 47.847461096960672 ], [ -83.965844532144246, 47.699842393862568 ], [ -83.322628479858579, 47.77410342881165 ], [ -83.533006848133567, 47.881854889412935 ], [ -83.954734990523818, 47.88538604779599 ], [ -83.959518624527973, 48.0 ], [ -73.079341348678483, 48.0 ], [ -73.077949386158451, 47.833523423237907 ], [ -72.92875105966101, 47.712924404009776 ], [ -73.060379312504864, 47.529159267075542 ], [ -73.038126033717788, 47.435998348049452 ], [ -72.623402299477078, 47.44175006971566 ], [ -72.213953311916413, 47.258007887887089 ], [ -71.455894503012203, 47.137664289297767 ], [ -71.09109935316647, 46.914154750010248 ], [ -70.891309503275849, 46.895205265231617 ], [ -70.70195695841916, 46.744987115230067 ], [ -70.729730268553183, 46.479145712987474 ], [ -70.169123113411075, 46.128677139738457 ], [ -70.057297133591135, 45.946746417386649 ], [ -70.712867192149858, 45.754220047187623 ], [ -70.717000701322178, 45.475715105005797 ], [ -70.811822889266878, 45.364296915463136 ], [ -70.648046288076756, 45.109270954892366 ], [ -71.178210630365555, 44.78473816890186 ], [ -71.280442594750028, 44.398399697068371 ], [ -71.125136557599347, 44.258463091075647 ], [ -71.354888696181945, 44.079224314786359 ], [ -71.454552899553548, 43.861027340854754 ], [ -71.685913819935223, 43.881871164435026 ], [ -72.048965838593418, 43.781298148659701 ], [ -72.193154200750385, 43.866224709275137 ], [ -72.623574920367673, 43.892779075708155 ], [ -72.802157107337962, 43.785278401364238 ], [ -72.852890476157071, 43.56164531586311 ], [ -73.240286151507917, 44.096952276965276 ], [ -73.364945697453493, 44.145618189430984 ], [ -73.568651488530847, 43.831111998837166 ], [ -73.703557103959341, 43.905614947118259 ], [ -74.026640308176439, 43.748671576423313 ], [ -74.797462149594153, 43.804029715441871 ], [ -74.86849874081787, 43.734749789867593 ], [ -74.832901515773059, 43.545381583849746 ], [ -74.952187585701466, 43.383077057639603 ], [ -75.334147436107912, 43.356966558209251 ], [ -75.434463580836621, 43.422753235128305 ], [ -75.396934506446712, 43.533547988032716 ], [ -75.46556239290247, 43.575841096164716 ], [ -75.697115282852266, 43.484541988912561 ], [ -75.721700282008328, 43.311820217760072 ], [ -76.1532084983169, 43.144687706299017 ], [ -76.265153836400373, 43.213930356669188 ], [ -76.233366689707196, 43.348939333010968 ], [ -76.388408322853124, 43.439449822005209 ], [ -76.307155351077085, 43.494290188908991 ], [ -76.389167033752599, 43.831067136196317 ], [ -76.350112063031006, 44.150055427878726 ], [ -76.035502918435398, 44.326061903713047 ], [ -76.045057862412961, 44.785692094122943 ], [ -76.545130675888771, 45.109297800572385 ], [ -77.226884839642835, 45.212730736783811 ], [ -78.46318214311016, 45.04606090584435 ], [ -78.564562621461931, 44.948665143897962 ], [ -78.489420835173775, 44.858676125887044 ], [ -77.879463263218369, 44.797031804054818 ], [ -77.797998881363938, 44.723501376457705 ], [ -78.30644495136859, 44.480606808452663 ], [ -78.824653871388435, 44.427840154515849 ], [ -78.86886300999889, 44.374570173756979 ], [ -78.757655067815392, 44.217899571226184 ], [ -79.054118413101293, 43.966986097587025 ], [ -79.397212887926443, 43.980666299657813 ], [ -79.581343195397494, 43.858349663933737 ], [ -79.907437537068247, 43.892964714763387 ], [ -79.965719170085592, 44.048398691700761 ], [ -80.441812218812842, 44.328562883957467 ], [ -80.148894399690363, 43.690755623443685 ], [ -80.313547537494756, 43.604735310892437 ], [ -80.769983953904941, 43.625034218368597 ], [ -81.079984985642653, 43.731808237650846 ], [ -81.786313061184529, 44.164112835669634 ], [ -82.704887771256111, 44.407964689177575 ], [ -82.776897893467122, 44.544484459011251 ], [ -82.706078069104194, 44.92038727460757 ], [ -82.902668540284921, 45.064873873410612 ], [ -84.153517544118984, 45.217619885401639 ], [ -84.907327151115965, 45.142475321626996 ], [ -84.980048952448414, 45.199311684475617 ], [ -85.006932589250951, 45.433158726190669 ], [ -85.216920098915224, 45.620481796263391 ], [ -86.0, 45.7954149299159 ] ], [ [ -76.16584719896521, 43.319950944542661 ], [ -76.168607311115736, 43.308286860117249 ], [ -76.151419046279571, 43.310851364686435 ], [ -76.154032515804786, 43.318649076841538 ], [ -76.16584719896521, 43.319950944542661 ] ], [ [ -71.250578084601173, 44.266000430147258 ], [ -71.248897109593585, 44.263493578966809 ], [ -71.24631574065539, 44.265995797937144 ], [ -71.248166712754724, 44.267774419111788 ], [ -71.250578084601173, 44.266000430147258 ] ] ] ] } },
{ "type": "Feature", "properties": { "PRODUCT": "24-hour QPF", "VALID_TIME": "12Z 06/21/25 - 12Z 06/22/25", "QPF": 0.01, "UNITS": "Inches", "ISSUE_TIME": "2025-06-20 09:59:07", "START_TIME": "2025-06-21 12:00:00", "END_TIME": "2025-06-22 12:00:00", "InPoly_FID": 0, "fill": "lime", "color": "lime" }, "geometry": { "type": "MultiPolygon", "coordinates": [ [ [ [ -68.717251246247997, 36.077634989263402 ], [ -67.905072938065587, 36.350564092858633 ], [ -67.665295740905663, 36.28258670910941 ], [ -67.764631310786342, 36.114214263277688 ], [ -68.075655234183316, 36.0 ], [ -68.675756400231037, 36.0 ], [ -68.717251246247997, 36.077634989263402 ] ] ], [ [ [ -69.51347617938211, 36.044359298343011 ], [ -69.263232263058455, 36.257741564321805 ], [ -68.909973839221266, 36.357707875518088 ], [ -68.74416694334974, 36.31048043602334 ], [ -68.995584169126261, 36.0 ], [ -69.51347617938211, 36.044359298343011 ] ] ], [ [ [ -82.242667470427364, 36.130654925184729 ], [ -81.955289391192423, 36.18304418364221 ], [ -81.605112435890192, 36.370634485992809 ], [ -81.360233391957422, 36.363179208753536 ], [ -81.454687913916075, 36.227377922253368 ], [ -81.706315316698465, 36.238986846965474 ], [ -81.791596347480052, 36.0 ], [ -82.242667470427364, 36.130654925184729 ] ] ], [ [ [ -67.46078760621532, 36.0 ], [ -66.996040615082279, 36.091194251213778 ], [ -66.879935476940659, 36.375276570557332 ], [ -66.453733109395444, 36.423251407826285 ], [ -66.295957915725182, 36.600979417266331 ], [ -66.12547778457207, 36.546282341956555 ], [ -66.095701990654334, 36.40175942665627 ], [ -66.161566143862387, 36.32022519563634 ], [ -66.083098834843327, 36.210207030629988 ], [ -65.905364465397724, 36.256065031975709 ], [ -65.595393182270186, 36.0 ], [ -67.46078760621532, 36.0 ] ] ], [ [ [ -74.519009727616776, 40.56396103047723 ], [ -74.67523696681252, 40.753270028089389 ], [ -75.036614840602397, 40.959877933120197 ], [ -75.042283668556422, 41.029485961308126 ], [ -74.665016466736517, 41.031418166415278 ], [ -74.362016917146946, 40.860953980242073 ], [ -74.234302821917652, 40.559869612492662 ], [ -74.353592445934567, 40.508319772239759 ], [ -74.519009727616776, 40.56396103047723 ] ] ], [ [ [ -62.977694412867379, 48.0 ], [ -62.26556257874995, 47.991221116261556 ], [ -61.942139508231662, 47.871961027779264 ], [ -62.051277022016905, 47.779190078959004 ], [ -62.423758460884244, 47.809325620580978 ], [ -62.977694412867379, 48.0 ] ] ], [ [ [ -86.0, 44.252836466537346 ], [ -86.0, 48.0 ], [ -66.955991759548368, 48.0 ], [ -66.638482502865202, 47.22316172653251 ], [ -66.720425299487943, 46.973279373644232 ], [ -67.007631342012758, 46.798250210778633 ], [ -67.126741285981495, 46.404787546308285 ], [ -67.109244587068019, 46.06619252526491 ], [ -67.185305872368076, 45.985081281376097 ], [ -67.054753410641354, 45.674633664412113 ], [ -67.020357565549148, 45.320022586473215 ], [ -67.233693076674115, 44.809031989834523 ], [ -67.338878119529568, 43.987935017686993 ], [ -67.225340902860353, 43.789216945006046 ], [ -67.179536994836383, 43.29901356682268 ], [ -67.024794777357044, 42.804500422456556 ], [ -67.178624022880285, 42.451949746183914 ], [ -67.203149139421214, 42.176096932227665 ], [ -67.492677231469031, 41.917417910208428 ], [ -68.101741195899422, 41.84894604052738 ], [ -68.27908955383981, 41.607422386933649 ], [ -68.798287441712034, 41.354976432916089 ], [ -70.297832125452203, 40.917248666992464 ], [ -70.310372966339287, 40.718584963725164 ], [ -70.424190213007876, 40.626852904537941 ], [ -70.682217869558997, 40.666047558148364 ], [ -71.781259381615143, 41.33909960276452 ], [ -72.307839687251715, 41.45918903254784 ], [ -73.023599328046487, 41.398997149898605 ], [ -73.34038605297394, 41.276045461329034 ], [ -74.646078222032259, 41.279806509762693 ], [ -75.11328507484626, 41.571825178888957 ], [ -76.316732712544592, 41.478352358674442 ], [ -76.58877976557369, 41.563001665894205 ], [ -76.79822094064383, 41.764533580560339 ], [ -77.181143359178634, 41.866763338757153 ], [ -77.738393863286149, 41.706530439128528 ], [ -77.681464279452882, 41.481171258446864 ], [ -77.798635578269284, 41.374238341826072 ], [ -78.667580894442665, 41.615893545550762 ], [ -78.983809999232051, 41.822588930334916 ], [ -79.998360460466813, 41.775629513990907 ], [ -81.281132543831802, 42.104578892402003 ], [ -81.773836704600171, 41.949518815840747 ], [ -81.691896368522578, 41.81521063596216 ], [ -81.798216112083878, 41.746848167009375 ], [ -82.745569610449138, 41.89001917554458 ], [ -82.792655713390445, 41.955630745162807 ], [ -82.703042496513945, 42.040246989706873 ], [ -82.25298386161586, 42.133136075269704 ], [ -82.467325856203274, 42.34877312777769 ], [ -82.935071152911348, 42.481825126528406 ], [ -83.026490429689545, 42.600885793044938 ], [ -83.38565529945248, 42.592441061006241 ], [ -84.013915113991288, 42.848627510351378 ], [ -84.260782147977693, 43.095837495404169 ], [ -84.019456944182593, 43.277831894926067 ], [ -84.051963710256985, 43.353363671995908 ], [ -85.083441829776575, 43.951892739658263 ], [ -86.0, 44.252836466537346 ] ], [ [ -82.95958375448663, 42.777959426086682 ], [ -82.919430186154102, 42.788939557414722 ], [ -82.92616464957888, 42.832735443885667 ], [ -82.970501882056169, 42.826542056670633 ], [ -82.95958375448663, 42.777959426086682 ] ], [ [ -82.890059434295438, 42.611115666754642 ], [ -82.889368482469479, 42.610354922141994 ], [ -82.888523754667517, 42.611137387180747 ], [ -82.889276083424477, 42.611555571032852 ], [ -82.890059434295438, 42.611115666754642 ] ], [ [ -72.652429176265457, 41.601376891430448 ], [ -72.651643399922932, 41.600647035832083 ], [ -72.651581886294991, 41.601467536797429 ], [ -72.652429176265457, 41.601376891430448 ] ], [ [ -74.243593816901068, 41.389708596574508 ], [ -74.108475078961703, 41.467054401539428 ], [ -74.103336582117549, 41.481189192727129 ], [ -74.248493031128419, 41.499826258075416 ], [ -74.308062065811669, 41.432207675943516 ], [ -74.243593816901068, 41.389708596574508 ] ], [ [ -70.764438088147187, 41.11790303579653 ], [ -70.721744848745743, 41.071124104393959 ], [ -70.640064930252265, 41.078464057070619 ], [ -70.782832868042362, 41.125181830976771 ], [ -70.764438088147187, 41.11790303579653 ] ] ] ] } },
{ "type": "Feature", "properties": { "PRODUCT": "24-hour QPF", "VALID_TIME": "12Z 06/21/25 - 12Z 06/22/25", "QPF": 0.25, "UNITS": "Inches", "ISSUE_TIME": "2025-06-20 09:59:07", "START_TIME": "2025-06-21 12:00:00", "END_TIME": "2025-06-22 12:00:00", "InPoly_FID": 2, "fill": "darkgreen", "color": "darkgreen" }, "geometry": { "type": "MultiPolygon", "coordinates": [ [ [ [ -86.0, 45.162872816512014 ], [ -86.0, 48.0 ], [ -69.648821110953662, 48.0 ], [ -69.529231041679168, 47.92778523689924 ], [ -69.422118945932596, 47.683880393465415 ], [ -69.132614961111528, 47.534482343285561 ], [ -69.658328013626885, 46.910778794605733 ], [ -69.431428162079953, 46.673796543775552 ], [ -69.199424897141228, 46.179095100258735 ], [ -68.728739583564902, 45.847506173870897 ], [ -68.604329233307453, 45.434494653805302 ], [ -68.756564351363693, 45.127783783794655 ], [ -69.167335961485378, 44.867984235284268 ], [ -69.004017922289222, 44.164008485003649 ], [ -69.313941192232221, 43.870359255075641 ], [ -69.359222256002283, 43.578021205214498 ], [ -69.664887087668944, 43.316652198540169 ], [ -70.214895005100345, 43.257039956828578 ], [ -70.566514608762134, 43.496219996056027 ], [ -70.95182127393258, 43.5183586050656 ], [ -71.128621171329939, 43.348898679230729 ], [ -71.164037436678313, 42.841501639489138 ], [ -71.282638505562545, 42.802414298381223 ], [ -71.450592973486891, 43.208383732922982 ], [ -72.11870985437622, 43.037106072187555 ], [ -72.519640363212147, 43.153065009342754 ], [ -72.820397751854728, 43.090342437153822 ], [ -73.073398673010331, 42.890765936398907 ], [ -73.290546491227531, 43.031685931060906 ], [ -73.357785564851895, 43.168707118238956 ], [ -73.824696502941208, 43.146354190893248 ], [ -74.127673236730459, 43.220705411725419 ], [ -75.08188289477971, 42.694079562621766 ], [ -75.683175738269654, 42.660683226749541 ], [ -76.185721633446576, 42.794210229418582 ], [ -76.531213836749146, 42.637971158742062 ], [ -76.795955961198615, 42.744157361073405 ], [ -76.717099993969498, 42.866023126366258 ], [ -76.793109269677018, 43.02567240195981 ], [ -77.433203653325904, 43.417333480655657 ], [ -77.505906467209684, 43.644062101284987 ], [ -78.052995326473081, 43.82175071592286 ], [ -78.32285543243222, 43.719222538389488 ], [ -77.97865012480338, 43.574860185349337 ], [ -78.229046579635906, 43.459511139627466 ], [ -78.525669213763194, 43.435492911568645 ], [ -78.782181366077168, 43.606553695396769 ], [ -79.230128002505296, 43.627127242128552 ], [ -78.700605932617634, 43.234325027178329 ], [ -79.069040013086124, 43.142132533089978 ], [ -79.262292282462852, 42.915577578742329 ], [ -79.831637117658829, 42.907381404028627 ], [ -80.449555852820311, 43.006330178195242 ], [ -80.653300121303516, 42.901439953790884 ], [ -80.719912220872232, 42.711252192634618 ], [ -81.092913949019476, 42.68623331231754 ], [ -81.827953731579385, 43.000802438581729 ], [ -81.980661314767815, 43.290297224237577 ], [ -82.175949732893798, 43.434043331234818 ], [ -82.749980871420064, 43.486869044171101 ], [ -82.779965138979946, 43.597550239751797 ], [ -82.668937692720306, 43.667366261343943 ], [ -82.112352034918445, 43.767031706148373 ], [ -82.694729240861761, 44.138875915091489 ], [ -83.362926742375237, 44.174270460913078 ], [ -83.436398425347022, 44.029828856016934 ], [ -83.112084992728171, 43.84430542955198 ], [ -83.391480870245914, 43.791602959708882 ], [ -83.835885939584387, 44.003688144292482 ], [ -84.398894880993907, 44.420395529030486 ], [ -84.656903194027166, 44.30742569823741 ], [ -84.908170003742669, 44.316226630154915 ], [ -85.75163626550119, 44.588620688394087 ], [ -85.90829604622553, 44.799118509311825 ], [ -85.878213503450411, 45.113248607237495 ], [ -86.0, 45.162872816512014 ] ], [ [ -85.877298268800018, 45.459680088565278 ], [ -85.929984396162922, 45.370280333870369 ], [ -85.769604122831993, 45.335764543498954 ], [ -85.754370018361612, 45.421543928909273 ], [ -85.877298268800018, 45.459680088565278 ] ], [ [ -79.274324736597293, 43.652130721555636 ], [ -79.29765050286835, 43.65196548102216 ], [ -79.306467964325066, 43.646672540905115 ], [ -79.263727332450401, 43.639269964837069 ], [ -79.274324736597293, 43.652130721555636 ] ] ] ] } },
{ "type": "Feature", "properties": { "PRODUCT": "24-hour QPF", "VALID_TIME": "12Z 06/21/25 - 12Z 06/22/25", "QPF": 0.1, "UNITS": "Inches", "ISSUE_TIME": "2025-06-20 09:59:07", "START_TIME": "2025-06-21 12:00:00", "END_TIME": "2025-06-22 12:00:00", "InPoly_FID": 1, "fill": "green", "color": "green" }, "geometry": { "type": "MultiPolygon", "coordinates": [ [ [ [ -86.0, 44.508164871560822 ], [ -86.0, 48.0 ], [ -68.190197820052347, 48.0 ], [ -67.85781539376535, 47.76107801803613 ], [ -67.794712253667512, 47.625313973361244 ], [ -67.842914292060868, 47.427180879094351 ], [ -68.025512592632026, 47.237154661358602 ], [ -68.139155206247722, 46.615115487989442 ], [ -68.000200161907912, 46.280209572313936 ], [ -67.817855555589404, 45.178182731947572 ], [ -67.877306058727584, 44.983166212151048 ], [ -68.134924562418576, 44.6891206186217 ], [ -68.251084471970785, 44.260010430836758 ], [ -68.13389610851857, 43.337436394374151 ], [ -67.918375482242652, 43.148145714153429 ], [ -67.869290932830268, 42.851731540178491 ], [ -68.18236669796471, 42.559953878568706 ], [ -68.799178784972923, 42.409513723679481 ], [ -68.973793943135945, 42.553823290112803 ], [ -69.555894362035133, 42.763645477356931 ], [ -69.722522260693722, 42.627880987517585 ], [ -69.771191029242573, 42.29533689568126 ], [ -70.432407520890365, 42.118805854206869 ], [ -72.068421302501065, 42.471638204439614 ], [ -72.313780399146083, 42.438509192045615 ], [ -72.433762267314762, 42.325649708067601 ], [ -72.594329919789914, 42.491621655614949 ], [ -72.785072873814045, 42.391723478855511 ], [ -72.974596980266369, 42.407546832620255 ], [ -73.0398003107357, 42.297139139759565 ], [ -73.91667919958536, 42.402042052698619 ], [ -73.987845647658446, 42.219526551808997 ], [ -73.946316412472413, 42.136223808482043 ], [ -74.042767032772304, 42.06729007757508 ], [ -74.693949664245565, 42.219615934527781 ], [ -74.243471814872294, 42.26039893116581 ], [ -74.218806256603443, 42.380781746780258 ], [ -74.375414627582984, 42.503612736438697 ], [ -75.037061123771821, 42.344364009891194 ], [ -75.472974423830578, 42.061156015038137 ], [ -75.93484312760819, 42.189497746224049 ], [ -76.112197837460201, 42.116759645641196 ], [ -76.190455142191013, 41.957806771765149 ], [ -76.338051968123807, 41.924098565396548 ], [ -76.994086054427839, 42.043591066574493 ], [ -77.496837959104482, 42.346174264230967 ], [ -77.550541711630672, 42.407806178212581 ], [ -77.457559262949587, 42.490747482210566 ], [ -77.853912085874015, 42.686613405384378 ], [ -77.64322053120253, 42.837471829561366 ], [ -77.674385975532289, 42.906733453286279 ], [ -77.982810019866463, 43.005790422190273 ], [ -78.286320627195153, 42.898617043941499 ], [ -78.502541183228971, 42.928514859673101 ], [ -78.243563546720281, 42.754918098291682 ], [ -78.257483277631138, 42.693001604640415 ], [ -79.021665484074788, 42.614322352394709 ], [ -78.449615723786565, 42.489022402661817 ], [ -78.518856079444447, 42.324268792770624 ], [ -78.21053883499917, 42.08176408314597 ], [ -78.299123109643745, 42.010609287588579 ], [ -78.4888432296313, 41.974713191660499 ], [ -78.656742543933206, 42.133208117260835 ], [ -79.271197468288506, 42.29649551295762 ], [ -80.05589515223943, 42.693046196624721 ], [ -80.236547336989986, 42.624991126739133 ], [ -80.075543934205143, 42.438758997629691 ], [ -80.020843445968239, 42.20860557788518 ], [ -80.72390083825303, 42.14602935417139 ], [ -80.904784164057901, 42.282693634603618 ], [ -80.623511640649667, 42.28453083802782 ], [ -80.656096250241717, 42.39542655609074 ], [ -81.076097053935825, 42.367400156691929 ], [ -81.601646942452419, 42.452565261977327 ], [ -81.681718581747134, 42.514699173028475 ], [ -81.567656611563336, 42.636034017256122 ], [ -81.63887104386356, 42.724928977989975 ], [ -82.946823193035868, 43.321568043930142 ], [ -83.28779364645959, 43.395402563777338 ], [ -83.478526326628639, 43.595798364902691 ], [ -83.917278691058698, 43.747197023523881 ], [ -84.408677774559635, 44.049060839985827 ], [ -86.0, 44.508164871560822 ] ], [ [ -78.555818963774129, 42.977401396357436 ], [ -78.572057152315665, 42.97250379731247 ], [ -78.539608047173601, 42.970644081159492 ], [ -78.542157701616588, 42.976077077195384 ], [ -78.555818963774129, 42.977401396357436 ] ], [ [ -79.082460970996976, 42.666804883138923 ], [ -79.075616295655493, 42.65930935494282 ], [ -79.067271815541801, 42.666933344997915 ], [ -79.074773831447146, 42.670826368941846 ], [ -79.082460970996976, 42.666804883138923 ] ], [ [ -77.32221450379626, 42.732144715406321 ], [ -77.339611495773852, 42.723064759830834 ], [ -77.276423786128817, 42.723346476059078 ], [ -77.287821243355666, 42.728753438520414 ], [ -77.32221450379626, 42.732144715406321 ] ], [ [ -77.174940050642761, 42.443036226340837 ], [ -77.167425085399316, 42.440969084255869 ], [ -77.159910119256551, 42.443036226340837 ], [ -77.167425085399316, 42.446624857651102 ], [ -77.174940050642761, 42.443036226340837 ] ], [ [ -73.781340971308737, 42.442608884692334 ], [ -73.775612714355248, 42.435903549409318 ], [ -73.772623096278835, 42.435889328429823 ], [ -73.772234518108462, 42.444103516564098 ], [ -73.781340971308737, 42.442608884692334 ] ], [ [ -73.668881015646321, 42.414576580344942 ], [ -73.661387985766908, 42.407167571426328 ], [ -73.653894956786814, 42.414576580344942 ], [ -73.661387985766908, 42.418518902425433 ], [ -73.668881015646321, 42.414576580344942 ] ], [ [ -74.053990865985611, 42.390456230670566 ], [ -74.08032110623401, 42.390812774989627 ], [ -74.087906258167266, 42.385243729514571 ], [ -74.059772304348314, 42.381137971839962 ], [ -74.053990865985611, 42.390456230670566 ] ] ] ] } }
]
}
