{
"type": "FeatureCollection",
"features": [
{ "type": "Feature", "properties": { "PRODUCT": "24-hour QPF", "VALID_TIME": "12Z 06/20/25 - 12Z 06/21/25", "QPF": 1.0, "UNITS": "Inches", "ISSUE_TIME": "2025-06-20 10:00:00", "START_TIME": "2025-06-20 12:00:00", "END_TIME": "2025-06-21 12:00:00", "InPoly_FID": 5, "fill": "deepskyblue", "color": "deepskyblue" }, "geometry": { "type": "MultiPolygon", "coordinates": [ [ [ [ -68.668652244621981, 47.572846001450714 ], [ -68.545783101774106, 48.0 ], [ -67.94974472698263, 48.0 ], [ -68.19671674061648, 47.765340083778696 ], [ -68.668652244621981, 47.572846001450714 ] ] ] ] } },
{ "type": "Feature", "properties": { "PRODUCT": "24-hour QPF", "VALID_TIME": "12Z 06/20/25 - 12Z 06/21/25", "QPF": 0.75, "UNITS": "Inches", "ISSUE_TIME": "2025-06-20 10:00:00", "START_TIME": "2025-06-20 12:00:00", "END_TIME": "2025-06-21 12:00:00", "InPoly_FID": 4, "fill": "dodgerblue", "color": "dodgerblue" }, "geometry": { "type": "MultiPolygon", "coordinates": [ [ [ [ -86.0, 45.347617425800358 ], [ -86.0, 46.196428391958015 ], [ -85.621652379453735, 45.989584983660109 ], [ -85.670583125910468, 45.692533150784357 ], [ -85.781712289090819, 45.613542952545288 ], [ -85.556955122680733, 45.553634771827319 ], [ -85.506255889997306, 45.422835751968421 ], [ -85.648799920879583, 45.331520890976378 ], [ -86.0, 45.347617425800358 ] ] ], [ [ [ -68.968123752709005, 47.900073280957201 ], [ -68.930333158367986, 48.0 ], [ -66.613193258717956, 48.0 ], [ -66.698795710353693, 47.878896250461651 ], [ -66.933157940186732, 47.834235224276256 ], [ -67.244062895686056, 47.494065084735951 ], [ -67.590118392949421, 47.456510122744021 ], [ -67.619306886403649, 47.36539082652547 ], [ -67.505090583563515, 47.301111485606611 ], [ -67.522069044550733, 47.22435871967923 ], [ -67.731150320830579, 47.293307926119951 ], [ -67.924610134849786, 47.258696580982473 ], [ -68.179674341797408, 46.909667779344602 ], [ -68.52015377257851, 46.720953962955093 ], [ -68.593170088328861, 46.808348867106588 ], [ -68.457189568743559, 47.063561559318543 ], [ -68.949538243694974, 47.048027920352297 ], [ -68.757270234633609, 47.690059762048406 ], [ -68.968123752709005, 47.900073280957201 ] ], [ [ -68.592876606270352, 47.407145820323422 ], [ -68.57791527606912, 47.405925639956365 ], [ -68.584102289788802, 47.433397816855802 ], [ -68.586902552011111, 47.430013052860147 ], [ -68.592876606270352, 47.407145820323422 ] ], [ [ -68.743476295494588, 47.269232443622457 ], [ -68.646762770985049, 47.222970921870626 ], [ -68.603609084091943, 47.371709780681897 ], [ -68.666199295860793, 47.36457811189041 ], [ -68.743476295494588, 47.269232443622457 ] ] ] ] } },
{ "type": "Feature", "properties": { "PRODUCT": "24-hour QPF", "VALID_TIME": "12Z 06/20/25 - 12Z 06/21/25", "QPF": 0.5, "UNITS": "Inches", "ISSUE_TIME": "2025-06-20 10:00:00", "START_TIME": "2025-06-20 12:00:00", "END_TIME": "2025-06-21 12:00:00", "InPoly_FID": 3, "fill": "royalblue", "color": "royalblue" }, "geometry": { "type": "MultiPolygon", "coordinates": [ [ [ [ -81.947477887094749, 43.123489104138912 ], [ -81.845640252195835, 43.002318973441902 ], [ -82.018836312545773, 42.89204924107969 ], [ -81.573587383251095, 42.831731652993426 ], [ -81.382840429042517, 42.698888379695006 ], [ -81.627001225825893, 42.646149079016823 ], [ -82.551804756284412, 42.785277499157303 ], [ -82.45549684580277, 42.934684713428851 ], [ -82.54412790407946, 43.070963271937501 ], [ -82.493436193325635, 43.16377598617288 ], [ -81.947477887094749, 43.123489104138912 ] ] ], [ [ [ -70.66532416158077, 46.35713683459727 ], [ -70.78254131143234, 46.315403617882737 ], [ -70.848321451773529, 46.382221825876627 ], [ -70.683191775979651, 46.542106968461894 ], [ -70.667804639272617, 46.829226096906893 ], [ -70.241132107960368, 47.161675055759247 ], [ -70.08756176466369, 47.18664214411973 ], [ -70.086366458645102, 47.0885085532272 ], [ -70.340407976346967, 46.821595269306272 ], [ -70.367728509563051, 46.583373532362657 ], [ -70.66532416158077, 46.35713683459727 ] ] ], [ [ [ -86.0, 44.724357774800893 ], [ -86.0, 46.657413947075014 ], [ -85.835417389700751, 46.574641016369867 ], [ -85.902446569653421, 46.409074353698543 ], [ -85.850070140924231, 46.329114880547365 ], [ -85.288101246575252, 46.087093203988218 ], [ -85.328762275358656, 45.883933423788505 ], [ -84.944295438483664, 45.471980813164066 ], [ -84.971074699437793, 45.255475931968761 ], [ -84.790629058384297, 45.179017041103634 ], [ -84.878529213352465, 45.140790499581954 ], [ -85.316368818965771, 45.287611461499807 ], [ -85.564256356845362, 45.222011512921028 ], [ -85.787515948801968, 44.987788731964486 ], [ -85.759357892252865, 44.807211551571925 ], [ -86.0, 44.724357774800893 ] ] ], [ [ [ -72.085745151028377, 48.0 ], [ -66.009605933967094, 48.0 ], [ -66.361887444250101, 47.827198546375882 ], [ -66.583131331745506, 47.400114554543109 ], [ -66.986324993503615, 47.20866837834302 ], [ -66.903506389408278, 47.036354694113868 ], [ -67.154782648300511, 46.745013999596438 ], [ -67.447708906041157, 46.601903079263764 ], [ -67.682141740748705, 46.651728813034367 ], [ -67.251329604877299, 46.854918855420919 ], [ -67.270406115849539, 47.01515794508316 ], [ -67.440038514565742, 47.048376458906489 ], [ -67.756884826773273, 46.832146107456936 ], [ -67.967203674509904, 46.884968062126404 ], [ -68.640061232639709, 46.399977622169558 ], [ -68.75895780435917, 46.503009618798899 ], [ -69.083068171858599, 46.505467007296602 ], [ -69.158572155380625, 46.603847894664682 ], [ -69.551206576622178, 46.6422874424116 ], [ -69.441277774549633, 46.946804321862032 ], [ -69.148127038831717, 47.164737616947491 ], [ -69.046290091014839, 47.422536655941997 ], [ -69.484600285774548, 47.272005001329774 ], [ -69.741103455659925, 47.301516859515516 ], [ -69.8796799780485, 47.618870086285483 ], [ -69.804044325685027, 47.891269019749529 ], [ -70.009220358932396, 47.837029576154066 ], [ -70.210370328827594, 47.96774003617378 ], [ -71.056952875474792, 47.621415749537277 ], [ -71.296319611261026, 47.752513870418852 ], [ -71.723173983692334, 47.563892616750934 ], [ -71.993415188160384, 47.748170174613904 ], [ -72.085745151028377, 48.0 ] ], [ [ -66.823191863913337, 47.707593331367207 ], [ -66.860985781168836, 47.622669364899309 ], [ -66.763403769668173, 47.588228616657375 ], [ -66.54320308585369, 47.746427264206943 ], [ -66.823191863913337, 47.707593331367207 ] ], [ [ -68.79531304645991, 46.940944335812503 ], [ -68.8527863783886, 46.91192210272294 ], [ -68.862628042649987, 46.877597836471011 ], [ -68.732872007037429, 46.934746473570954 ], [ -68.79531304645991, 46.940944335812503 ] ], [ [ -68.899107578252085, 46.818966681367328 ], [ -68.88768161251636, 46.821823814917195 ], [ -68.88877129226131, 46.849951090370553 ], [ -68.897519554483836, 46.843703187152414 ], [ -68.899107578252085, 46.818966681367328 ] ] ] ] } },
{ "type": "Feature", "properties": { "PRODUCT": "24-hour QPF", "VALID_TIME": "12Z 06/20/25 - 12Z 06/21/25", "QPF": 0.25, "UNITS": "Inches", "ISSUE_TIME": "2025-06-20 10:00:00", "START_TIME": "2025-06-20 12:00:00", "END_TIME": "2025-06-21 12:00:00", "InPoly_FID": 2, "fill": "darkgreen", "color": "darkgreen" }, "geometry": { "type": "MultiPolygon", "coordinates": [ [ [ [ -72.139840487048787, 45.40636047605517 ], [ -72.384770032411041, 45.066708429650362 ], [ -72.457115291137711, 44.795188655432128 ], [ -72.712528823546336, 44.68320500140976 ], [ -72.698945903130891, 45.056949473339557 ], [ -72.494701643965641, 45.364340608532302 ], [ -72.37854748557794, 45.361294067866993 ], [ -72.381041460295137, 45.473644219904884 ], [ -72.285122821361085, 45.541709176937047 ], [ -72.145512231504256, 45.505773898446705 ], [ -72.139840487048787, 45.40636047605517 ] ] ], [ [ [ -71.4980980354959, 45.289310074000753 ], [ -71.417281976981599, 45.457391688075973 ], [ -71.135556287892314, 45.61358346700348 ], [ -70.787338801544422, 45.221787856924095 ], [ -71.004508386952466, 45.183873365763247 ], [ -71.307998514919461, 44.772437055026103 ], [ -71.464355604527498, 44.761082121342895 ], [ -71.327726890483575, 44.846837075770509 ], [ -71.234269462165912, 45.037404581955968 ], [ -71.283439634231684, 45.098168384863129 ], [ -71.48887557964423, 45.087608793610968 ], [ -71.631038735948891, 44.871481457703169 ], [ -71.913566237192072, 44.92987639058299 ], [ -71.892273690578293, 45.066963442309088 ], [ -71.715881538602105, 45.077282941554586 ], [ -71.655369280567811, 45.20810488603172 ], [ -71.4980980354959, 45.289310074000753 ] ], [ [ -71.200231501382632, 45.359593934612462 ], [ -71.193531564729881, 45.348699090490697 ], [ -71.185221248062135, 45.351275024023209 ], [ -71.189808139434035, 45.361900889014862 ], [ -71.200231501382632, 45.359593934612462 ] ], [ [ -71.151942149610477, 45.331566554053268 ], [ -71.168438162091491, 45.341189785580184 ], [ -71.179014828771301, 45.33192688002157 ], [ -71.165170616630633, 45.309194029580851 ], [ -71.151942149610477, 45.331566554053268 ] ] ], [ [ [ -86.0, 43.740120715044782 ], [ -86.0, 47.036658388242785 ], [ -85.879563607074772, 46.838129169325782 ], [ -85.505443669989347, 46.600397859673535 ], [ -85.392174761555964, 46.381372440485791 ], [ -84.903511008326348, 46.215576472276439 ], [ -84.849111733619566, 45.958711942202399 ], [ -84.58644806112909, 45.859897582507472 ], [ -84.627054671036205, 45.732926311999734 ], [ -84.423042885720577, 45.597708317684749 ], [ -84.379777197259784, 45.393917102792102 ], [ -83.493180615692836, 45.228794492072211 ], [ -83.429866795016551, 45.124152059669882 ], [ -83.754873886420683, 45.082776287495733 ], [ -83.764602510397481, 45.016484807927611 ], [ -83.466166946447402, 44.897463945404809 ], [ -83.142618263122301, 44.88946021481712 ], [ -83.244751289340513, 44.830645991919027 ], [ -83.253555554145464, 44.651653495212713 ], [ -83.339809142178126, 44.577977803732722 ], [ -83.758603135726105, 44.624233213691923 ], [ -83.930680510497098, 44.789799096651052 ], [ -84.321737321220382, 44.861606276608427 ], [ -84.852129088586537, 44.840600326843685 ], [ -85.119505752688326, 44.533389298877069 ], [ -85.087172500910128, 44.453007924975793 ], [ -84.881517205454657, 44.392285101476318 ], [ -84.236160835454143, 44.433244519019411 ], [ -84.028276240256218, 44.318074370935506 ], [ -83.728747441541145, 44.389392081379526 ], [ -83.685690470438828, 44.336331168748472 ], [ -83.855337992154602, 44.257763053821918 ], [ -83.80660036251669, 44.188379483826168 ], [ -83.281850423658113, 44.089737667159682 ], [ -83.139818356132196, 43.941495039864265 ], [ -82.581857830074739, 43.979516775179093 ], [ -81.990526004371588, 43.897751614445497 ], [ -81.864018123037908, 43.558235312609668 ], [ -81.997767482183519, 43.485427541547836 ], [ -81.962912105109524, 43.442199971751336 ], [ -81.457868017395072, 43.508038323409949 ], [ -81.163396174893535, 43.396161285814742 ], [ -80.250409357505816, 43.311898250004276 ], [ -80.797895740496017, 43.157450627944172 ], [ -80.491567971784434, 43.034562457591392 ], [ -80.770708895998723, 42.866040628072597 ], [ -80.604517976123645, 42.719363447065462 ], [ -80.585034360946963, 42.558537480520386 ], [ -80.374923584855537, 42.276465340203345 ], [ -80.707741840413576, 42.202839811108447 ], [ -81.35680138297738, 42.238531728556495 ], [ -82.468131572314178, 42.464718254044215 ], [ -82.671302577851634, 42.662083322787169 ], [ -83.533173130735349, 42.839211985344889 ], [ -83.221609261757976, 43.10309703699869 ], [ -82.883869802649258, 43.188874898957465 ], [ -83.845801669311527, 43.399148674471803 ], [ -84.064653615571842, 43.600577834399587 ], [ -83.785971202608891, 43.747413325764398 ], [ -83.066117611338655, 43.767665372059298 ], [ -83.100997702681809, 43.80479965188249 ], [ -84.01223863380585, 43.9239102037929 ], [ -84.740511113297202, 43.859529781774086 ], [ -85.034500211415605, 43.707209273089518 ], [ -85.541072706839884, 43.696666748271866 ], [ -85.431066013585621, 43.582076983066372 ], [ -85.095915515588558, 43.470755737287504 ], [ -85.015748335017634, 43.283527511885211 ], [ -84.123589987987543, 42.951471261789379 ], [ -84.428148608571405, 42.889919070908434 ], [ -84.893875331980951, 43.025893753893683 ], [ -85.126818467598184, 43.216285884186277 ], [ -85.676604712037772, 43.36001602911648 ], [ -85.769899857692224, 43.636875586439203 ], [ -86.0, 43.740120715044782 ] ], [ [ -83.617401722511431, 43.891924543582888 ], [ -83.559231294588528, 43.89843215661881 ], [ -83.548552364200191, 43.952311373171369 ], [ -83.617129792705725, 43.953892524320622 ], [ -83.617401722511431, 43.891924543582888 ] ], [ [ -82.201819607488858, 43.728746952410006 ], [ -82.196853896490097, 43.733052828125551 ], [ -82.224831209092997, 43.732394594534981 ], [ -82.216004326338577, 43.723718704354781 ], [ -82.201819607488858, 43.728746952410006 ] ], [ [ -82.085620206007661, 43.732109027409763 ], [ -82.106364846060785, 43.735412578128035 ], [ -82.122576777096526, 43.730646428489933 ], [ -82.104338898321487, 43.714243599262772 ], [ -82.085620206007661, 43.732109027409763 ] ], [ [ -82.159418790744553, 43.696204741355757 ], [ -82.166836609421978, 43.678569370580021 ], [ -82.159962545135329, 43.668079250157348 ], [ -82.14082868439624, 43.677611605191487 ], [ -82.159418790744553, 43.696204741355757 ] ] ], [ [ [ -73.018951000388313, 47.35847980100209 ], [ -72.744602829556925, 47.489811935372586 ], [ -72.853143149436733, 47.684204318474599 ], [ -72.638280665245816, 48.0 ], [ -64.755854057087234, 48.0 ], [ -65.26034552102891, 47.881965351519796 ], [ -65.45485198762907, 47.589778567626865 ], [ -65.988732619115012, 47.5081423624801 ], [ -66.064913599682825, 47.394858775312287 ], [ -65.90956067778302, 47.287725293687402 ], [ -65.923207460855622, 47.188826851877764 ], [ -66.618915045692745, 46.956090561230496 ], [ -67.119008915928703, 46.549568457318514 ], [ -66.9802016949522, 46.404837046792352 ], [ -67.143571532400244, 46.251437776132491 ], [ -67.396369472972765, 46.206467591805961 ], [ -67.760871690476108, 46.287872476034011 ], [ -68.038176270118754, 46.13510876795533 ], [ -68.707730335086865, 46.01236523017127 ], [ -68.906491116571715, 45.825249589097325 ], [ -69.425659293541514, 45.771859267391335 ], [ -69.396419393939823, 46.006946378672467 ], [ -69.563460069726375, 46.082462197272662 ], [ -70.022331889804832, 45.924441387959746 ], [ -70.469965868829718, 45.656788917974211 ], [ -70.625589854488169, 46.095860056996059 ], [ -70.989880619794747, 46.212865692597688 ], [ -71.467571485735448, 46.037108771352791 ], [ -71.839878536165486, 45.763851953005258 ], [ -71.967382586637029, 45.847127730160651 ], [ -71.769781105013919, 46.214616332677679 ], [ -71.292837188085741, 46.494141833079198 ], [ -71.510432517046979, 46.529921926355883 ], [ -71.969692105905949, 46.379416504967764 ], [ -71.877109023662456, 46.728722539713488 ], [ -71.774756480127394, 46.77557441512721 ], [ -71.320684992018755, 46.698151422250362 ], [ -71.076123165051968, 46.930721526277466 ], [ -71.051091717608642, 47.069624123954213 ], [ -71.500845591151062, 47.142493836721258 ], [ -71.992317696904138, 46.957959391113036 ], [ -72.202415760179122, 47.051455903966826 ], [ -72.621366751074675, 46.852176571591542 ], [ -72.666480552635335, 46.962519455708389 ], [ -72.488028890221074, 47.130857247963661 ], [ -72.824273257904508, 47.164510485970197 ], [ -73.018951000388313, 47.35847980100209 ] ], [ [ -65.425282712227329, 47.828144514457847 ], [ -65.406568414900391, 47.825466513269021 ], [ -65.41459196654597, 47.847394921038813 ], [ -65.422372005163879, 47.839976742632643 ], [ -65.425282712227329, 47.828144514457847 ] ], [ [ -65.85757433178992, 47.729138374336571 ], [ -65.797422457280561, 47.712219111223078 ], [ -65.744755498067718, 47.776260428575995 ], [ -65.819364809038689, 47.770952516545435 ], [ -65.85757433178992, 47.729138374336571 ] ], [ [ -70.505706355064206, 47.701746173247329 ], [ -70.596939916443944, 47.601208967919604 ], [ -70.49572813504534, 47.558464534610664 ], [ -70.339464874404371, 47.731958248074761 ], [ -70.505706355064206, 47.701746173247329 ] ], [ [ -70.392593033841422, 47.543714510916004 ], [ -70.44464737667505, 47.464824638346442 ], [ -70.381134113348594, 47.435109134978632 ], [ -70.321978487117462, 47.519783206829572 ], [ -70.392593033841422, 47.543714510916004 ] ], [ [ -70.072868077199985, 46.605261225125503 ], [ -70.063294729268307, 46.637711636083168 ], [ -70.071414643271112, 46.666943551503778 ], [ -70.093407665531288, 46.63748577494863 ], [ -70.072868077199985, 46.605261225125503 ] ], [ [ -70.1413739790259, 46.375209899117579 ], [ -70.13166349437472, 46.458791110321556 ], [ -70.277124006867382, 46.390049473704323 ], [ -70.226780815781979, 46.364781726695412 ], [ -70.1413739790259, 46.375209899117579 ] ], [ [ -70.026653399334862, 45.998110021560308 ], [ -70.028192232885203, 46.079736867462543 ], [ -70.142491790463737, 46.001432881622236 ], [ -70.119867736406889, 45.98228956271322 ], [ -70.026653399334862, 45.998110021560308 ] ] ] ] } },
{ "type": "Feature", "properties": { "PRODUCT": "24-hour QPF", "VALID_TIME": "12Z 06/20/25 - 12Z 06/21/25", "QPF": 0.01, "UNITS": "Inches", "ISSUE_TIME": "2025-06-20 10:00:00", "START_TIME": "2025-06-20 12:00:00", "END_TIME": "2025-06-21 12:00:00", "InPoly_FID": 0, "fill": "lime", "color": "lime" }, "geometry": { "type": "MultiPolygon", "coordinates": [ [ [ [ -73.251417946137707, 36.0 ], [ -72.253718198735839, 36.56042494915215 ], [ -71.746350498476659, 37.109694319037658 ], [ -70.805121510049617, 37.596460454186683 ], [ -70.746495350679822, 37.80108619047536 ], [ -68.756415792354915, 38.617353027120544 ], [ -68.686041412281327, 38.60509348337763 ], [ -68.704690139138563, 38.496400625888214 ], [ -68.892246905770037, 38.355122541871879 ], [ -68.563373789868479, 38.504901347019597 ], [ -68.313756929438682, 38.498153028639422 ], [ -67.483796329137249, 38.836806527199542 ], [ -67.230974193204418, 38.801671300889893 ], [ -67.215251011325051, 38.673188904044764 ], [ -66.927380449847817, 38.70905452554598 ], [ -66.514639153574024, 38.54916690802645 ], [ -66.052397900242852, 38.55296245715175 ], [ -66.585680701103456, 38.235327672434209 ], [ -66.366753646163772, 38.20847668425165 ], [ -65.309109341622786, 38.561861303656315 ], [ -64.83283003627713, 38.533135610320187 ], [ -65.531986357006005, 36.0 ], [ -73.251417946137707, 36.0 ] ], [ [ -66.565938425617787, 38.516115079047722 ], [ -66.565016706855488, 38.515403193702468 ], [ -66.564334350749675, 38.516816221091801 ], [ -66.565364347886316, 38.516887471679524 ], [ -66.565938425617787, 38.516115079047722 ] ], [ [ -66.650051917661813, 38.207560572762247 ], [ -66.64916283079998, 38.206870975315326 ], [ -66.648482917252807, 38.208295880950175 ], [ -66.649278051041165, 38.208396333424105 ], [ -66.650051917661813, 38.207560572762247 ] ], [ [ -66.593998252817073, 38.151448065276043 ], [ -66.593319110888217, 38.150686200108112 ], [ -66.592466577870255, 38.151471299261118 ], [ -66.59321580846273, 38.15222053075297 ], [ -66.593998252817073, 38.151448065276043 ] ], [ [ -66.650072326876341, 38.123429748983767 ], [ -66.649391523899681, 38.123134023116734 ], [ -66.648546805090916, 38.123453318415955 ], [ -66.649160842398942, 38.123861841750625 ], [ -66.650072326876341, 38.123429748983767 ] ], [ [ -70.576868310124382, 37.674665151275747 ], [ -70.576170830119679, 37.674224153422017 ], [ -70.575297082993927, 37.674819787003628 ], [ -70.576151199718026, 37.675460770698066 ], [ -70.576868310124382, 37.674665151275747 ] ], [ [ -70.646554676457129, 37.646520614234987 ], [ -70.633398275709794, 37.652447830003382 ], [ -70.631580729666894, 37.668223529592296 ], [ -70.682308035587312, 37.646589906099337 ], [ -70.646554676457129, 37.646520614234987 ] ], [ [ -72.03542274936035, 36.749087445729117 ], [ -72.034671783076305, 36.748622709370579 ], [ -72.033811344118192, 36.749161599328374 ], [ -72.034987743689385, 36.749958350097813 ], [ -72.03542274936035, 36.749087445729117 ] ] ], [ [ [ -65.54129322909921, 38.736168201201565 ], [ -65.213969502990153, 38.949343633002286 ], [ -64.724811655933138, 38.938506453410128 ], [ -65.088408565502846, 38.680954970795312 ], [ -65.846332695597368, 38.50629989982059 ], [ -65.80409552308987, 38.621054444207289 ], [ -65.54129322909921, 38.736168201201565 ] ] ], [ [ [ -73.672334320572418, 42.811001310362258 ], [ -73.381828554843878, 42.681442246962206 ], [ -73.327011572026379, 42.564240459329767 ], [ -73.224691570459584, 42.637167619889794 ], [ -73.143433975397613, 42.570746727879225 ], [ -73.373653042953549, 42.424021888199661 ], [ -73.719907034082325, 42.512572208041036 ], [ -74.006717081727913, 42.710942727824659 ], [ -73.922257870504268, 42.826835093564796 ], [ -73.672334320572418, 42.811001310362258 ] ] ], [ [ [ -76.32687531064704, 43.805888607673182 ], [ -76.327145958918834, 43.913971963135623 ], [ -76.09622567737307, 43.886881873100037 ], [ -76.13626866326814, 44.021783189142923 ], [ -75.91987094258991, 44.068860499412551 ], [ -75.10475221104565, 43.804491276151509 ], [ -75.233087879901689, 43.733164436689435 ], [ -75.563787265270037, 43.812685365337416 ], [ -75.587180661458319, 43.679179087544924 ], [ -75.361806230073398, 43.51035859587256 ], [ -75.480864922578064, 43.405541733664109 ], [ -76.37558812169442, 43.602333683352867 ], [ -76.379367451546614, 43.697543499133246 ], [ -76.264199790088185, 43.755225299308165 ], [ -76.32687531064704, 43.805888607673182 ] ], [ [ -76.143815347600196, 43.732717983548127 ], [ -76.091625625322308, 43.732281167541885 ], [ -76.079329777747034, 43.733077782513703 ], [ -76.151817858707147, 43.733293326625756 ], [ -76.143815347600196, 43.732717983548127 ] ] ], [ [ [ -74.854738246872557, 46.916027068994083 ], [ -74.618757178900637, 47.570205450121477 ], [ -74.697954655816915, 48.0 ], [ -61.70782618412165, 48.0 ], [ -62.108238116295979, 46.959123668722384 ], [ -62.882226247043604, 46.621838676613663 ], [ -62.821375192810876, 46.516075670056182 ], [ -62.930750202259958, 46.410011224238644 ], [ -63.427334413352469, 46.194512567501022 ], [ -63.889114605854331, 46.387325001847387 ], [ -63.923028261445097, 46.24751809268588 ], [ -64.018899750722881, 46.205838894649332 ], [ -64.165933737751743, 46.2402697359596 ], [ -64.021231297086672, 46.368242443833765 ], [ -64.707748590325139, 46.257968610562955 ], [ -64.480539618408613, 46.271921441921052 ], [ -64.38741347964833, 46.161491493537653 ], [ -64.594201982935147, 46.087489389523739 ], [ -64.813932664860545, 45.658906287195464 ], [ -65.227689264248113, 45.384255858720962 ], [ -65.818103114167343, 45.161227403322073 ], [ -66.650447681415301, 45.014024136005105 ], [ -66.499118619528645, 44.918574127494026 ], [ -66.520122424410317, 44.828877825851009 ], [ -67.616918949849605, 44.943263771405952 ], [ -68.357389206746461, 44.752596456661195 ], [ -68.962041832864259, 44.880107994888078 ], [ -69.269938262940457, 44.819267391676817 ], [ -69.453615218467519, 45.002670201468675 ], [ -69.764218253569481, 44.859449949655527 ], [ -70.13118349382313, 44.964946613895165 ], [ -70.349496625668678, 44.823654597581651 ], [ -70.304456290625296, 44.673402642018345 ], [ -70.659768662593649, 44.571491024391321 ], [ -71.004479729156117, 44.341405239060578 ], [ -71.419570471000384, 43.883811592131337 ], [ -71.605919715222626, 43.928324164528647 ], [ -71.753630583284746, 43.855312065699309 ], [ -71.921269337909564, 43.922194072498485 ], [ -71.965539247138508, 44.028442160777161 ], [ -71.806002034266442, 44.236426229986591 ], [ -71.980481613335769, 44.325879415202905 ], [ -72.217873572807093, 44.015767987302809 ], [ -72.633137935067623, 43.995691046204854 ], [ -72.699796021469183, 43.755671613054574 ], [ -72.643992309697296, 43.496319864869918 ], [ -72.708277162560989, 43.4548681656334 ], [ -72.870781384553197, 43.509627662886373 ], [ -73.023636400799205, 43.725654046297279 ], [ -73.345591532223409, 44.681714009993641 ], [ -73.509365762419975, 44.705563037803984 ], [ -73.965726898377625, 44.468163061775954 ], [ -73.833433322190047, 44.477612439962172 ], [ -73.783156614386201, 44.371736573883823 ], [ -73.772084236897967, 44.109296812797709 ], [ -73.888935478689348, 44.021506963275783 ], [ -74.24155429479481, 44.065344685309014 ], [ -74.205832784255563, 44.21953100035546 ], [ -73.978053497370979, 44.248675382962631 ], [ -74.065695938117017, 44.291793528648498 ], [ -74.068510047200903, 44.420387252569697 ], [ -74.38188153190714, 44.418894753889845 ], [ -74.568736587223668, 44.505210249453512 ], [ -74.431773624852838, 44.98362197327549 ], [ -74.520715665995169, 45.420036456517323 ], [ -74.105048780676668, 45.718239861380539 ], [ -74.238954423108112, 45.862182221132628 ], [ -74.525168769722882, 45.883036019996382 ], [ -74.763642107297358, 46.190939078076042 ], [ -74.801049470756425, 46.351137303443863 ], [ -74.72105402652204, 46.506956349356074 ], [ -74.854738246872557, 46.916027068994083 ] ], [ [ -63.679854492190998, 46.397826615605879 ], [ -63.711600231265606, 46.398603665826556 ], [ -63.728994771691305, 46.397657694147313 ], [ -63.696334850173173, 46.396737204758267 ], [ -63.679854492190998, 46.397826615605879 ] ] ], [ [ [ -86.0, 43.088867748203711 ], [ -86.0, 48.0 ], [ -85.192769489952013, 48.0 ], [ -85.364512296205476, 47.86977977701514 ], [ -85.261951193592665, 47.756225609924002 ], [ -84.871497314449471, 47.640331343916444 ], [ -84.755500307193358, 47.39102591871125 ], [ -83.956803270854209, 46.998894392062596 ], [ -83.932006088710011, 46.89166083567909 ], [ -83.759093313905282, 46.798094631661968 ], [ -83.155174007574374, 46.648650494824551 ], [ -83.051245077498265, 46.486258729456836 ], [ -82.854045618910163, 46.407263352921461 ], [ -82.885058113740911, 46.296860175556731 ], [ -82.793992126635317, 46.192661342746817 ], [ -82.125911333741044, 46.138762953547541 ], [ -81.235048513178299, 45.81895973790165 ], [ -80.75490164279654, 45.739534945881076 ], [ -79.929118827771674, 45.262657750554808 ], [ -79.439260768569568, 45.129209523101053 ], [ -79.43859292752154, 45.023237367510546 ], [ -79.676018617864884, 44.887489650027362 ], [ -79.611887823364327, 44.80894427895538 ], [ -79.298805894276541, 44.745488022754103 ], [ -78.770747080713193, 44.85481816142908 ], [ -78.52000431314849, 44.786750367035836 ], [ -78.546519918959063, 44.668983087499555 ], [ -78.791336262158723, 44.681387537205126 ], [ -78.394153614098002, 44.495640765908661 ], [ -78.419759710342305, 44.350836479719817 ], [ -77.695619475358455, 44.19859222185363 ], [ -77.338408462780308, 43.996497637356129 ], [ -77.011430090726094, 43.944114251471603 ], [ -76.766871695572263, 43.715115123264354 ], [ -76.768717193443706, 43.542357387983145 ], [ -76.555314698114785, 43.558721532872482 ], [ -76.15012919360737, 43.441618096897685 ], [ -76.015690745131735, 43.301574729889921 ], [ -75.709069222766402, 43.298395530229584 ], [ -75.720676130299125, 43.197286813835433 ], [ -75.831893561038953, 43.135899120647935 ], [ -75.195360943252865, 43.093391150581169 ], [ -75.262978779846776, 43.242935719208106 ], [ -74.946085545511494, 43.307159267985867 ], [ -74.823901466079747, 43.14944618149616 ], [ -75.037059372791759, 43.017407479471672 ], [ -74.552347253223104, 43.056614830609988 ], [ -74.159507736193007, 42.960145070039005 ], [ -74.093568213502238, 42.878771417467021 ], [ -74.171048776479836, 42.783302406281052 ], [ -74.435119468888331, 42.847715319906115 ], [ -74.684004095912258, 42.617820645906136 ], [ -74.950573622974275, 42.720491936153962 ], [ -75.229621143600866, 42.675615082570062 ], [ -75.699784576996592, 42.801507800644515 ], [ -75.728168134951432, 42.575610581663057 ], [ -76.082553688102166, 42.448365820126526 ], [ -75.932052332549063, 42.361627150372726 ], [ -75.569975699019267, 42.406743259593782 ], [ -75.271065607791513, 42.341420351667921 ], [ -75.159580766339275, 42.458749701837348 ], [ -74.888907616593201, 42.434803322415462 ], [ -74.635851549009715, 42.327516402060382 ], [ -74.891943592922416, 42.251021004116126 ], [ -74.685822202232828, 42.232377728049755 ], [ -74.456622715865592, 42.081637199597139 ], [ -74.495478546297818, 41.949245580219383 ], [ -74.74328091748032, 41.882264795483991 ], [ -75.009017080573756, 41.936043124290791 ], [ -75.046290793085575, 41.797819634368693 ], [ -75.207324067751472, 41.733021372038763 ], [ -74.673764682194303, 41.557253034799771 ], [ -74.640084641692795, 41.447282899885977 ], [ -75.31440261159122, 41.576401309872608 ], [ -75.104530636979291, 41.44751808069492 ], [ -75.35196871798189, 41.278892882200807 ], [ -75.317021561495835, 41.010376682637855 ], [ -75.814377476339416, 40.824160478723172 ], [ -76.103380174555355, 40.807890412812355 ], [ -75.770216373386859, 40.808325847459969 ], [ -75.120620333961199, 40.550716683228416 ], [ -75.020176803816412, 40.425659697936737 ], [ -75.051489737861061, 40.35196322582226 ], [ -75.315762537610965, 40.352627841002118 ], [ -75.604669127078523, 40.496580086102142 ], [ -75.859490015251936, 40.414552976238895 ], [ -75.92482003681522, 40.500830784812933 ], [ -75.827593696391943, 40.591487142417748 ], [ -76.147150000472095, 40.566499946115698 ], [ -76.54603784227254, 40.652541112482425 ], [ -77.015551663878171, 40.958161591384396 ], [ -77.115670546858212, 40.913329146323122 ], [ -76.958802280800569, 40.783253854082147 ], [ -77.008325336944722, 40.68742866729923 ], [ -77.595538921483978, 40.681117846611357 ], [ -77.752384811509785, 40.764916505792144 ], [ -77.770135617464746, 40.946329490014023 ], [ -78.069447621110783, 40.835143065200327 ], [ -78.261699737352956, 40.578163602668155 ], [ -78.453795437209635, 40.585175491655662 ], [ -78.590979543770914, 40.241901418515681 ], [ -78.963180150443577, 40.271606489747739 ], [ -78.925396637444805, 40.111600302012391 ], [ -79.075556540202115, 40.106118184106947 ], [ -79.320628591236471, 39.948107878875589 ], [ -79.871512485212975, 40.124122288612796 ], [ -79.625936579109805, 40.004559708663692 ], [ -79.711670461522544, 39.939748365694584 ], [ -79.619145052801912, 39.737925803633004 ], [ -79.661606955096886, 39.673425707030788 ], [ -80.835802376078732, 40.134484491266335 ], [ -80.761626077881147, 40.383865541361672 ], [ -80.342161960805811, 40.315487606767704 ], [ -80.723504758837521, 40.544626574157121 ], [ -81.086689724950816, 40.604081653945229 ], [ -81.18882753106567, 40.871529464313369 ], [ -81.743384080910573, 40.995251450993749 ], [ -81.855809091616266, 41.173967577042106 ], [ -82.518840406159768, 41.217798614414562 ], [ -82.560972241975321, 41.315596131356415 ], [ -82.825952846846349, 41.442492533303835 ], [ -83.139780291427257, 41.44102581548907 ], [ -83.402097980337487, 41.619832045512567 ], [ -84.071821106159064, 41.726509151775986 ], [ -84.147084787233098, 41.84607164089357 ], [ -84.04154190233686, 42.023389161080956 ], [ -84.622438339457744, 42.117631267668912 ], [ -84.596127909475399, 42.297793916356227 ], [ -84.664912339432874, 42.387046796472532 ], [ -84.947069200383226, 42.390231802155995 ], [ -85.185101201059524, 42.489217027643747 ], [ -85.332553063473085, 42.664818810439783 ], [ -85.691552858177829, 42.82136243113132 ], [ -86.0, 43.088867748203711 ] ], [ [ -76.129904850928085, 42.528442516309156 ], [ -76.128710935261438, 42.536140611400128 ], [ -76.129638211833992, 42.553514338815717 ], [ -76.130561659093246, 42.545925196590588 ], [ -76.129904850928085, 42.528442516309156 ] ], [ [ -75.015900458239514, 42.274407449444311 ], [ -75.081891029147641, 42.275464092593836 ], [ -75.111839349006686, 42.274574397790275 ], [ -75.080274562521026, 42.273643282011903 ], [ -75.015900458239514, 42.274407449444311 ] ], [ [ -75.29535562985842, 41.956687255212728 ], [ -75.327881242125557, 41.937311014591728 ], [ -75.237372535214263, 41.952440687987405 ], [ -75.285473970946953, 42.007493761727801 ], [ -75.29535562985842, 41.956687255212728 ] ], [ [ -75.176789717271618, 41.966055960614142 ], [ -75.176085725275982, 41.965600970208641 ], [ -75.175244277301545, 41.966051436124928 ], [ -75.176086432143109, 41.966831350686334 ], [ -75.176789717271618, 41.966055960614142 ] ], [ [ -83.956680424362048, 41.966459928882671 ], [ -83.974641978344607, 41.966952922839198 ], [ -83.982056069332089, 41.966257853916886 ], [ -83.963548077381802, 41.965665942629187 ], [ -83.956680424362048, 41.966459928882671 ] ], [ [ -75.456874101358665, 41.994092833517527 ], [ -75.456404013134659, 41.993687063007599 ], [ -75.455706322688627, 41.994095191539884 ], [ -75.456470363316555, 41.994859233067189 ], [ -75.456874101358665, 41.994092833517527 ] ], [ [ -82.029006366950227, 41.777458366310611 ], [ -82.076656557953754, 41.837717436410628 ], [ -82.510003764861835, 41.770018612269212 ], [ -82.385561583100525, 41.614426593912242 ], [ -82.101925616174185, 41.498112731217645 ], [ -82.02196701176814, 41.329718503805964 ], [ -81.476063642423128, 41.338763215849781 ], [ -81.489722810059618, 41.650856190161107 ], [ -81.788930233343535, 41.664937174011413 ], [ -82.029006366950227, 41.777458366310611 ] ], [ [ -76.705394191588653, 41.741948418584684 ], [ -76.769208621680491, 41.742547590998583 ], [ -76.794637793399431, 41.741793299920914 ], [ -76.698777314521408, 41.741436611710299 ], [ -76.705394191588653, 41.741948418584684 ] ], [ [ -75.764004156166834, 41.461259589358633 ], [ -75.770139373433324, 41.5105662821083 ], [ -75.835686593861169, 41.518234168971787 ], [ -75.803874605328758, 41.507742097020241 ], [ -75.764004156166834, 41.461259589358633 ] ], [ [ -75.681633031339288, 41.489186432907616 ], [ -75.681018120789588, 41.488777213497656 ], [ -75.680111184183772, 41.489196310161617 ], [ -75.680932681597938, 41.489479613693277 ], [ -75.681633031339288, 41.489186432907616 ] ], [ [ -76.954891244335442, 41.30630323880348 ], [ -76.810867927612719, 41.269948472444128 ], [ -76.531883993551446, 41.235442925350753 ], [ -76.592466119915457, 41.282936655902006 ], [ -76.556502780778658, 41.380364047862599 ], [ -76.642581354445895, 41.422684859118988 ], [ -77.062861054993675, 41.512679357066702 ], [ -77.205438096390992, 41.474832105517294 ], [ -76.954891244335442, 41.30630323880348 ] ], [ [ -76.083993506295258, 41.404720796927279 ], [ -75.992233530353133, 41.404141360135725 ], [ -75.946293781532745, 41.404865818003145 ], [ -76.088902495253933, 41.405196324250994 ], [ -76.083993506295258, 41.404720796927279 ] ], [ [ -76.013911833963903, 41.250253873617453 ], [ -75.976662452610071, 41.265146747424524 ], [ -76.114462529122363, 41.236673327412177 ], [ -76.041946392012335, 41.238099242086378 ], [ -76.013911833963903, 41.250253873617453 ] ], [ [ -83.00226330980388, 41.573349440724144 ], [ -83.001661755985197, 41.572917324574917 ], [ -83.001080399141074, 41.57336333524978 ], [ -83.001529802058656, 41.573768841358969 ], [ -83.00226330980388, 41.573349440724144 ] ], [ [ -76.438905378680261, 41.180704554971271 ], [ -76.438150780933768, 41.179949957224778 ], [ -76.437419050248934, 41.18068543178731 ], [ -76.438169904117728, 41.181436285656105 ], [ -76.438905378680261, 41.180704554971271 ] ], [ [ -81.612618027499934, 41.123999963527524 ], [ -81.602963181205837, 41.124373469959721 ], [ -81.651581547250544, 41.124398582628544 ], [ -81.643744541077695, 41.124014218681282 ], [ -81.612618027499934, 41.123999963527524 ] ], [ [ -81.488709362247221, 41.096618047085258 ], [ -81.50456084320831, 41.09700920451121 ], [ -81.513504315871444, 41.096541084903208 ], [ -81.497197156523498, 41.096074184775887 ], [ -81.488709362247221, 41.096618047085258 ] ], [ [ -75.709283201158769, 41.012396789280444 ], [ -75.708889477966977, 41.011648436426242 ], [ -75.708164001167688, 41.012379032166677 ], [ -75.708907132558068, 41.013130636969379 ], [ -75.709283201158769, 41.012396789280444 ] ], [ [ -76.943312261651499, 41.010894363883835 ], [ -76.943967928577024, 40.9939039841816 ], [ -76.943027333044938, 40.985369729129729 ], [ -76.942112160447834, 41.002961978312726 ], [ -76.943312261651499, 41.010894363883835 ] ], [ [ -76.775272153087371, 40.967361024591639 ], [ -76.753095288716565, 40.981509378455087 ], [ -76.672935745188454, 40.984489571636459 ], [ -76.757405881376258, 40.983532363827578 ], [ -76.775272153087371, 40.967361024591639 ] ], [ [ -80.929840963389722, 40.984211430213406 ], [ -80.957482042861955, 40.984831391355669 ], [ -80.978400735905211, 40.984151103690522 ], [ -80.950392842755434, 40.983415829676858 ], [ -80.929840963389722, 40.984211430213406 ] ], [ [ -78.411945459715128, 40.927805664599816 ], [ -78.387230632087949, 40.922092251855986 ], [ -78.316266505394879, 40.887102976521192 ], [ -78.327847357769315, 40.923684907132838 ], [ -78.411945459715128, 40.927805664599816 ] ], [ [ -80.757829234631458, 40.845791641670985 ], [ -80.756672800009653, 40.85444344081219 ], [ -80.757607074207044, 40.870901777994732 ], [ -80.758533243714169, 40.863018245395779 ], [ -80.757829234631458, 40.845791641670985 ] ], [ [ -80.842507250009533, 40.844093794493062 ], [ -80.841751965181004, 40.843342130335088 ], [ -80.840996679453156, 40.844093794493062 ], [ -80.841751965181004, 40.844512876767908 ], [ -80.842507250009533, 40.844093794493062 ] ], [ [ -79.588721003271644, 40.732775755696593 ], [ -79.744147148871775, 40.78751945815651 ], [ -79.997534460147165, 40.760995955399096 ], [ -79.905042097015155, 40.700474174443627 ], [ -79.588721003271644, 40.732775755696593 ] ], [ [ -80.949145876980594, 40.742118176612621 ], [ -80.905211490417912, 40.766994450533502 ], [ -80.904754226526279, 40.782714246465332 ], [ -80.946764563933414, 40.781446633155667 ], [ -80.969883122807857, 40.704911691121708 ], [ -80.949145876980594, 40.742118176612621 ] ], [ [ -78.69742451073256, 40.602072206067533 ], [ -78.670349178571712, 40.639052471594368 ], [ -78.852855453316465, 40.619850558256701 ], [ -78.707798051139093, 40.588447620061686 ], [ -78.69742451073256, 40.602072206067533 ] ], [ [ -79.832762583226611, 40.451406806079262 ], [ -79.832013280688329, 40.450665905906874 ], [ -79.831263977250728, 40.451406806079262 ], [ -79.832013280688329, 40.451801038287329 ], [ -79.832762583226611, 40.451406806079262 ] ], [ [ -80.151571976065782, 40.255160172903686 ], [ -80.256473072374376, 40.2429573889724 ], [ -80.123362556536733, 40.082124837591209 ], [ -80.159088429687245, 40.160874736979565 ], [ -80.151571976065782, 40.255160172903686 ] ], [ [ -80.141314073185868, 40.030723105786763 ], [ -80.140392354423568, 40.030011220441509 ], [ -80.139709998317755, 40.031424248730161 ], [ -80.140739995454396, 40.031495498418565 ], [ -80.141314073185868, 40.030723105786763 ] ], [ [ -79.304451950497082, 40.092800810109338 ], [ -79.316604519882674, 40.088842735503874 ], [ -79.348932754343082, 40.086798566600635 ], [ -79.298750339556477, 40.107986022037323 ], [ -79.304451950497082, 40.092800810109338 ] ], [ [ -77.51291371569539, 40.86391348901634 ], [ -77.540037783916546, 40.844840587023498 ], [ -77.38389208265346, 40.843481498272581 ], [ -77.487064707170475, 40.890444908505799 ], [ -77.51291371569539, 40.86391348901634 ] ], [ [ -76.900959182720044, 40.955814575782085 ], [ -76.888320450628271, 40.956474179939505 ], [ -76.913851134222455, 40.956494820279772 ], [ -76.91044817694177, 40.955928427255174 ], [ -76.900959182720044, 40.955814575782085 ] ], [ [ -76.217810862281453, 40.815824972944199 ], [ -76.251762432390308, 40.816509962265002 ], [ -76.266455886030258, 40.815885875033132 ], [ -76.245361326963632, 40.815128280745625 ], [ -76.217810862281453, 40.815824972944199 ] ], [ [ -76.07367186396533, 40.700051663953161 ], [ -76.074480623382044, 40.669918191671286 ], [ -76.073541509932681, 40.651507796847397 ], [ -76.072602397382695, 40.681715058503187 ], [ -76.07367186396533, 40.700051663953161 ] ] ] ] } },
{ "type": "Feature", "properties": { "PRODUCT": "24-hour QPF", "VALID_TIME": "12Z 06/20/25 - 12Z 06/21/25", "QPF": 0.1, "UNITS": "Inches", "ISSUE_TIME": "2025-06-20 10:00:00", "START_TIME": "2025-06-20 12:00:00", "END_TIME": "2025-06-21 12:00:00", "InPoly_FID": 1, "fill": "green", "color": "green" }, "geometry": { "type": "MultiPolygon", "coordinates": [ [ [ [ -65.14499566321922, 37.848861031111767 ], [ -65.057025817087776, 37.788780681483331 ], [ -65.120140473004369, 37.586428157933199 ], [ -65.537274570764794, 37.435642127382323 ], [ -65.185283769230523, 37.3756428327506 ], [ -65.448364641714818, 37.270803785166606 ], [ -65.442652012280519, 37.162839226549124 ], [ -65.620641288264778, 37.039782380252689 ], [ -65.680455373816415, 36.834854651620901 ], [ -66.695108304704434, 36.518984960887281 ], [ -67.602349704275412, 36.484625725396938 ], [ -67.970319101445341, 36.55393318486864 ], [ -67.9427190850177, 36.699217360093144 ], [ -68.061911678481124, 36.707317774096055 ], [ -68.420770358765026, 36.58749662646818 ], [ -68.865605542361834, 36.625278749115012 ], [ -69.022957077107378, 36.561829416794183 ], [ -69.120948095777976, 36.412861670629638 ], [ -68.710587927290987, 36.281261001394171 ], [ -68.835387685793023, 36.14898653580002 ], [ -69.018231127164768, 36.156060925871088 ], [ -69.273474552808352, 36.342168077994472 ], [ -69.646187094059087, 36.244382034603291 ], [ -69.850891594771269, 36.282846749877649 ], [ -69.765541368539289, 36.375604568596032 ], [ -69.473366302812565, 36.391908467901544 ], [ -69.66957786962297, 36.554189926923641 ], [ -69.613284765679339, 36.648092373064628 ], [ -68.610996157646525, 37.039672414750214 ], [ -69.763360381276527, 36.912894340201717 ], [ -70.552779673243265, 36.645489967088338 ], [ -71.138348504779628, 36.675556366133435 ], [ -71.279395210320672, 36.603536453344702 ], [ -70.991846357023746, 36.598287669040758 ], [ -71.197541456473004, 36.390978407027887 ], [ -72.028465710923797, 36.091147307502297 ], [ -72.17585617392325, 36.164044337176449 ], [ -72.091195796948455, 36.40851521840267 ], [ -70.85547516294838, 36.894830178070322 ], [ -70.595424449978339, 37.120361786667161 ], [ -70.312094538532108, 37.206984632734645 ], [ -69.915189566944946, 37.471928106397058 ], [ -67.875274465943789, 38.105298763627104 ], [ -67.801656391329345, 38.075993409568241 ], [ -68.569752825032822, 37.768119878030006 ], [ -69.017432884420032, 37.543207512017091 ], [ -69.128003656743317, 37.390418935885236 ], [ -69.43259760899241, 37.287191378979003 ], [ -68.712266049638458, 37.436940021764656 ], [ -67.411932749996367, 37.939576410323127 ], [ -67.174109170801557, 37.901656760651008 ], [ -67.010545257857302, 37.740851754604819 ], [ -65.631390329799842, 38.051979046795623 ], [ -65.571429280636778, 37.938303053942832 ], [ -65.347788609057034, 37.944191233738479 ], [ -65.14499566321922, 37.848861031111767 ] ], [ [ -69.527621999855342, 37.275024894383421 ], [ -69.536402593604748, 37.267886752271863 ], [ -69.566112986125347, 37.254995737863055 ], [ -69.508477681799548, 37.256738227387359 ], [ -69.506117301372342, 37.306575746773319 ], [ -69.527621999855342, 37.275024894383421 ] ], [ [ -69.626517719417166, 37.281615704601165 ], [ -69.625721069371821, 37.274563485516524 ], [ -69.618602316643546, 37.277132923245858 ], [ -69.619568753295312, 37.282607917621363 ], [ -69.626517719417166, 37.281615704601165 ] ], [ [ -70.284266154559361, 37.01648584464607 ], [ -69.828802186771441, 37.117095940025649 ], [ -69.659879294693667, 37.23557404730451 ], [ -69.896478939751205, 37.227046362699525 ], [ -70.385603882413193, 37.024512959405627 ], [ -70.284266154559361, 37.01648584464607 ] ], [ [ -67.424140660063358, 37.108755683128322 ], [ -67.528208767420665, 37.047949299120887 ], [ -67.477099757747567, 36.984173996732636 ], [ -67.116851865021488, 37.089991575051215 ], [ -67.195539029502584, 37.158892853922111 ], [ -67.424140660063358, 37.108755683128322 ] ], [ [ -67.049495008088115, 37.141617438593983 ], [ -67.042064621385123, 37.13809088568587 ], [ -67.034536535032998, 37.141619026796718 ], [ -67.042769708755031, 37.144094399936648 ], [ -67.049495008088115, 37.141617438593983 ] ], [ [ -68.488713939696538, 37.015597712864235 ], [ -68.462379273884324, 37.057495861644725 ], [ -68.525552271520098, 37.057366933936919 ], [ -68.508242856422669, 37.012384161799673 ], [ -68.488713939696538, 37.015597712864235 ] ], [ [ -68.306615638800679, 37.057720492506803 ], [ -68.304510611875173, 37.056760401471422 ], [ -68.300300570614809, 37.057758640848647 ], [ -68.303859327346061, 37.060190623498499 ], [ -68.306615638800679, 37.057720492506803 ] ], [ [ -68.3680685867958, 37.085263785095663 ], [ -68.362982524024233, 37.079269022147685 ], [ -68.360194390059007, 37.077990176305661 ], [ -68.359360100688036, 37.085634413697278 ], [ -68.3680685867958, 37.085263785095663 ] ], [ [ -70.495570492883928, 37.001227808316742 ], [ -70.493873649349382, 36.99612447946123 ], [ -70.491538176545589, 36.993632749451876 ], [ -70.48813953241347, 37.001197988596346 ], [ -70.495570492883928, 37.001227808316742 ] ], [ [ -71.459736873557802, 36.574825489105081 ], [ -71.612176112537497, 36.550762383976917 ], [ -71.663728211887417, 36.516544164881338 ], [ -71.404729038414359, 36.578758756811226 ], [ -71.459736873557802, 36.574825489105081 ] ], [ [ -69.187220119412927, 36.387599764717436 ], [ -69.219967156459063, 36.386361346099307 ], [ -69.228478860111238, 36.382892461318079 ], [ -69.169298390108565, 36.382325114112803 ], [ -69.187220119412927, 36.387599764717436 ] ], [ [ -66.851747279613221, 37.483133061041997 ], [ -66.885649807892264, 37.484637345337262 ], [ -66.905332130973022, 37.478502959044363 ], [ -66.846567922071927, 37.477089404652361 ], [ -66.851747279613221, 37.483133061041997 ] ], [ [ -66.769207184763729, 37.506196873686804 ], [ -66.76228640249542, 37.501967831550246 ], [ -66.753806765070124, 37.506521301416967 ], [ -66.760727548237696, 37.510750344452902 ], [ -66.769207184763729, 37.506196873686804 ] ], [ [ -66.712665805882182, 37.507066718654187 ], [ -66.70068627325287, 37.50931836834809 ], [ -66.702831480988038, 37.536885617077644 ], [ -66.713286297624506, 37.532108100008884 ], [ -66.712665805882182, 37.507066718654187 ] ], [ [ -65.179696928870158, 37.694092403241882 ], [ -65.161096759108091, 37.676325414886037 ], [ -65.13432421968696, 37.731188463676688 ], [ -65.164965629060475, 37.729715369668611 ], [ -65.179696928870158, 37.694092403241882 ] ] ], [ [ [ -79.610361937353503, 41.731591392428868 ], [ -78.806634704128271, 41.695453317716499 ], [ -78.729943882604061, 41.645108719192081 ], [ -78.801354457941841, 41.523992643146016 ], [ -79.184143841565003, 41.463574500063203 ], [ -79.562219845069762, 41.493568459616768 ], [ -79.917178680951338, 41.675082825312188 ], [ -79.808159303009404, 41.758340498215489 ], [ -79.610361937353503, 41.731591392428868 ] ] ], [ [ [ -79.009463322474289, 44.21982941609474 ], [ -78.488027440214182, 44.208564741969326 ], [ -78.075287295072599, 44.085386631987546 ], [ -77.955255095446262, 43.973708971391943 ], [ -78.139530768330246, 43.899145619374906 ], [ -78.680957157846535, 43.968514677010774 ], [ -79.01503546521451, 44.067826326723662 ], [ -79.009463322474289, 44.21982941609474 ] ] ], [ [ [ -71.461730831512625, 44.508808618622879 ], [ -71.406823987536939, 44.589479236077921 ], [ -71.309456391499225, 44.562292160454888 ], [ -71.213304153663728, 44.213391482530938 ], [ -71.807577779590815, 43.997115467105175 ], [ -71.693067824720288, 44.171612878831354 ], [ -71.480698119822307, 44.284914626009254 ], [ -71.461730831512625, 44.508808618622879 ] ] ], [ [ [ -80.604400148747857, 44.47521694010976 ], [ -80.281278313343421, 44.454205297636406 ], [ -79.797344297101574, 44.243032702797052 ], [ -79.374140316922023, 44.193626423620628 ], [ -79.070655310594077, 44.038683630345304 ], [ -79.017888704699942, 43.911751778921541 ], [ -80.585846675383721, 44.12984798979295 ], [ -81.318808940380279, 44.404536905653742 ], [ -81.093453320114577, 44.708683435292357 ], [ -80.919798682862904, 44.675743480177516 ], [ -80.843426297785356, 44.525213932676877 ], [ -80.774524417268026, 44.574095517694047 ], [ -80.604400148747857, 44.47521694010976 ] ], [ [ -81.045779153185322, 44.534878797418628 ], [ -81.069610739543975, 44.547008570788989 ], [ -81.096323401203961, 44.520068390543827 ], [ -81.010534263545367, 44.519120198438486 ], [ -81.045779153185322, 44.534878797418628 ] ] ], [ [ [ -81.986593178232567, 45.135893733309217 ], [ -81.498542242830183, 45.144589122589991 ], [ -81.335906870905319, 44.978997319370819 ], [ -81.583640885518435, 44.922933893284608 ], [ -81.937821960714871, 44.975049439480074 ], [ -82.045665082077846, 45.030826621251606 ], [ -81.986593178232567, 45.135893733309217 ] ] ], [ [ [ -73.950586237065124, 47.310357928175904 ], [ -73.490391103266745, 47.597001628222642 ], [ -73.271870926378824, 48.0 ], [ -63.717416841426854, 48.0 ], [ -64.189643905741605, 47.825053882730572 ], [ -65.056829170429808, 47.139568480600929 ], [ -65.420763993963135, 46.985227761851775 ], [ -65.664627509052252, 46.73132131242869 ], [ -66.010352463195602, 46.531083168753298 ], [ -66.025034876758127, 46.26265003597041 ], [ -66.146868093787475, 46.131979185690909 ], [ -66.724734303944956, 45.901974939192144 ], [ -67.215846386801275, 45.50867432985649 ], [ -67.633711032638018, 45.594437464517455 ], [ -67.719067007336491, 45.430081297414006 ], [ -68.334069748320189, 45.216234027978089 ], [ -68.89990271383914, 45.55115240735779 ], [ -69.289520522054431, 45.365714740243106 ], [ -69.646071125581955, 45.347258521363699 ], [ -69.784018962505058, 45.687875193185675 ], [ -70.031645295893668, 45.714667322538958 ], [ -70.428986666201638, 45.533459512346667 ], [ -70.377544198705777, 45.454017724938126 ], [ -70.441497653194119, 45.331976256399173 ], [ -70.661058680713495, 45.246976027421795 ], [ -70.768539163051912, 45.095403314011776 ], [ -70.915324680889285, 45.076057092760664 ], [ -70.931201574892725, 44.964894213996843 ], [ -71.361175150512736, 44.625830946540987 ], [ -71.683996165390681, 44.798076503527852 ], [ -71.988743489820138, 44.712220012943305 ], [ -72.123908331504254, 45.02031970868768 ], [ -72.246561900211475, 45.047054427120145 ], [ -72.901409165600455, 43.994212546371955 ], [ -72.980351431773101, 44.184592335268121 ], [ -72.885182822928869, 44.644280819804067 ], [ -72.965110305396252, 44.759636202149068 ], [ -72.928022405409649, 45.066845513309829 ], [ -72.999499221212034, 45.350304803024301 ], [ -73.6299084613064, 45.466831367074008 ], [ -73.184728087331337, 46.202782774405591 ], [ -72.703244103132818, 46.371765780766225 ], [ -72.681822307753237, 46.502369739471931 ], [ -72.770774467167882, 46.612533496623598 ], [ -72.931125526022186, 46.629556113423973 ], [ -73.791316027512607, 46.499868151094347 ], [ -73.839204997512581, 46.633909669395791 ], [ -73.71448255102888, 46.84291914110554 ], [ -73.842706402678289, 46.962002893218994 ], [ -73.950586237065124, 47.310357928175904 ] ], [ [ -67.358049609701709, 45.83692600792898 ], [ -67.351302974852388, 45.833919828837111 ], [ -67.343053054854579, 45.837553581832367 ], [ -67.350518977368893, 45.844367574104297 ], [ -67.358049609701709, 45.83692600792898 ] ], [ [ -70.829754242164483, 45.388157505364632 ], [ -70.826905375182889, 45.386492148893637 ], [ -70.820569481396433, 45.387999588909963 ], [ -70.82807113577428, 45.391582266708269 ], [ -70.829754242164483, 45.388157505364632 ] ], [ [ -70.718887552418551, 45.331849103953061 ], [ -70.716297295383811, 45.33050689817486 ], [ -70.714457309457202, 45.331760360652197 ], [ -70.716563000082374, 45.332975646908608 ], [ -70.718887552418551, 45.331849103953061 ] ], [ [ -71.446711747748907, 44.85528506695232 ], [ -71.441798131778341, 44.855655442844466 ], [ -71.445434367801795, 44.86299490988722 ], [ -71.446690830417424, 44.858310924109901 ], [ -71.446711747748907, 44.85528506695232 ] ] ], [ [ [ -86.0, 43.377110709423135 ], [ -86.0, 47.347158689211234 ], [ -85.693652080878792, 47.146488925623487 ], [ -84.60264138429244, 46.871526598773585 ], [ -84.506469338888849, 46.78368184204345 ], [ -84.533795050401238, 46.720721126678711 ], [ -85.315793295124422, 46.797008791122892 ], [ -85.03333531866997, 46.708633896637082 ], [ -84.868144000645088, 46.55400486513247 ], [ -84.208453321263733, 46.490315557716883 ], [ -83.992430899366468, 46.285724133262192 ], [ -84.030125644782629, 46.14487702955131 ], [ -84.004697040535973, 46.117466592009691 ], [ -83.298819623426823, 45.975694636298499 ], [ -83.250411750002229, 45.871192164486843 ], [ -83.005216749953036, 45.854262692269458 ], [ -82.927230660966188, 45.725890846385482 ], [ -82.707399242381086, 45.703883344141047 ], [ -82.405267944160244, 45.800109236452158 ], [ -82.19768162440738, 45.745586978556275 ], [ -82.199597604845565, 45.628671015255179 ], [ -82.881903753355516, 45.506305589331532 ], [ -82.43343600566709, 45.208703577308313 ], [ -82.701433621064723, 45.023628098657866 ], [ -82.163112367541714, 44.776909838618224 ], [ -82.463434710043771, 44.654888347619192 ], [ -81.631440752488686, 44.408183762670546 ], [ -81.547879427993166, 44.076290513796209 ], [ -81.467995116581335, 44.030998772375483 ], [ -80.911897506464697, 43.879885782502924 ], [ -79.487469318054536, 43.738420424563003 ], [ -79.205485511846859, 43.609904637688942 ], [ -79.215192493638654, 43.461775816900456 ], [ -78.419358626199596, 43.290204237035937 ], [ -78.425510583446624, 43.106767722452503 ], [ -78.5978208349635, 43.020059613460433 ], [ -78.881181566176281, 43.193182768470024 ], [ -79.276942665771344, 43.196847520196968 ], [ -79.080194282839841, 43.074597320809744 ], [ -78.720897848556831, 43.00592272235582 ], [ -78.866550479620912, 42.874258579869604 ], [ -78.372200940820733, 42.721974663699825 ], [ -78.149747101847254, 42.423344765248771 ], [ -77.875465595061144, 42.285455339292525 ], [ -77.700631157002249, 42.025339105315538 ], [ -78.091064858956031, 42.028249625320029 ], [ -78.713562684770068, 42.242639074433782 ], [ -79.933946860659034, 42.467134491363765 ], [ -80.061210478280884, 42.401726483290645 ], [ -78.748231786167935, 42.146028633814467 ], [ -78.573548768760645, 42.062793529397936 ], [ -78.511433774948728, 41.917963120601598 ], [ -79.509170402392101, 41.796401088739287 ], [ -79.886586749578782, 42.003034519227754 ], [ -81.136834001288094, 42.140904398419309 ], [ -81.808193552390492, 42.129531213894438 ], [ -83.003708791027861, 41.866838292753073 ], [ -83.348336819588496, 42.042922863999024 ], [ -83.06610851019957, 42.13142124889157 ], [ -82.76885069030709, 42.451311879539674 ], [ -82.912771123688344, 42.573694726230656 ], [ -83.055813715330657, 42.617893028740355 ], [ -83.65081823377443, 42.501873670633472 ], [ -84.13502704865931, 42.501171126546296 ], [ -84.545922633023054, 42.790636093381067 ], [ -84.876840086900472, 42.869840270012503 ], [ -84.967759302849515, 42.847625640411025 ], [ -84.91334395545914, 42.713100330016289 ], [ -85.031980653684172, 42.709131941086241 ], [ -85.70788163273113, 43.082650042865225 ], [ -86.0, 43.377110709423135 ] ], [ [ -82.952957137761643, 45.556293391726683 ], [ -82.94562709291597, 45.548644918528225 ], [ -82.941403345088247, 45.551904493297798 ], [ -82.944825938166503, 45.55981594265171 ], [ -82.952957137761643, 45.556293391726683 ] ], [ [ -82.526175264177084, 44.716674766926985 ], [ -82.54932501333866, 44.716196656750355 ], [ -82.554417915454394, 44.7132464640531 ], [ -82.518691077331312, 44.713506599250195 ], [ -82.526175264177084, 44.716674766926985 ] ], [ [ -81.68557301758068, 44.041672023545118 ], [ -81.682395130031182, 44.038016703907829 ], [ -81.675477168936141, 44.041782637458823 ], [ -81.682920451917312, 44.049302002185698 ], [ -81.68557301758068, 44.041672023545118 ] ], [ [ -79.731567301689608, 43.625812772341646 ], [ -79.860635631129412, 43.647970508132516 ], [ -79.906793065347642, 43.5971763241281 ], [ -79.638144500868009, 43.567272297678471 ], [ -79.731567301689608, 43.625812772341646 ] ], [ [ -79.531108383445087, 43.564796984793077 ], [ -79.523479070302812, 43.560689889826619 ], [ -79.515914918438682, 43.564684740408495 ], [ -79.524261703514753, 43.568740211591546 ], [ -79.531108383445087, 43.564796984793077 ] ], [ [ -79.390793386105827, 43.480520184858676 ], [ -79.383240531525246, 43.47300354957423 ], [ -79.375687676944722, 43.480520184858676 ], [ -79.383240531525246, 43.484711015700839 ], [ -79.390793386105827, 43.480520184858676 ] ], [ [ -79.486145875731552, 43.38268772026214 ], [ -79.4968820101966, 43.400912687470623 ], [ -79.527554429992904, 43.369224152472725 ], [ -79.494545925853743, 43.365296031586638 ], [ -79.486145875731552, 43.38268772026214 ] ], [ [ -79.447032760953107, 43.340694969097626 ], [ -79.438962257502169, 43.332107460690793 ], [ -79.430992300953903, 43.333199573101865 ], [ -79.437935155283128, 43.347496276432082 ], [ -79.447032760953107, 43.340694969097626 ] ], [ [ -79.419518428332765, 43.312862841247181 ], [ -79.411334373782267, 43.308787379034356 ], [ -79.407462484805819, 43.313786937816985 ], [ -79.416183477785239, 43.321416743787722 ], [ -79.419518428332765, 43.312862841247181 ] ], [ [ -79.649189182834505, 42.9668566295299 ], [ -79.631982390275027, 42.974411454525068 ], [ -79.695464609004489, 42.974411454525068 ], [ -79.68595013788854, 42.967716287876442 ], [ -79.649189182834505, 42.9668566295299 ] ] ] ] } }
]
}
