{
"type": "FeatureCollection",
"features": [
{ "type": "Feature", "properties": { "PRODUCT": "24-hour QPF", "VALID_TIME": "12Z 03/25/25 - 12Z 03/26/25", "QPF": 0.75, "UNITS": "Inches", "ISSUE_TIME": "2025-03-24 09:42:16", "START_TIME": "2025-03-25 12:00:00", "END_TIME": "2025-03-26 12:00:00", "InPoly_FID": 4, "fill": "dodgerblue", "color": "dodgerblue" }, "geometry": { "type": "MultiPolygon", "coordinates": [ [ [ [ -66.088289407262849, 36.0 ], [ -65.889474825460397, 36.331615101483642 ], [ -65.61634827839454, 36.544573599932434 ], [ -65.606925039708941, 36.786730234074398 ], [ -65.405662572332062, 36.818628028073846 ], [ -65.368509023998271, 36.68232387544947 ], [ -65.55215030418546, 36.0 ], [ -66.088289407262849, 36.0 ] ], [ [ -65.480666423819883, 36.63684457194789 ], [ -65.471302637850684, 36.62748078597874 ], [ -65.461490577988755, 36.638135628750057 ], [ -65.471012260142302, 36.646623442609439 ], [ -65.480666423819883, 36.63684457194789 ] ] ], [ [ [ -66.581669313608145, 37.238828709385352 ], [ -66.749741730803493, 37.234397538047951 ], [ -66.698066606201976, 37.156921944113463 ], [ -67.010686613718804, 37.025902376911979 ], [ -67.170242310332085, 37.113635422905794 ], [ -67.166851952024359, 37.276630464447031 ], [ -67.30899544183022, 37.32829397777013 ], [ -66.277993767061901, 37.814048674562734 ], [ -66.302093017125955, 37.593805746323746 ], [ -66.581669313608145, 37.238828709385352 ] ] ] ] } },
{ "type": "Feature", "properties": { "PRODUCT": "24-hour QPF", "VALID_TIME": "12Z 03/25/25 - 12Z 03/26/25", "QPF": 0.5, "UNITS": "Inches", "ISSUE_TIME": "2025-03-24 09:42:16", "START_TIME": "2025-03-25 12:00:00", "END_TIME": "2025-03-26 12:00:00", "InPoly_FID": 3, "fill": "royalblue", "color": "royalblue" }, "geometry": { "type": "MultiPolygon", "coordinates": [ [ [ [ -69.144900447173526, 36.0 ], [ -68.881095911953437, 36.338233157039262 ], [ -68.166539549779927, 36.77456392199592 ], [ -68.104558298070259, 36.852417050876916 ], [ -68.22665102389773, 36.904369022899104 ], [ -68.17836771496917, 37.010785061152632 ], [ -66.708761242046222, 38.162733610586621 ], [ -66.894014258077746, 38.217290442470009 ], [ -66.148531082032704, 38.716331255220908 ], [ -65.958887398339016, 39.020500450509751 ], [ -65.689286260869068, 39.245619884122725 ], [ -65.510765334653613, 39.270196679597007 ], [ -65.832356519697782, 38.420533926802605 ], [ -65.460087116574741, 38.273119708827252 ], [ -64.980640327151619, 38.467811148023586 ], [ -64.963218476778565, 38.67763810155634 ], [ -65.145638805465879, 38.633481253575489 ], [ -65.323101946706288, 38.465039962335119 ], [ -65.490512707516118, 38.490432556858636 ], [ -64.699044541348528, 39.062343011646064 ], [ -65.539972423691054, 36.0 ], [ -69.144900447173526, 36.0 ] ], [ [ -65.891923648279047, 38.107689450752659 ], [ -65.861815826357372, 38.110717393205995 ], [ -65.853681195828727, 38.12811224471092 ], [ -65.920214423236416, 38.123483402267532 ], [ -65.891923648279047, 38.107689450752659 ] ], [ [ -65.652714033200397, 38.180076288539077 ], [ -65.65398638601971, 38.208618786598315 ], [ -65.678710443620432, 38.214537425758209 ], [ -65.680022489215588, 38.175735613254858 ], [ -65.652714033200397, 38.180076288539077 ] ], [ [ -65.568481366286008, 38.264217559419471 ], [ -65.568636499508756, 38.291097856412875 ], [ -65.584440658333719, 38.297790944873483 ], [ -65.59650959807631, 38.261725922653639 ], [ -65.568481366286008, 38.264217559419471 ] ], [ [ -65.699907168039758, 38.239490253016712 ], [ -65.708814952990451, 38.228226249124603 ], [ -65.689478406207812, 38.221924883274291 ], [ -65.687227215719247, 38.233862935083444 ], [ -65.699907168039758, 38.239490253016712 ] ], [ [ -65.736760188083579, 38.320036437673046 ], [ -65.747062501007292, 38.325959998587145 ], [ -65.755288578009072, 38.31983573177871 ], [ -65.749348570559434, 38.315723711449884 ], [ -65.736760188083579, 38.320036437673046 ] ] ] ] } },
{ "type": "Feature", "properties": { "PRODUCT": "24-hour QPF", "VALID_TIME": "12Z 03/25/25 - 12Z 03/26/25", "QPF": 0.25, "UNITS": "Inches", "ISSUE_TIME": "2025-03-24 09:42:16", "START_TIME": "2025-03-25 12:00:00", "END_TIME": "2025-03-26 12:00:00", "InPoly_FID": 2, "fill": "darkgreen", "color": "darkgreen" }, "geometry": { "type": "MultiPolygon", "coordinates": [ [ [ [ -70.103997652285997, 36.0 ], [ -69.518890479163971, 36.404562247508657 ], [ -69.395536930093229, 36.607169809118098 ], [ -68.705636731310548, 36.966285269165283 ], [ -67.913051690344361, 37.591523767952204 ], [ -67.641179640186081, 37.97699705292424 ], [ -67.197488636111473, 38.2932313058947 ], [ -66.801132414980003, 38.760004359911399 ], [ -65.205709133055379, 40.158217106774963 ], [ -64.919115304454138, 40.245432596254986 ], [ -64.191059550101286, 40.759588707608238 ], [ -65.531284100589588, 36.0 ], [ -70.103997652285997, 36.0 ] ] ], [ [ [ -75.083468021927587, 38.928293370706562 ], [ -75.0604955673478, 38.706392853110678 ], [ -75.175749414809232, 38.386460360242047 ], [ -75.022393718417391, 38.234643010705106 ], [ -74.819927003154191, 38.175533154831811 ], [ -74.800117243485928, 38.010714581085331 ], [ -76.20880683519691, 37.102986099703713 ], [ -76.621777711003844, 36.964576468552693 ], [ -77.439551912652135, 37.01629816809821 ], [ -77.447443647663803, 37.11709608267271 ], [ -77.219518150259901, 37.358882580394095 ], [ -77.235125014787499, 37.479903508337372 ], [ -77.084444869795831, 37.773959487602689 ], [ -77.115701018625941, 37.964912198669289 ], [ -76.956392169682317, 38.255360552258189 ], [ -76.758475053639472, 38.311416322001953 ], [ -76.739590060218063, 38.453781121266182 ], [ -75.591184251324691, 39.048393490986577 ], [ -75.085743062970352, 39.079946434510767 ], [ -75.083468021927587, 38.928293370706562 ] ] ], [ [ [ -71.307242997029434, 40.268189443096155 ], [ -71.422713013823085, 39.997136929903569 ], [ -71.655853001437535, 39.823735863145814 ], [ -71.766383177947787, 39.572355194242711 ], [ -72.163740150043665, 39.417337915998367 ], [ -72.209617162399994, 39.327892054008998 ], [ -72.438665666165022, 39.560799896370717 ], [ -72.239430630857498, 39.945015023740055 ], [ -72.237159528509636, 40.123157348233875 ], [ -72.006415504765442, 40.282278456830198 ], [ -71.854667513501383, 40.342186351282322 ], [ -71.680033104302765, 40.279851951798832 ], [ -71.322860597663421, 40.464166421168329 ], [ -71.307242997029434, 40.268189443096155 ] ] ], [ [ [ -81.646556356571551, 37.659351249524228 ], [ -82.102350110895401, 37.701024129711364 ], [ -82.663589726334138, 37.891958198218624 ], [ -82.761762441299581, 37.966046736455418 ], [ -82.543412432388848, 38.064952545826081 ], [ -82.626235358355714, 38.196413573917162 ], [ -82.989991510953047, 38.326804965800697 ], [ -83.593475048206614, 38.323557887725897 ], [ -83.745565362025559, 38.42956248864634 ], [ -83.457205165052045, 38.510648792975246 ], [ -82.694597849627115, 38.51159478440389 ], [ -82.525873754974114, 38.441317270070776 ], [ -82.133567578260354, 38.512095294654493 ], [ -81.165863951341308, 38.41288338486963 ], [ -80.078066196363679, 38.732270320844357 ], [ -80.200518194544841, 38.250539780228166 ], [ -80.573544363298353, 37.945676341558496 ], [ -80.915432711521134, 37.806709586940919 ], [ -81.110272711563738, 37.585605820217047 ], [ -81.096507859534782, 37.833684329460262 ], [ -81.355631409042161, 37.693234385390632 ], [ -81.646556356571551, 37.659351249524228 ] ], [ [ -80.985363095930765, 37.818243135697792 ], [ -80.997762713809308, 37.816207385800887 ], [ -81.001562213445155, 37.814683140458079 ], [ -80.973156843611562, 37.812624651152113 ], [ -80.985363095930765, 37.818243135697792 ] ] ] ] } },
{ "type": "Feature", "properties": { "PRODUCT": "24-hour QPF", "VALID_TIME": "12Z 03/25/25 - 12Z 03/26/25", "QPF": 0.01, "UNITS": "Inches", "ISSUE_TIME": "2025-03-24 09:42:16", "START_TIME": "2025-03-25 12:00:00", "END_TIME": "2025-03-26 12:00:00", "InPoly_FID": 0, "fill": "lime", "color": "lime" }, "geometry": { "type": "MultiPolygon", "coordinates": [ [ [ [ -80.097577274871298, 41.265711357093494 ], [ -80.380984836480991, 41.373025137500122 ], [ -79.528875088914162, 41.40158408483768 ], [ -79.42773978496308, 41.531926260788339 ], [ -79.085282971631784, 41.572630667471401 ], [ -78.822310501628294, 41.498459190539279 ], [ -78.921725971776141, 41.392649534348607 ], [ -78.326271784215407, 41.225267370692677 ], [ -78.934131589701053, 41.012513227203726 ], [ -80.097577274871298, 41.265711357093494 ] ], [ [ -79.327925741579691, 41.405105779608107 ], [ -79.32714239070873, 41.404665875329954 ], [ -79.32639006195177, 41.405084058282739 ], [ -79.327234789753732, 41.405866524220755 ], [ -79.327925741579691, 41.405105779608107 ] ] ], [ [ [ -74.732103959629967, 41.849482655200404 ], [ -75.271576205977112, 41.602257650570152 ], [ -75.592030412973145, 41.581586207237706 ], [ -75.697227008519576, 41.658992514093313 ], [ -75.548650725550488, 41.837686983567494 ], [ -75.268023435133387, 41.865233097329622 ], [ -75.086119803286238, 42.009665347477835 ], [ -74.752802182974335, 42.029901200580014 ], [ -74.880983544355047, 42.22226900830816 ], [ -74.801299600995776, 42.318343555510751 ], [ -74.565470486973368, 42.355455606790883 ], [ -74.158398045633248, 42.273213783789117 ], [ -74.433887924687951, 41.980186926985141 ], [ -74.681333561794418, 41.972150163399363 ], [ -74.732103959629967, 41.849482655200404 ] ], [ [ -74.419445875626593, 42.162364638916983 ], [ -74.418671668162915, 42.161585222580015 ], [ -74.417902276568782, 42.162278773446701 ], [ -74.418693545970314, 42.162782821869769 ], [ -74.419445875626593, 42.162364638916983 ] ] ], [ [ [ -80.212503045679, 42.721508316655559 ], [ -80.490726469850642, 42.749653974251544 ], [ -80.256491539053229, 42.894582106978703 ], [ -80.436960700076213, 43.016843958881623 ], [ -80.465077631527436, 43.209895975319057 ], [ -79.974156943288278, 43.088777245373649 ], [ -79.686964596538871, 43.227313318055224 ], [ -78.564938346527413, 43.445013498074502 ], [ -77.115287266594066, 43.537713770973824 ], [ -76.918605538714587, 43.459779540493457 ], [ -77.079850007471805, 43.270406651445853 ], [ -78.027450524422136, 43.064416653505816 ], [ -78.077285105723035, 42.949090127707279 ], [ -77.98887942204766, 42.844580601613529 ], [ -78.026716804436944, 42.715262634762837 ], [ -78.547638312258243, 42.534260473442146 ], [ -78.866611047162053, 42.52441262724102 ], [ -78.897628681618301, 42.712670348857557 ], [ -78.74042658901584, 42.809528153401629 ], [ -78.822642651836873, 42.935841276653662 ], [ -80.212503045679, 42.721508316655559 ] ] ], [ [ [ -86.0, 37.675793807914836 ], [ -86.0, 40.571622981562271 ], [ -85.675496897463802, 40.495157797494414 ], [ -85.655865836639009, 40.399519079741765 ], [ -85.296078806891387, 40.389157939187612 ], [ -85.141930715729927, 40.287854167935564 ], [ -84.632940921786087, 40.283349552839638 ], [ -84.315733739520397, 40.147465967580388 ], [ -83.316286224729424, 40.052467659754768 ], [ -82.222498060137355, 39.701437177683658 ], [ -81.737922740042393, 39.717554208659863 ], [ -81.150782016776589, 39.582369856183959 ], [ -80.791487996273986, 39.643986478992872 ], [ -80.765374149097681, 39.7716303713446 ], [ -79.822133391642694, 39.965211777301761 ], [ -79.617894740649717, 40.236028683676864 ], [ -79.137597058457459, 40.473363946289169 ], [ -78.87506726983861, 40.438999170075704 ], [ -78.777966993681787, 40.254215975586874 ], [ -78.668666548822159, 40.224263123144681 ], [ -78.763769976603101, 40.000126193069434 ], [ -78.69977166483045, 39.908415278742154 ], [ -78.424231764584249, 39.996249656396571 ], [ -78.140624762123025, 39.984213446693275 ], [ -77.638942523678509, 40.308748693497478 ], [ -76.907466543945816, 40.353656775140109 ], [ -76.291219136753739, 40.63572725350997 ], [ -75.606372968237849, 40.752141726959167 ], [ -75.435771011323084, 40.891615799729436 ], [ -74.761004145724712, 41.105394426611554 ], [ -74.033383663924894, 41.620241526625193 ], [ -73.351865758597853, 41.697930320427986 ], [ -73.084686648569914, 41.838992291960778 ], [ -72.553463309584004, 42.392004300258293 ], [ -72.555682825601878, 42.530708645987261 ], [ -72.467747511638322, 42.622938228116766 ], [ -72.161676470592624, 42.791183729245745 ], [ -71.959521873435676, 42.800302739679751 ], [ -71.70493810411017, 43.015135087814087 ], [ -71.381460808069789, 42.984920811446329 ], [ -70.682779405345229, 43.22099608520125 ], [ -69.935506857255632, 43.310124000921974 ], [ -69.533066126800293, 43.245384602817239 ], [ -69.194908240123141, 42.901441051863117 ], [ -68.632131214084211, 42.915438062416683 ], [ -67.877507053607587, 42.713182899471292 ], [ -67.755054817026121, 42.578179857514442 ], [ -67.788932707478409, 42.151901871374321 ], [ -67.633365452853354, 41.829240263127701 ], [ -67.304511506001177, 41.634762448028596 ], [ -67.070679168408844, 41.299823350067584 ], [ -66.787483942130166, 41.251880139257082 ], [ -66.457504943398362, 41.072737011503932 ], [ -66.192415838020452, 41.199732757960476 ], [ -65.86482218309726, 41.210280502443311 ], [ -64.99515424097541, 42.063314870884653 ], [ -64.267075659813827, 42.653564923682325 ], [ -63.804402856906279, 42.878910985953269 ], [ -63.393662410991453, 43.246762214904322 ], [ -65.523065187413252, 36.0 ], [ -74.31450913865001, 36.0 ], [ -74.505163482108969, 36.30281102121171 ], [ -75.191059134271597, 36.434301590945722 ], [ -75.424881787064805, 36.360662010843157 ], [ -75.775167347265153, 36.0 ], [ -79.645235461252256, 36.0 ], [ -79.859848230611306, 36.151045298002146 ], [ -80.530579924523863, 36.280283608301943 ], [ -80.768637377812695, 36.497356953660528 ], [ -80.95019054026119, 36.391828689942145 ], [ -81.168993105647246, 36.391789153047 ], [ -81.796564825030941, 36.0 ], [ -82.910797692769734, 36.0 ], [ -82.898835404630177, 36.151754559125663 ], [ -83.050239225359917, 36.341468550233458 ], [ -83.40683037392256, 36.458034014458235 ], [ -83.306836440049608, 36.597459737876648 ], [ -83.863450420200707, 36.56245621278407 ], [ -83.89588067375405, 36.830521514756128 ], [ -84.181034651328048, 37.058183524650019 ], [ -84.597453057812345, 37.271552161403179 ], [ -85.121674124261403, 37.349697665115229 ], [ -85.364904840386032, 37.527621803203715 ], [ -86.0, 37.675793807914836 ] ], [ [ -74.279223287224909, 36.412491994410061 ], [ -74.278525832401215, 36.412192040830064 ], [ -74.278085708688479, 36.412549870280316 ], [ -74.278514713183426, 36.413244899632446 ], [ -74.279223287224909, 36.412491994410061 ] ], [ [ -74.335298900923476, 36.46857210651757 ], [ -74.334547109061816, 36.467820314655853 ], [ -74.333795317200099, 36.46857210651757 ], [ -74.334547109061816, 36.469323898379287 ], [ -74.335298900923476, 36.46857210651757 ] ], [ [ -78.794976915652114, 40.086803778171884 ], [ -78.794204450175187, 40.086021334716861 ], [ -78.793442585007256, 40.086700475746397 ], [ -78.794227684160262, 40.087553009663736 ], [ -78.794976915652114, 40.086803778171884 ] ], [ [ -78.990817843968273, 40.227041762067699 ], [ -78.990442395899834, 40.226643946061301 ], [ -78.989776476703014, 40.227035720422236 ], [ -78.990504977023022, 40.227418654447376 ], [ -78.990817843968273, 40.227041762067699 ] ], [ [ -79.973069702504745, 36.216076920913224 ], [ -79.972657028798778, 36.215234420731974 ], [ -79.971481818131338, 36.216024354640297 ], [ -79.972249804085152, 36.216501084357617 ], [ -79.973069702504745, 36.216076920913224 ] ] ], [ [ [ -86.0, 40.599811266183075 ], [ -86.0, 41.505020077335985 ], [ -85.77701777225235, 41.300509246804324 ], [ -85.429954453335313, 41.135547793695764 ], [ -85.361021672112429, 41.020121018670125 ], [ -85.391853582177021, 40.908297670601087 ], [ -85.524362516317012, 40.859687296831339 ], [ -85.548287093474528, 40.725538703448478 ], [ -85.830258313670186, 40.745222228023465 ], [ -86.0, 40.599811266183075 ] ], [ [ -85.662361898782592, 40.914526843638953 ], [ -85.646410698295028, 40.927937105013427 ], [ -85.71361633692436, 40.928450361594969 ], [ -85.665782006134634, 40.90889643112547 ], [ -85.662361898782592, 40.914526843638953 ] ], [ [ -85.750983599613392, 40.984326511959011 ], [ -85.750305346214702, 40.983565488556508 ], [ -85.749469187153238, 40.984330522036032 ], [ -85.750221271294606, 40.98508260707672 ], [ -85.750983599613392, 40.984326511959011 ] ] ], [ [ [ -86.0, 45.985944292104797 ], [ -86.0, 47.388083278937096 ], [ -85.869606844879968, 47.387801941806231 ], [ -85.785829986164913, 47.623754206291665 ], [ -85.916411232033511, 48.0 ], [ -79.951297748095826, 48.0 ], [ -80.045888217767015, 47.954840218301513 ], [ -80.064923645010197, 47.828216738112019 ], [ -79.875780892474154, 47.569298822882445 ], [ -79.600615126386913, 47.392266462427358 ], [ -79.423057601427104, 47.048339039914822 ], [ -79.304786916482954, 47.18750913823618 ], [ -79.457631665169174, 47.35965303226169 ], [ -79.409982098295188, 47.543017331284886 ], [ -79.247353856195446, 47.573608225739065 ], [ -78.608315043704238, 47.437149018612388 ], [ -78.515185242005259, 47.523655556258973 ], [ -78.52607614529785, 47.712952543425217 ], [ -78.42736171287271, 47.79476807248858 ], [ -78.204452912272018, 47.607172045953234 ], [ -78.100312884332084, 47.361387391015342 ], [ -77.952359365692132, 47.40687075098441 ], [ -77.823731400084, 47.601404036267297 ], [ -77.665281238238492, 47.625357487058409 ], [ -77.563110274119822, 47.554658554248931 ], [ -77.467834449899897, 47.648845213136156 ], [ -76.639355300106956, 47.338873757517945 ], [ -76.303221913260643, 47.482594721269436 ], [ -76.106081184898699, 47.483226210821044 ], [ -76.028779263252375, 47.373331045191662 ], [ -76.183851172193783, 47.183854148650084 ], [ -75.861125480056842, 47.383431037012826 ], [ -75.648219689287203, 47.327963651001767 ], [ -75.07817848564855, 47.92114187659638 ], [ -74.258656738117907, 47.879784955111631 ], [ -74.312628933202916, 48.0 ], [ -64.331923979598884, 48.0 ], [ -64.202357427253446, 47.789548165415567 ], [ -63.911818181563774, 47.741982794870125 ], [ -64.244138086803218, 47.583750569333347 ], [ -64.665021495045892, 47.549863748613177 ], [ -64.727581831336408, 47.578838366197715 ], [ -64.697021509335173, 47.665868581769701 ], [ -64.376192666358406, 47.7498738547946 ], [ -65.184294103989657, 47.856857646063588 ], [ -65.010381477323278, 47.709529798361586 ], [ -65.087325685531937, 47.620112312633182 ], [ -65.277784613868789, 47.618710220999958 ], [ -65.097486256585455, 47.476509925392804 ], [ -65.116857180414513, 47.375894365732449 ], [ -65.428238250494815, 47.084183422127296 ], [ -65.655672538556757, 47.027631325125583 ], [ -65.749133580350417, 46.860377560376151 ], [ -66.090175806867933, 46.669934202001855 ], [ -66.148997642527149, 46.404144057102599 ], [ -66.343301137537424, 46.381171748677332 ], [ -66.562865463770095, 46.572725418143591 ], [ -67.052699617193525, 46.324397693598712 ], [ -67.654798040996752, 46.252102865255097 ], [ -67.755582793710914, 46.161889403073531 ], [ -67.749757433358809, 46.051218965183125 ], [ -67.980149619509291, 45.849010286395639 ], [ -68.454937531441885, 45.846702456053549 ], [ -68.784920040227632, 45.732942588829474 ], [ -69.298329302355398, 45.711296628436685 ], [ -69.569566678659271, 45.778298093981903 ], [ -69.561715865194969, 45.906370265975056 ], [ -69.148158426969815, 46.009861975349963 ], [ -69.132396308942475, 46.165434884012768 ], [ -69.031433636153338, 46.221759975942177 ], [ -69.233681635998664, 46.286289139532244 ], [ -69.450672813899189, 46.216169246013919 ], [ -69.762365787750866, 46.459645512130749 ], [ -69.641350388109856, 46.811168071749137 ], [ -69.491728886978535, 46.950336455063393 ], [ -69.679408624208577, 47.014373815399324 ], [ -69.902511618116648, 46.971001817180195 ], [ -70.197511934628039, 46.603294887149389 ], [ -70.165580293096014, 46.450634630783611 ], [ -70.024333238388181, 46.369183516006501 ], [ -70.068469046109556, 46.20748372319531 ], [ -70.187486439047859, 46.139178068013507 ], [ -70.171734927624755, 45.818838341116589 ], [ -70.681222280483837, 45.640892888196277 ], [ -70.595916430398916, 45.400348604404599 ], [ -70.714682218209759, 45.299494746885102 ], [ -70.547847518648041, 45.129896416286613 ], [ -70.637746202824985, 44.984295602360191 ], [ -71.073950298667285, 44.848660184120263 ], [ -71.377745393035411, 44.638654689862108 ], [ -71.58624739440171, 44.716636449512578 ], [ -71.544075626888628, 44.83082775119982 ], [ -71.825529119972884, 44.82914775736316 ], [ -71.683984888791542, 44.734635282192585 ], [ -71.798134255991101, 44.602220229180261 ], [ -71.64780623756775, 44.253638136091183 ], [ -71.414676630222289, 44.254536123543346 ], [ -71.368234797098182, 44.373942020008258 ], [ -71.545657367993101, 44.474874651843777 ], [ -71.507016227317024, 44.584490908029011 ], [ -71.404907960334072, 44.60390029586199 ], [ -71.265867258267292, 44.530406266536033 ], [ -71.201856252563971, 44.248017083721493 ], [ -71.843325372268055, 43.997912237659705 ], [ -71.831649780812711, 44.156303403079619 ], [ -71.957959360735856, 44.229727005596885 ], [ -72.699919088295246, 44.216095895009573 ], [ -72.775758341774008, 43.914021700141404 ], [ -72.60215418346877, 43.624527301194064 ], [ -72.690098822502591, 43.279976052253062 ], [ -72.861084008420221, 43.136738823038286 ], [ -72.88018483706054, 42.9129190235941 ], [ -72.729080032817194, 42.758079389752083 ], [ -72.783555759790431, 42.673687577319868 ], [ -72.660176546110677, 42.587923269943019 ], [ -73.171919669357237, 42.31495560971365 ], [ -73.625944625643911, 42.373075761037569 ], [ -73.800630620706556, 42.533563391837106 ], [ -74.783298306871302, 42.368010553544252 ], [ -76.337726728305825, 42.628265805622505 ], [ -76.500635242322517, 42.831123099751323 ], [ -76.63926633557287, 42.872605563895718 ], [ -76.623676774963144, 43.088122229557314 ], [ -76.770216856123, 43.225880729512085 ], [ -76.621252324135412, 43.348458577101724 ], [ -76.270692109253389, 43.423276046952083 ], [ -76.487230872406769, 43.829455730397683 ], [ -76.278201067924897, 44.237100729615008 ], [ -76.482246548139642, 44.162011110524361 ], [ -77.618679623465823, 44.136806585855311 ], [ -77.548678186848804, 43.982252379743557 ], [ -77.690784226310939, 43.931559306516817 ], [ -79.268198947823123, 44.021415301674892 ], [ -79.935035899187369, 44.214837015915577 ], [ -80.040781441810054, 44.149755404188625 ], [ -79.869671590971109, 43.74421002157527 ], [ -79.935157232120503, 43.582525201576857 ], [ -80.126346564642233, 43.501819961122351 ], [ -80.848066840012621, 43.458447254237456 ], [ -81.43381510608225, 43.549445192341807 ], [ -82.19925363394799, 44.047544964328722 ], [ -82.696106809781384, 44.162174392334407 ], [ -82.75982276590787, 44.088967063279426 ], [ -82.682956340063015, 43.86487823254447 ], [ -83.026778284690067, 43.783170089727889 ], [ -82.313298893828858, 43.507658191672249 ], [ -82.34380803721109, 43.358316339227713 ], [ -82.520380358466753, 43.373169921654608 ], [ -83.373176335519418, 43.826200031706151 ], [ -83.579291539772726, 44.272306451981251 ], [ -83.529741128949922, 44.409608764532891 ], [ -83.847897842411442, 44.712389808542866 ], [ -84.021909699373111, 44.630949695172319 ], [ -84.489693444796615, 44.678229629893565 ], [ -84.33991546792447, 44.632389973818306 ], [ -84.292770409926447, 44.395879094544625 ], [ -84.597121320392603, 44.51764144679538 ], [ -85.218818071496742, 44.393001718154835 ], [ -85.191326022278076, 44.625759941468175 ], [ -85.270262970759461, 44.84567471641509 ], [ -85.142700263806091, 44.996506041320799 ], [ -85.234615845844587, 45.254095045450015 ], [ -84.90288564675518, 45.211320603563081 ], [ -85.483986774070331, 45.65443400362642 ], [ -85.611023660013871, 45.856088366385052 ], [ -86.0, 45.985944292104797 ] ], [ [ -77.504771306050884, 47.435452942199561 ], [ -77.504096058186519, 47.435018975245555 ], [ -77.503251485967269, 47.435470216377439 ], [ -77.50400406113846, 47.436218932557722 ], [ -77.504771306050884, 47.435452942199561 ] ], [ [ -69.875621794510153, 47.070840010058475 ], [ -69.874869465753193, 47.07042182710569 ], [ -69.874078195452341, 47.070925875528758 ], [ -69.874847587046474, 47.071619427294763 ], [ -69.875621794510153, 47.070840010058475 ] ], [ [ -79.742681329479751, 47.071526703594543 ], [ -79.962933215295607, 47.074836968651255 ], [ -80.23907782957815, 47.126342046048649 ], [ -80.072228026801952, 46.935814884349497 ], [ -79.742681329479751, 47.071526703594543 ] ], [ [ -80.648361486193608, 46.658970057022543 ], [ -80.715128614493949, 46.702521896268536 ], [ -80.74937737096883, 46.696597145541887 ], [ -80.647481247761334, 46.609706465181262 ], [ -80.648361486193608, 46.658970057022543 ] ], [ [ -81.655343652387614, 46.393854464811739 ], [ -81.659704086374461, 46.374169325054368 ], [ -81.679393191242752, 46.369504932806478 ], [ -81.656800352654102, 46.371992799328268 ], [ -81.655343652387614, 46.393854464811739 ] ], [ [ -77.924990032563926, 46.22552271060465 ], [ -77.922874581596602, 46.203186626661534 ], [ -77.900505957483915, 46.201055091319461 ], [ -77.920168521559958, 46.205892652523971 ], [ -77.924990032563926, 46.22552271060465 ] ], [ [ -77.769504612647722, 46.168333634589601 ], [ -77.711864323379757, 46.148690959020598 ], [ -77.684601078776723, 46.200270877998662 ], [ -77.717979607173106, 46.197864122231522 ], [ -77.769504612647722, 46.168333634589601 ] ], [ [ -77.027637745485549, 46.192398794668691 ], [ -77.15614744844595, 46.193438124969532 ], [ -77.319551092309041, 46.110185766160214 ], [ -77.105996286899085, 46.095043415021621 ], [ -77.027637745485549, 46.192398794668691 ] ], [ [ -73.158115613744542, 46.076045543467103 ], [ -73.779149041994629, 45.912075646873632 ], [ -73.955976934387991, 45.691489607159724 ], [ -73.628444805683216, 45.702351179063726 ], [ -73.010677918351234, 45.876020500445804 ], [ -72.981457266039968, 45.990459328835016 ], [ -73.158115613744542, 46.076045543467103 ] ], [ [ -70.297302887917908, 45.977309270106787 ], [ -70.316287987300711, 45.977538348116298 ], [ -70.322197873133291, 45.977025337049724 ], [ -70.302831813737157, 45.976589462633626 ], [ -70.297302887917908, 45.977309270106787 ] ], [ [ -81.076072970990765, 45.813490184424552 ], [ -81.627859052253427, 45.911659660964631 ], [ -81.537568425542361, 45.816791119014965 ], [ -81.009523185446596, 45.642995361946475 ], [ -80.489781209535181, 45.623377799046239 ], [ -80.550438351049024, 45.732026569970287 ], [ -81.076072970990765, 45.813490184424552 ] ], [ [ -77.701356197630389, 45.263724074906179 ], [ -77.426036607003766, 45.381312832721107 ], [ -76.075567753548967, 45.422452955539541 ], [ -76.359008853575688, 45.580559986454261 ], [ -76.887666696560757, 45.54412896388061 ], [ -77.715006146316568, 45.662216424548433 ], [ -77.824170289027563, 45.600487811863104 ], [ -77.957549110403079, 45.318253548962161 ], [ -77.701356197630389, 45.263724074906179 ] ], [ [ -74.805043609075256, 45.484775708032544 ], [ -74.745903915233441, 45.567714402197964 ], [ -74.946794419926505, 45.662943272813834 ], [ -75.037934143345979, 45.58875177517433 ], [ -75.587313990448251, 45.575174967450835 ], [ -75.848139808405392, 45.453611131548541 ], [ -75.177706437601955, 45.41941174155869 ], [ -74.805043609075256, 45.484775708032544 ] ], [ [ -74.671908473397309, 45.528205407653502 ], [ -74.671125123425668, 45.527765503375349 ], [ -74.670372794668708, 45.528183687227454 ], [ -74.67121752157135, 45.52896615226615 ], [ -74.671908473397309, 45.528205407653502 ] ], [ [ -74.021934131454941, 45.131869832826567 ], [ -73.699731036258299, 45.229096187639016 ], [ -73.608255010460311, 45.291514251181809 ], [ -73.375466313619427, 45.395345558051133 ], [ -73.357618390776054, 45.412456316505882 ], [ -73.70802213171595, 45.417317873421155 ], [ -74.136007657927053, 45.144578509690518 ], [ -74.021934131454941, 45.131869832826567 ] ], [ [ -70.744761269816706, 45.219618773987293 ], [ -70.744290757112708, 45.218831576715957 ], [ -70.743555990316679, 45.219566342612666 ], [ -70.744138420951344, 45.220072211263584 ], [ -70.744761269816706, 45.219618773987293 ] ], [ [ -70.941452022392866, 45.19156921704581 ], [ -70.940703072388828, 45.190828599260499 ], [ -70.939957940006877, 45.191560487326683 ], [ -70.940711173481816, 45.191950695068556 ], [ -70.941452022392866, 45.19156921704581 ] ], [ [ -79.679620509678728, 45.121126580227553 ], [ -79.678848486668301, 44.983091109766974 ], [ -79.775760181287296, 44.938303147872034 ], [ -79.946054455848412, 44.951172545276791 ], [ -80.261828465011604, 45.191959850166995 ], [ -80.467657412359642, 45.079568460616031 ], [ -80.233239317540438, 44.936950576507968 ], [ -78.365702368669361, 44.652825695849231 ], [ -78.231987435571682, 44.575945409653002 ], [ -77.998229047432574, 44.731716298668289 ], [ -77.633411516828005, 44.788146181401203 ], [ -77.377468319707134, 44.532898322099925 ], [ -77.057046888503066, 44.531453873297664 ], [ -76.890503287796435, 44.569380893813275 ], [ -76.838000087034345, 44.75232712050024 ], [ -76.699888002429304, 44.799575721942063 ], [ -77.154492703075732, 44.881558974567099 ], [ -77.566501188578968, 44.832350453610616 ], [ -77.939548486273566, 45.017162894052376 ], [ -78.149007230499251, 45.001839259374378 ], [ -78.356815312276808, 44.86541124073625 ], [ -78.657821648550225, 45.12291535875687 ], [ -79.245280557351805, 44.983018675671417 ], [ -79.679620509678728, 45.121126580227553 ] ], [ [ -70.913410186131159, 45.051363536797851 ], [ -70.912654900403311, 45.050944453623686 ], [ -70.911899614675463, 45.051363536797851 ], [ -70.912654900403311, 45.052115200056505 ], [ -70.913410186131159, 45.051363536797851 ] ], [ [ -70.800794003840167, 45.047236705309729 ], [ -70.801383281912877, 45.014483714751691 ], [ -70.80066549071978, 44.998574880426418 ], [ -70.800001311711128, 45.018704727741067 ], [ -70.800794003840167, 45.047236705309729 ] ], [ [ -76.299115545845723, 44.924737499835828 ], [ -76.22226821620518, 44.895653111901652 ], [ -75.801832052507166, 44.967470576505946 ], [ -76.034905704934317, 45.022828006007728 ], [ -76.299115545845723, 44.924737499835828 ] ], [ [ -73.21502787753451, 44.210712028937053 ], [ -73.253002658345963, 44.346638344583994 ], [ -73.120593376283239, 44.669063842122682 ], [ -73.584260848259476, 44.971960084790112 ], [ -73.657443793995867, 44.882391142437314 ], [ -73.649058177093139, 44.685358732919269 ], [ -73.845758573099602, 44.54175014755134 ], [ -73.763047738362388, 44.455511223863937 ], [ -73.679936722401806, 44.057246862252953 ], [ -73.871526790129224, 43.915260311214467 ], [ -74.149745769851336, 43.911090273597324 ], [ -74.31408363665048, 43.793602524037283 ], [ -74.331134659436941, 43.65265958407258 ], [ -74.082535432264365, 43.607897024428212 ], [ -74.041919802157111, 43.482787266918876 ], [ -74.264802081750645, 43.371697272810934 ], [ -74.358099357898993, 43.198764000658173 ], [ -74.328217921519808, 43.063186950217641 ], [ -73.302881997106454, 43.020981575939004 ], [ -73.196721740216105, 43.17292396466928 ], [ -73.196355689163681, 43.399957890744133 ], [ -73.023385939609398, 43.637875380744276 ], [ -73.21502787753451, 44.210712028937053 ] ], [ [ -71.518078920006133, 44.96641515643438 ], [ -71.546321019999027, 44.968271498331035 ], [ -71.501137025453318, 44.893551029356559 ], [ -71.502456714006087, 44.948954920533197 ], [ -71.518078920006133, 44.96641515643438 ] ], [ [ -71.403031082418465, 44.854577356260052 ], [ -71.393095681820228, 44.855209785603165 ], [ -71.441989965264668, 44.855214758854117 ], [ -71.434825231998843, 44.854618753852435 ], [ -71.403031082418465, 44.854577356260052 ] ], [ [ -72.378634873600504, 44.752007221755946 ], [ -72.466118631669474, 44.648754181660195 ], [ -72.068450174336022, 44.768566201169278 ], [ -72.214617742814539, 44.822669170845586 ], [ -72.378634873600504, 44.752007221755946 ] ], [ [ -71.867033628299282, 44.742813208762641 ], [ -71.866250546325602, 44.742116341196265 ], [ -71.865462473114576, 44.7435404167569 ], [ -71.866260724852509, 44.743648616890198 ], [ -71.867033628299282, 44.742813208762641 ] ], [ [ -72.540227525679711, 44.658613471734384 ], [ -72.539456250905232, 44.65785481894477 ], [ -72.538669758702383, 44.658567120676139 ], [ -72.539273075192227, 44.658900828510468 ], [ -72.540227525679711, 44.658613471734384 ] ], [ [ -72.512170060100175, 44.602622808895546 ], [ -72.511133931385814, 44.602270696435539 ], [ -72.510534873185804, 44.603238845396447 ], [ -72.511488802066538, 44.603415351737169 ], [ -72.512170060100175, 44.602622808895546 ] ], [ [ -74.460760482210446, 43.088608544248984 ], [ -74.470596396206702, 43.088485517892366 ], [ -74.473573850952448, 43.087869809644076 ], [ -74.448071490606765, 43.087836365655789 ], [ -74.460760482210446, 43.088608544248984 ] ], [ [ -76.158466588861927, 44.265975200495177 ], [ -76.157709814756117, 44.26521842638931 ], [ -76.156903573441127, 44.266101934756534 ], [ -76.157662986157845, 44.266778803199259 ], [ -76.158466588861927, 44.265975200495177 ] ], [ [ -76.014034445733046, 44.364082710149034 ], [ -75.978528583627167, 44.378627129938138 ], [ -76.066910170867629, 44.34288731909453 ], [ -76.094286581660356, 44.318834435660733 ], [ -76.099272525606523, 44.309131464845279 ], [ -76.014034445733046, 44.364082710149034 ] ], [ [ -75.877958717620686, 44.406252710494243 ], [ -75.877203432792157, 44.405833627320078 ], [ -75.876448147064309, 44.406252710494243 ], [ -75.877203432792157, 44.407004374652217 ], [ -75.877958717620686, 44.406252710494243 ] ], [ [ -83.369784797830107, 44.731003141681697 ], [ -83.56899012499423, 44.693640207429667 ], [ -83.309642027157793, 44.521594061616725 ], [ -83.08006704056146, 44.545358112486952 ], [ -83.369784797830107, 44.731003141681697 ] ], [ [ -81.727524450293117, 44.589799687905327 ], [ -81.690936469942073, 44.583552221757657 ], [ -81.568947418388632, 44.628623835221845 ], [ -81.734076317168274, 44.686031593083612 ], [ -81.727524450293117, 44.589799687905327 ] ], [ [ -81.82420901123686, 44.742816449919303 ], [ -81.823533763372438, 44.742382483864617 ], [ -81.822689192052508, 44.742833724097125 ], [ -81.823441766324436, 44.743582440277464 ], [ -81.82420901123686, 44.742816449919303 ] ], [ [ -81.432282886146254, 45.051817671948072 ], [ -81.448480653759134, 45.052270792663023 ], [ -81.45704946975718, 45.051700233079373 ], [ -81.439972511422241, 45.051131971263544 ], [ -81.432282886146254, 45.051817671948072 ] ], [ [ -80.860628394984417, 45.174232281794445 ], [ -80.793583283541636, 45.191700747391621 ], [ -81.187756448401331, 45.152048616750335 ], [ -81.145046029250807, 45.068620992664705 ], [ -80.860628394984417, 45.174232281794445 ] ], [ [ -81.750789926014249, 45.129639658043857 ], [ -81.60735806102565, 45.118180463257829 ], [ -81.700169295876265, 45.372656957852371 ], [ -81.809471649097304, 45.457672406956078 ], [ -82.263392370361544, 45.534411652475853 ], [ -82.349801435887514, 45.437870124206938 ], [ -82.438941879164361, 45.463353936934709 ], [ -82.397305503246344, 45.34433335769836 ], [ -81.750789926014249, 45.129639658043857 ] ], [ [ -82.61029678806625, 45.388342300756619 ], [ -82.62771315234005, 45.388848395137359 ], [ -82.635519480839321, 45.388113888245414 ], [ -82.617924385302103, 45.387460627905682 ], [ -82.61029678806625, 45.388342300756619 ] ], [ [ -84.439552593077678, 45.732694597177954 ], [ -84.689894772026094, 45.944682940964981 ], [ -85.333031578344617, 46.074323289588222 ], [ -85.45825052704015, 46.035724160741495 ], [ -85.209397489602452, 45.834300901265635 ], [ -84.802992597030709, 45.726892689346187 ], [ -84.63658937779752, 45.57286056306458 ], [ -84.506781872185627, 45.630809728086547 ], [ -83.847245074000909, 45.474725385768011 ], [ -84.439552593077678, 45.732694597177954 ] ], [ [ -76.072560352278401, 45.985526358554637 ], [ -76.202151591622624, 46.027645754048365 ], [ -76.253746445641923, 45.939099089051751 ], [ -76.16104763773825, 45.841342511048083 ], [ -76.072560352278401, 45.985526358554637 ] ], [ [ -84.085094926889326, 45.921590578442476 ], [ -83.821087748200966, 45.825445179951146 ], [ -83.788123706543786, 45.890826354053047 ], [ -83.930600744228911, 46.005441528703614 ], [ -84.085094926889326, 45.921590578442476 ] ], [ [ -77.955653786493031, 45.992106935386801 ], [ -78.015863500899798, 45.953143567621623 ], [ -77.867472804726106, 45.918353532589492 ], [ -77.856146181700865, 45.995468542739104 ], [ -77.955653786493031, 45.992106935386801 ] ], [ [ -83.591238926135475, 45.808643221707371 ], [ -83.590464718671797, 45.807863805370403 ], [ -83.589695327077663, 45.808557356237031 ], [ -83.590486597378515, 45.809061404660156 ], [ -83.591238926135475, 45.808643221707371 ] ], [ [ -83.411369545468119, 45.677388719513829 ], [ -83.414166160040224, 45.748834706556522 ], [ -83.521078596400059, 45.772142215690735 ], [ -83.467558724655362, 45.705572458901884 ], [ -83.411369545468119, 45.677388719513829 ] ], [ [ -83.239879498140283, 45.639880449423231 ], [ -83.227219839723773, 45.640539763998959 ], [ -83.252613029567613, 45.640542389120014 ], [ -83.249610888431732, 45.639998198558089 ], [ -83.239879498140283, 45.639880449423231 ] ], [ [ -83.310292461827601, 45.638936083033855 ], [ -83.310931018251836, 45.62186626621525 ], [ -83.310002082430117, 45.613599014482986 ], [ -83.309086445782782, 45.632068148526287 ], [ -83.310292461827601, 45.638936083033855 ] ], [ [ -79.776194052913183, 45.167338430624113 ], [ -79.771359896541981, 45.187039663749545 ], [ -79.751655414166009, 45.1917076928558 ], [ -79.773913250795829, 45.189570178820759 ], [ -79.776194052913183, 45.167338430624113 ] ], [ [ -80.54194664741982, 45.163231662111571 ], [ -80.440324276044464, 45.162610547139082 ], [ -80.379864536619039, 45.163321353297874 ], [ -80.546284086641265, 45.163661920261461 ], [ -80.54194664741982, 45.163231662111571 ] ], [ [ -75.260955842138344, 45.640304643444608 ], [ -75.260543167533115, 45.639462143263358 ], [ -75.259367956865674, 45.640252077171681 ], [ -75.260135942819488, 45.640728806889001 ], [ -75.260955842138344, 45.640304643444608 ] ], [ [ -69.11837884420828, 46.425656953805401 ], [ -69.117966170502314, 46.424814453624208 ], [ -69.116790959834873, 46.425604386633211 ], [ -69.117558944889367, 46.426081117249794 ], [ -69.11837884420828, 46.425656953805401 ] ], [ [ -69.197416008641824, 46.392671273560495 ], [ -69.202313506063433, 46.379025583164207 ], [ -69.202399555894772, 46.350020668319246 ], [ -69.154055918345932, 46.398351048062466 ], [ -69.197416008641824, 46.392671273560495 ] ], [ [ -68.893389743541775, 46.177322790114715 ], [ -68.888635327358429, 46.196782014778194 ], [ -68.868954765150249, 46.20158835871581 ], [ -68.89095585253051, 46.199796409176997 ], [ -68.893389743541775, 46.177322790114715 ] ], [ [ -68.92199374511523, 46.089122505299429 ], [ -68.921185094516431, 46.088681452587025 ], [ -68.920445489367808, 46.089138904436936 ], [ -68.921073877157653, 46.08957794986253 ], [ -68.92199374511523, 46.089122505299429 ] ], [ [ -68.978073038839625, 46.061088224242212 ], [ -68.977323807347773, 46.06033899275036 ], [ -68.976538707295447, 46.061191526667699 ], [ -68.977300572463434, 46.061870667697235 ], [ -68.978073038839625, 46.061088224242212 ] ], [ [ -68.771186587690806, 45.999536108904351 ], [ -68.752534466792156, 45.993480719060017 ], [ -68.737341887617958, 46.05726949688983 ], [ -68.823165084401069, 46.03154197598144 ], [ -68.771186587690806, 45.999536108904351 ] ], [ [ -64.30764346757195, 47.770381308550611 ], [ -64.29681303919034, 47.766122188588213 ], [ -64.293152159044837, 47.74795632212664 ], [ -64.294758350917107, 47.769793333595544 ], [ -64.30764346757195, 47.770381308550611 ] ] ] ] } },
{ "type": "Feature", "properties": { "PRODUCT": "24-hour QPF", "VALID_TIME": "12Z 03/25/25 - 12Z 03/26/25", "QPF": 0.1, "UNITS": "Inches", "ISSUE_TIME": "2025-03-24 09:42:16", "START_TIME": "2025-03-25 12:00:00", "END_TIME": "2025-03-26 12:00:00", "InPoly_FID": 1, "fill": "green", "color": "green" }, "geometry": { "type": "MultiPolygon", "coordinates": [ [ [ [ -82.231047221452059, 36.301427737100425 ], [ -82.007250451846858, 36.595390561525221 ], [ -81.711677912005996, 36.651268823497446 ], [ -81.435795184799929, 36.89193948362032 ], [ -81.26749899518245, 36.867071813513462 ], [ -81.308773611612821, 36.738422696750092 ], [ -81.585962355877996, 36.519348936304425 ], [ -81.911095214772331, 36.442773021158075 ], [ -81.978723091397512, 36.332582996608039 ], [ -81.816561612728208, 36.211381255640504 ], [ -82.004950609283128, 36.206027324401532 ], [ -82.031130928049834, 36.064419593889227 ], [ -82.347132486375131, 36.125544756085674 ], [ -82.231047221452059, 36.301427737100425 ] ] ], [ [ [ -86.0, 39.363427297330873 ], [ -86.0, 39.572697558985141 ], [ -85.491055243904327, 39.413355491362893 ], [ -83.913133297563604, 39.433447170550551 ], [ -81.838098649932704, 38.903904391974152 ], [ -80.515151187876995, 39.140302829911718 ], [ -80.019650579810389, 39.336189093951589 ], [ -79.537581234985964, 39.418384970589955 ], [ -79.267081525791752, 39.144871478535947 ], [ -79.406283971827804, 38.819612933090468 ], [ -79.37797576177195, 38.683153019096608 ], [ -79.233249226470605, 38.59291437230047 ], [ -79.058869430779566, 38.676940863929758 ], [ -78.985666404081257, 38.556668419412063 ], [ -79.040617125979566, 38.385386066913497 ], [ -78.91037097783834, 38.283805317961082 ], [ -78.830751236180561, 38.53900282242239 ], [ -78.574905950049526, 38.824139579777864 ], [ -78.730509656895094, 38.940043656489593 ], [ -78.625039113464254, 39.036816990411808 ], [ -78.462168819735211, 39.090767027676236 ], [ -78.501916170594768, 38.964757644149984 ], [ -78.447772605521266, 38.934760699746562 ], [ -77.630146094666486, 39.151339955774404 ], [ -77.456669257879923, 39.10019595977576 ], [ -76.880453603151238, 39.379420232257985 ], [ -76.697992596680933, 39.562624490627798 ], [ -76.301079854951297, 39.59962005272331 ], [ -75.628358949705728, 40.057483719298261 ], [ -75.25392200519633, 40.090956350055535 ], [ -74.361389260505916, 40.452297292286289 ], [ -73.658116233277497, 40.447835475027205 ], [ -73.532099453726744, 40.522123671370366 ], [ -73.469609212395198, 40.695733114091979 ], [ -72.821928066127327, 40.86406600863944 ], [ -72.722209894970661, 41.119845000346515 ], [ -72.444064791856647, 41.213895061208177 ], [ -72.167361833481777, 41.513920235330659 ], [ -71.832116603598365, 41.581412799061468 ], [ -71.891249624470561, 41.709210147230579 ], [ -71.829840683001066, 41.847106610381843 ], [ -71.725927402927255, 41.845793152332192 ], [ -71.569656779536729, 41.639765854110919 ], [ -71.402984633334142, 41.563685132662783 ], [ -71.426823599529428, 41.40928821797695 ], [ -71.348842771576585, 41.351494018734002 ], [ -71.066626959166797, 41.417609626882836 ], [ -70.948292133675011, 41.579854354894621 ], [ -70.296248136941927, 41.718485878020886 ], [ -70.050009410705684, 41.632036019246925 ], [ -69.818292657180336, 41.435291989933432 ], [ -69.472077995203279, 41.411553107489965 ], [ -69.395791533152703, 41.343198691966109 ], [ -69.301021071265382, 40.929798124284048 ], [ -69.088824234950437, 40.566715850855871 ], [ -68.755793867093246, 40.229724027841655 ], [ -68.699871832419092, 39.654524723037582 ], [ -68.577055677977114, 39.577829600056077 ], [ -68.594743996338309, 39.234551384638735 ], [ -69.177092882630404, 38.649882998401722 ], [ -69.303661846816738, 38.397385622948207 ], [ -69.369157520802901, 37.902415346890791 ], [ -69.254596098630998, 37.822568381625558 ], [ -69.250822114349035, 37.611082412623318 ], [ -69.120295953295567, 37.614650770516675 ], [ -69.187046525077051, 37.342224910451307 ], [ -68.524303601529937, 37.956068981098667 ], [ -67.92800991212772, 38.230275430466804 ], [ -67.55439238220265, 38.509129765026671 ], [ -67.146587215527518, 39.003000200798681 ], [ -66.493229213057703, 39.448099566541828 ], [ -66.312271665305047, 39.74953701172376 ], [ -65.903728639065378, 40.165317487711945 ], [ -64.961139746202264, 40.863457262942404 ], [ -64.510239272124693, 41.414412027992739 ], [ -64.372064160332684, 41.427519051463094 ], [ -63.937486620611026, 41.830672354345722 ], [ -63.848601345575617, 41.828673529260016 ], [ -65.526093041385451, 36.0 ], [ -71.46147181471953, 36.0 ], [ -71.497101193665117, 36.153294155301069 ], [ -71.297731315747569, 36.325298668798553 ], [ -71.556632060221375, 36.406779845213748 ], [ -71.969487000224831, 36.098508987799619 ], [ -72.254628989835965, 36.101355115446268 ], [ -72.443255205404981, 36.0 ], [ -72.800273282485932, 36.014831939442502 ], [ -72.956686198409272, 36.10616929157959 ], [ -73.204591272169409, 36.062217638932964 ], [ -73.227873247752143, 36.17573755984057 ], [ -72.958172927038902, 36.357913456041217 ], [ -72.915187884613147, 36.618772850186929 ], [ -73.157057680967171, 36.664345462473193 ], [ -73.296822788740656, 36.90690794004945 ], [ -73.119366316102571, 37.547943859021927 ], [ -74.064882359233479, 37.510268239487687 ], [ -74.681040988950429, 37.289123853882813 ], [ -75.73478895284785, 36.746132543282272 ], [ -77.116367366760528, 36.351893674853272 ], [ -78.236971370432343, 36.330256850673152 ], [ -78.509938572906776, 36.444074823094638 ], [ -79.019534022477103, 36.464259785360866 ], [ -79.179568901283744, 36.562044361957817 ], [ -79.200776865759735, 36.684533238718018 ], [ -79.074400748595622, 36.805958092492006 ], [ -79.265853459269692, 37.058827829540746 ], [ -79.068522006285548, 37.293000075792918 ], [ -78.755010019596682, 37.3966567675958 ], [ -78.771636758429622, 37.573582832681609 ], [ -78.968196022928055, 37.689420602378959 ], [ -79.141657910284266, 37.44689500330179 ], [ -79.274150769042706, 37.655564909892746 ], [ -79.592428381964226, 37.429641788637696 ], [ -79.76210826038789, 37.669633082001212 ], [ -79.641134717892896, 38.009375721612287 ], [ -80.156521492073182, 37.433657589825941 ], [ -80.441778441122096, 37.290716353576897 ], [ -81.032072694699082, 37.190625157125339 ], [ -81.183360531663141, 37.014732190937934 ], [ -81.357269188722057, 36.953620638181974 ], [ -81.846588842700896, 36.900076188865057 ], [ -81.882522441257606, 36.965696336216979 ], [ -81.784209095673191, 37.075480470647278 ], [ -82.011457096367849, 37.008192982020546 ], [ -82.175808787545463, 37.183708278814095 ], [ -82.474713634826344, 37.257239853036822 ], [ -82.887310410047348, 37.202506905569294 ], [ -83.868996522171699, 37.415561605183996 ], [ -83.918924119452527, 37.374192576126518 ], [ -83.825884276038494, 37.231108630958602 ], [ -83.883227782735958, 37.216421372748187 ], [ -84.349814991868357, 37.482326727096847 ], [ -85.67408244105178, 37.807590460731205 ], [ -85.730298125957688, 38.069846000192797 ], [ -85.959403820230079, 38.164115702477716 ], [ -85.966781624472333, 38.268510989490608 ], [ -85.694527426099796, 38.293350735648005 ], [ -85.271769154422884, 38.142529239432918 ], [ -84.959150295249913, 38.143015612580484 ], [ -85.173927819813002, 38.231470365964697 ], [ -85.114908153088777, 38.376295090146357 ], [ -85.60898894478396, 38.3867971355794 ], [ -85.48249844374817, 38.636643035347845 ], [ -85.234212063735697, 38.613976361519917 ], [ -85.125537628858467, 38.688414960482078 ], [ -85.522530811347849, 38.96659271348301 ], [ -85.736556356090944, 39.253560050755766 ], [ -86.0, 39.363427297330873 ] ], [ [ -71.116593756096904, 36.075885569563411 ], [ -71.108999769223942, 36.071795041008386 ], [ -71.101271970425046, 36.076045943865267 ], [ -71.107468793050316, 36.080300398144914 ], [ -71.116593756096904, 36.075885569563411 ] ], [ [ -71.015551052638955, 36.146009375132621 ], [ -71.027668957656203, 36.165105403191831 ], [ -71.027539822204972, 36.126733562703805 ], [ -71.018285801048819, 36.12937413680703 ], [ -71.015551052638955, 36.146009375132621 ] ], [ [ -70.97280458326486, 36.188021775584502 ], [ -70.968793921702058, 36.183903790727413 ], [ -70.960847841254804, 36.188224268735041 ], [ -70.966834370909453, 36.192529318873028 ], [ -70.97280458326486, 36.188021775584502 ] ], [ [ -70.608074761740795, 36.468511010175007 ], [ -70.602718959912011, 36.464545678939999 ], [ -70.596160318443879, 36.470039271295377 ], [ -70.60319007516182, 36.476546959874327 ], [ -70.608074761740795, 36.468511010175007 ] ], [ [ -70.55583762540607, 36.496401915915726 ], [ -70.549046209714788, 36.488783264236304 ], [ -70.540520874138963, 36.496634257565006 ], [ -70.548013187258732, 36.504126571584038 ], [ -70.55583762540607, 36.496401915915726 ] ], [ [ -70.415689210388734, 36.580630163251499 ], [ -70.409071908841497, 36.57634854494944 ], [ -70.403714127604871, 36.581384400369814 ], [ -70.408341728587857, 36.584937188300671 ], [ -70.415689210388734, 36.580630163251499 ] ], [ [ -70.359206882791341, 36.608813590574812 ], [ -70.351688964174343, 36.601295671957757 ], [ -70.344171045557289, 36.608813590574812 ], [ -70.351688964174343, 36.616331509191866 ], [ -70.359206882791341, 36.608813590574812 ] ], [ [ -70.299715752779719, 36.636871985154016 ], [ -70.295582273503101, 36.632738504978079 ], [ -70.287888207374806, 36.636958295788759 ], [ -70.295495961969038, 36.644566050382991 ], [ -70.299715752779719, 36.636871985154016 ] ], [ [ -72.812145962166369, 36.706943861170316 ], [ -72.874003769658202, 36.697425093093614 ], [ -72.882881089090972, 36.664878576085471 ], [ -72.821882522660246, 36.688651386352433 ], [ -72.812145962166369, 36.706943861170316 ] ], [ [ -70.079109649190912, 36.805016537383324 ], [ -70.072492346744355, 36.800734919081322 ], [ -70.067134566407049, 36.805770774501696 ], [ -70.071762167390091, 36.809323562432496 ], [ -70.079109649190912, 36.805016537383324 ] ], [ [ -70.024406437806817, 36.847231430985801 ], [ -70.012288532789512, 36.828135403825854 ], [ -70.012417668240744, 36.866507243414617 ], [ -70.021671689396896, 36.863866670210712 ], [ -70.024406437806817, 36.847231430985801 ] ], [ [ -69.889770235607841, 36.988134315146567 ], [ -69.921467610042157, 36.931979595282144 ], [ -69.733917542460574, 37.094174990083786 ], [ -69.860353311655956, 37.025651860844732 ], [ -69.889770235607841, 36.988134315146567 ] ], [ [ -69.658148135727856, 37.141699127612696 ], [ -69.651395657083867, 37.137359462569179 ], [ -69.642949939388131, 37.141871871189949 ], [ -69.650475686603613, 37.149359033892324 ], [ -69.658148135727856, 37.141699127612696 ] ], [ [ -69.363654596182641, 37.2116710179032 ], [ -69.362236927392246, 37.230705217571767 ], [ -69.369724227690938, 37.233861025865679 ], [ -69.375953810819681, 37.197651653800847 ], [ -69.363654596182641, 37.2116710179032 ] ], [ [ -69.601902869421849, 37.225876119887062 ], [ -69.594384950804795, 37.218358201270007 ], [ -69.58686703218774, 37.225876119887062 ], [ -69.594384950804795, 37.233394038504116 ], [ -69.601902869421849, 37.225876119887062 ] ], [ [ -69.299990783647729, 37.273312628375152 ], [ -69.284194199102956, 37.310977411978058 ], [ -69.349758526434812, 37.256602196833967 ], [ -69.339889766499482, 37.251894634429902 ], [ -69.299990783647729, 37.273312628375152 ] ], [ [ -69.518050560285076, 37.269266532624442 ], [ -69.507112811307138, 37.260582637578693 ], [ -69.454919032187547, 37.343082495860529 ], [ -69.511350691980795, 37.337306368893849 ], [ -69.518050560285076, 37.269266532624442 ] ], [ [ -64.441037100781557, 41.349092912507956 ], [ -64.433513809614567, 41.344911082080841 ], [ -64.425601110203047, 41.349951566311802 ], [ -64.433295025245172, 41.35688708037452 ], [ -64.441037100781557, 41.349092912507956 ] ], [ [ -69.435071865174393, 37.380858080436099 ], [ -69.367474207568591, 37.370906646724393 ], [ -69.366370107194655, 37.450120679026156 ], [ -69.426726575670898, 37.422430818527516 ], [ -69.435071865174393, 37.380858080436099 ] ], [ [ -69.293975891174398, 37.548665351824582 ], [ -69.343875969200553, 37.504382553512073 ], [ -69.345990195291222, 37.478356259833561 ], [ -69.284138180332718, 37.507640451945349 ], [ -69.293975891174398, 37.548665351824582 ] ], [ [ -79.34884934851857, 37.725513330575779 ], [ -79.349034942508524, 37.798357770594691 ], [ -79.414019411266793, 37.852879028444477 ], [ -79.471896932697234, 37.719563462683709 ], [ -79.438957314828201, 37.668073568540422 ], [ -79.34884934851857, 37.725513330575779 ] ], [ [ -85.525095465583206, 38.040372072713012 ], [ -85.385948444764892, 37.901048331515312 ], [ -84.987676726699533, 37.92613675190961 ], [ -85.304297283892481, 38.040571020736081 ], [ -85.525095465583206, 38.040372072713012 ] ], [ [ -79.390920729208233, 38.039462166545775 ], [ -79.383300036067794, 38.035604597474219 ], [ -79.37955830057507, 38.040008656674217 ], [ -79.383894644422242, 38.046935809739864 ], [ -79.390920729208233, 38.039462166545775 ] ], [ [ -78.980287061598574, 38.109097480164621 ], [ -79.0037484123593, 38.18288026741044 ], [ -79.102729677232787, 38.077384159851135 ], [ -79.060923483232102, 38.063293779884077 ], [ -78.980287061598574, 38.109097480164621 ] ], [ [ -79.078526457729822, 38.544275009783917 ], [ -79.072476337912633, 38.539794154776473 ], [ -79.066607913524365, 38.544893848572315 ], [ -79.073866287798921, 38.552171052851861 ], [ -79.078526457729822, 38.544275009783917 ] ], [ [ -79.469045338071851, 38.712425422895024 ], [ -79.46599233038171, 38.708877477813417 ], [ -79.459388009648876, 38.713911561569375 ], [ -79.466375620538429, 38.720455392102735 ], [ -79.469045338071851, 38.712425422895024 ] ], [ [ -78.829792513913333, 37.225876119887062 ], [ -78.822274595296278, 37.218358201270007 ], [ -78.814756677578544, 37.225876119887062 ], [ -78.822274595296278, 37.233394038504116 ], [ -78.829792513913333, 37.225876119887062 ] ], [ [ -79.050507067647004, 37.197985264508418 ], [ -79.045977698711795, 37.195244981670612 ], [ -79.038991145424973, 37.198542945800341 ], [ -79.046583007199956, 37.205593906733441 ], [ -79.050507067647004, 37.197985264508418 ] ] ], [ [ [ -81.86326721520976, 44.223075901231937 ], [ -81.40741433650237, 44.333071556207415 ], [ -81.018859912754749, 43.96244016937834 ], [ -81.21799761989422, 43.938508182706528 ], [ -81.33590997986164, 43.819723068464896 ], [ -81.570005632653761, 43.851686818491942 ], [ -81.961558479740006, 44.109771445296019 ], [ -81.86326721520976, 44.223075901231937 ] ] ], [ [ [ -72.385225503054471, 45.086114045726674 ], [ -72.511152264065686, 44.913077153687766 ], [ -72.605508352528432, 44.905756530139797 ], [ -72.859419680773613, 45.085723024098343 ], [ -72.918964361815824, 45.261240844389533 ], [ -72.400848455491769, 45.667334750498412 ], [ -72.447515458171836, 45.750151810457737 ], [ -72.259857119410469, 45.774765650514439 ], [ -72.068535080229708, 45.476330435501268 ], [ -72.385225503054471, 45.086114045726674 ] ] ], [ [ [ -79.986985614894195, 45.920551134827065 ], [ -80.214811664726483, 46.007651346432567 ], [ -79.083492842320766, 46.001893294939691 ], [ -78.249430757023788, 45.863240666523609 ], [ -78.088501635542002, 45.766333852525349 ], [ -78.428145045757219, 45.693131139690422 ], [ -79.986985614894195, 45.920551134827065 ] ] ], [ [ [ -74.225616221711221, 46.222191395116852 ], [ -74.422699567930692, 46.061656820605833 ], [ -74.985383487158174, 46.279568251373746 ], [ -75.882373574081157, 46.351939115597759 ], [ -77.249586877732156, 46.610477602359538 ], [ -77.650564863577529, 46.969156591803312 ], [ -76.680878460372583, 46.852174149717314 ], [ -76.406069520991537, 46.708286403095087 ], [ -75.99018982729865, 46.643095455391006 ], [ -75.765459807823845, 46.731551761004994 ], [ -75.472539096202297, 47.025478623339836 ], [ -74.801900498309294, 47.053251475974889 ], [ -74.576624144288814, 47.163204660466761 ], [ -74.169295132664217, 47.196102385216932 ], [ -73.612648332654373, 47.000864205918447 ], [ -73.8117604315986, 46.859650048411083 ], [ -73.782390655504287, 46.73974522156476 ], [ -73.291279395527624, 46.662524235305284 ], [ -73.227017209176836, 46.592546106417728 ], [ -73.252898503363213, 46.496562831409619 ], [ -73.376077476694149, 46.452028226521463 ], [ -73.705504313273423, 46.392956392823351 ], [ -73.963989779604617, 46.443613937433327 ], [ -74.225616221711221, 46.222191395116852 ] ], [ [ -74.675356076621597, 47.071017963408337 ], [ -74.66728600214725, 47.071150510887435 ], [ -74.670676705265691, 47.07894713480249 ], [ -74.678917789424418, 47.079096913291949 ], [ -74.675356076621597, 47.071017963408337 ] ], [ [ -75.6045310478695, 46.70598194790864 ], [ -75.597739632178218, 46.698363296229218 ], [ -75.589214296602449, 46.706214290457183 ], [ -75.596706609722219, 46.713706603576952 ], [ -75.6045310478695, 46.70598194790864 ] ], [ [ -76.838298097179404, 46.818712836927943 ], [ -76.830765759732003, 46.814810756811028 ], [ -76.823357273319459, 46.8186255397369 ], [ -76.830846770661879, 46.826031715791089 ], [ -76.838298097179404, 46.818712836927943 ] ], [ [ -76.698513360802906, 46.818583036877726 ], [ -76.691182574915842, 46.815535330691034 ], [ -76.686639074034019, 46.819602393235925 ], [ -76.693135931178233, 46.822842265658096 ], [ -76.698513360802906, 46.818583036877726 ] ] ], [ [ [ -82.564486332078502, 47.142742965115815 ], [ -82.863744424965205, 47.338141684191442 ], [ -83.391151707585209, 47.257805253010076 ], [ -83.544336480943798, 47.497613357170735 ], [ -83.384382695804732, 47.58817313658102 ], [ -83.246313235467426, 47.546002788198166 ], [ -83.262694277718708, 47.76501246655215 ], [ -83.155677760120511, 47.831322556690679 ], [ -82.727034707185965, 47.438546041666541 ], [ -82.528220598601706, 47.374401407499022 ], [ -82.414691648500764, 47.519640701157471 ], [ -82.084740542242173, 47.352786129276524 ], [ -82.341791980215703, 47.228546981158331 ], [ -82.366402425331614, 47.017089812944562 ], [ -82.564486332078502, 47.142742965115815 ] ], [ [ -82.919799006219137, 47.380822496760857 ], [ -82.991871662447238, 47.383868661509553 ], [ -83.025590060832599, 47.377629831551531 ], [ -82.938935344590448, 47.370402658356056 ], [ -82.919799006219137, 47.380822496760857 ] ] ], [ [ [ -72.753137890401263, 47.264913649145626 ], [ -72.701106364267275, 47.482087327368333 ], [ -72.400873290270113, 47.543631314633501 ], [ -72.367449909985339, 47.679246743642352 ], [ -72.465534266593068, 47.671090059059054 ], [ -72.505819024428376, 47.792390758726583 ], [ -72.301318526828538, 47.966777640176019 ], [ -70.081886522875877, 48.0 ], [ -70.192399655719498, 47.720281446131878 ], [ -70.576170397545752, 47.38174454287639 ], [ -70.869083820162132, 47.251846658096838 ], [ -71.19472962357321, 46.912279119186053 ], [ -71.571102589912527, 46.856241784231031 ], [ -72.027181818985696, 46.935536731235231 ], [ -72.440965999681111, 47.065591241942343 ], [ -72.753137890401263, 47.264913649145626 ] ], [ [ -71.032645048630059, 47.266952589390542 ], [ -71.025862514643279, 47.259342356264767 ], [ -71.017500921330395, 47.266992695556496 ], [ -71.025021763643451, 47.274513537869552 ], [ -71.032645048630059, 47.266952589390542 ] ], [ [ -72.384661401502456, 47.132642085663804 ], [ -72.446843078245422, 47.130574435461881 ], [ -72.457234892875988, 47.125546817831435 ], [ -72.369096259284902, 47.127338422929938 ], [ -72.384661401502456, 47.132642085663804 ] ] ] ] } }
]
}
