{
"type": "FeatureCollection",
"features": [
{ "type": "Feature", "properties": { "PRODUCT": "24-hour QPF", "VALID_TIME": "12Z 06/22/25 - 12Z 06/23/25", "QPF": 0.1, "UNITS": "Inches", "ISSUE_TIME": "2025-06-20 10:03:05", "START_TIME": "2025-06-22 12:00:00", "END_TIME": "2025-06-23 12:00:00", "InPoly_FID": 1, "fill": "green", "color": "green" }, "geometry": { "type": "MultiPolygon", "coordinates": [ [ [ [ -86.0, 46.864487280986616 ], [ -86.0, 48.0 ], [ -75.521863256533535, 48.0 ], [ -75.637789532387785, 47.949198902031689 ], [ -75.203760953717634, 47.814252209919466 ], [ -75.50633277166304, 47.638497379965465 ], [ -75.947825463419221, 47.787842646461499 ], [ -76.062958268109114, 47.778460391239712 ], [ -76.204675210150441, 47.623981067033071 ], [ -76.258177259511825, 47.756583566320373 ], [ -76.416776429851723, 47.634191241950738 ], [ -76.652437011618971, 47.600016324010703 ], [ -77.175884338478667, 47.67262836335734 ], [ -77.538087027941771, 47.580959311842619 ], [ -78.570128432112142, 47.656408902487215 ], [ -79.527798102327225, 47.558336426613849 ], [ -80.549192481656917, 47.76347783967875 ], [ -81.10855307382532, 47.757296274028924 ], [ -82.051807906521248, 47.97970609284593 ], [ -82.938510091156914, 47.870199806418405 ], [ -83.201480053582685, 47.793253438386685 ], [ -83.327313138743534, 47.655200035855309 ], [ -83.902968765118999, 47.592976711799793 ], [ -83.989588706513914, 47.468386691587462 ], [ -84.236384877926866, 47.40489214048263 ], [ -84.245436466992189, 47.305160498590205 ], [ -84.64969244719164, 46.938889897703191 ], [ -85.679058913076503, 46.936314369566531 ], [ -86.0, 46.864487280986616 ] ] ], [ [ [ -70.408880462841566, 42.667227624301447 ], [ -70.385045445770288, 42.911565696049514 ], [ -69.963045690533434, 43.722391454646676 ], [ -69.560107648425912, 43.856163392499525 ], [ -69.474566478538321, 43.984017127443437 ], [ -69.458505531836082, 44.756678780546252 ], [ -69.536554798152508, 44.938716935738682 ], [ -69.733213848166457, 45.055271156197968 ], [ -69.709680320408765, 45.478407217064714 ], [ -69.462768009810205, 45.793331141796827 ], [ -69.298384553618661, 45.851117521716212 ], [ -69.170015203868502, 46.073337387768262 ], [ -68.605381718282089, 46.296938563461843 ], [ -68.603262333011884, 46.853066330260205 ], [ -68.09002468241907, 47.1982375720726 ], [ -67.77240763834638, 47.49182941338109 ], [ -67.67061922284924, 47.702458866027897 ], [ -66.929426957067307, 48.0 ], [ -65.974289842585662, 48.0 ], [ -65.379026303148933, 47.803885023668649 ], [ -65.354931428632156, 47.70008367896488 ], [ -65.495467907428264, 47.567924583011433 ], [ -65.317569965548046, 47.00668504785753 ], [ -65.51810337422252, 46.861938487804011 ], [ -65.806465640284927, 46.804780317405118 ], [ -66.186268586770097, 46.373290905544877 ], [ -65.79652025154725, 46.374552706040987 ], [ -65.748196736474185, 46.214650202686194 ], [ -64.332841112955947, 45.332153090251566 ], [ -64.170345431407753, 44.82916782399203 ], [ -64.233545458076847, 44.503721546453761 ], [ -64.156726129857745, 44.242883477619429 ], [ -64.4186661836208, 43.552671969333957 ], [ -64.264185395842688, 43.523840346384162 ], [ -64.091602098757235, 43.769538539328416 ], [ -63.559742771343551, 43.550163229039157 ], [ -63.514234128801661, 43.365218753513275 ], [ -63.357847726798781, 43.368639737615887 ], [ -65.044611457032872, 37.832173325115527 ], [ -65.543698969051377, 38.286967093960513 ], [ -65.931326003736118, 38.38170159301572 ], [ -66.148942721233695, 38.754344185259868 ], [ -66.445015029159862, 38.808790241745037 ], [ -66.533045951403295, 38.941603591488388 ], [ -66.513830451900589, 39.177698575531196 ], [ -66.723588935066587, 39.261884106907644 ], [ -66.649669512959107, 39.418747909017895 ], [ -66.887811053897366, 39.421250991591272 ], [ -66.966912295816343, 39.498370983375509 ], [ -67.011790586619796, 39.713091536854478 ], [ -66.76385271916277, 39.96169155262335 ], [ -67.349850450058625, 40.328434212749919 ], [ -67.342743812472918, 40.428251275111847 ], [ -67.5341211294582, 40.656041292473532 ], [ -67.785995642836326, 40.766406087528892 ], [ -67.907114432829076, 40.937482023636214 ], [ -68.68731905253162, 41.540417514719067 ], [ -69.293561451080649, 41.58962678702698 ], [ -69.70034731319619, 41.826105494973831 ], [ -70.101586659171062, 41.623886921935934 ], [ -70.337042776385402, 41.729631774563316 ], [ -70.400773138952459, 41.84706393520139 ], [ -70.35162058869453, 42.232138916283454 ], [ -70.408880462841566, 42.667227624301447 ] ], [ [ -67.252887508874153, 40.432421231815987 ], [ -67.270114114685541, 40.422653323953114 ], [ -67.206011928177489, 40.423345131903666 ], [ -67.216569684748819, 40.431443680393507 ], [ -67.252887508874153, 40.432421231815987 ] ], [ [ -66.909566492213031, 39.554219127872962 ], [ -66.90173299054554, 39.549820087180755 ], [ -66.894209699099619, 39.554001918185321 ], [ -66.902656973270723, 39.561826574249416 ], [ -66.909566492213031, 39.554219127872962 ] ] ] ] } },
{ "type": "Feature", "properties": { "PRODUCT": "24-hour QPF", "VALID_TIME": "12Z 06/22/25 - 12Z 06/23/25", "QPF": 0.01, "UNITS": "Inches", "ISSUE_TIME": "2025-06-20 10:03:05", "START_TIME": "2025-06-22 12:00:00", "END_TIME": "2025-06-23 12:00:00", "InPoly_FID": 0, "fill": "lime", "color": "lime" }, "geometry": { "type": "MultiPolygon", "coordinates": [ [ [ [ -71.515084834997083, 38.51658649467106 ], [ -71.342362950289896, 38.845497284072451 ], [ -71.545416320007121, 39.082581457768129 ], [ -71.638078341142489, 39.489142799100932 ], [ -71.605666492214823, 39.686377529999049 ], [ -71.462331087609584, 39.823333745655873 ], [ -71.175240461378166, 39.854738827834694 ], [ -70.938074650824433, 39.990056900505579 ], [ -70.735114762036574, 39.829505528457446 ], [ -70.693330081617944, 39.601782289121388 ], [ -70.785029805680949, 39.271297948741392 ], [ -71.018356403225368, 38.953406691765451 ], [ -70.862198644751629, 38.645218196062956 ], [ -71.066168920059567, 38.083070860032194 ], [ -71.356561390995353, 38.021154117268736 ], [ -71.48751090610341, 38.142064817837138 ], [ -71.529577958356072, 38.343455789852896 ], [ -71.79214222878079, 38.315029708354416 ], [ -71.736788867811981, 38.49759052068606 ], [ -71.515084834997083, 38.51658649467106 ] ] ], [ [ [ -74.80424285722205, 43.588287809934513 ], [ -74.850658721522734, 43.335717386148531 ], [ -75.014647495785255, 43.213421213418314 ], [ -74.904873799786003, 43.019403428525436 ], [ -75.075987758728047, 42.523151628444964 ], [ -75.327981650532706, 42.370632206810967 ], [ -75.550651539936553, 42.361848363811021 ], [ -75.768862597830605, 42.478058474419129 ], [ -75.815277138329236, 42.632955235895452 ], [ -75.539607630487694, 43.337237252097566 ], [ -76.02371358091699, 43.348861201783109 ], [ -76.131734322880675, 43.55498666550227 ], [ -76.37858437406959, 43.623595367032635 ], [ -76.434497822016851, 43.754125077710228 ], [ -76.110686899081088, 43.928179445624949 ], [ -75.98307156020428, 44.11804582955142 ], [ -75.308366459144736, 44.318660468106145 ], [ -75.037548737084535, 44.224897947482361 ], [ -74.819616429454641, 44.020115742647477 ], [ -74.80424285722205, 43.588287809934513 ] ], [ [ -75.421094727539582, 43.742882319163755 ], [ -75.407949711310096, 43.825248085830538 ], [ -75.498577479467087, 43.887019550312061 ], [ -75.525134159114089, 43.769924412381783 ], [ -75.421094727539582, 43.742882319163755 ] ] ], [ [ [ -72.571235965467395, 46.329440324511438 ], [ -72.938869902024294, 46.20393503437441 ], [ -73.147725335156053, 46.273387267608371 ], [ -73.113240479664341, 46.378739983663365 ], [ -72.72050724091639, 46.690392660692794 ], [ -72.395002114855686, 46.694372092398226 ], [ -72.300579385730032, 46.551820970361518 ], [ -72.571235965467395, 46.329440324511438 ] ] ], [ [ [ -72.08863412216698, 47.288647175227027 ], [ -72.045581682748434, 47.417518250067246 ], [ -71.880326647756533, 47.535037098183579 ], [ -71.315058993377818, 47.523554824995244 ], [ -71.030039769319842, 47.607383261628286 ], [ -70.924829027437625, 47.909086027498233 ], [ -70.81800025230973, 47.98593488328828 ], [ -70.403729068847397, 48.0 ], [ -70.305851872066228, 47.91875968131427 ], [ -70.275443757623293, 47.722834007183735 ], [ -70.399060731367626, 47.555983033490236 ], [ -70.76656287767463, 47.37632550162067 ], [ -70.955384149558824, 47.085468240367049 ], [ -71.272367016624457, 46.884562261938868 ], [ -71.644433816767219, 46.915620990016748 ], [ -72.027405840107406, 47.163490988418459 ], [ -72.08863412216698, 47.288647175227027 ] ] ], [ [ [ -72.559291632302973, 45.358728720254305 ], [ -72.271502852474612, 45.737046859924703 ], [ -71.470263842802069, 46.421136007920495 ], [ -71.05848554237383, 46.543124599021098 ], [ -70.460731112950441, 46.982863830901124 ], [ -70.246565053634299, 47.006435787481678 ], [ -70.164640828011784, 46.902833103564944 ], [ -69.854713019190456, 46.967212665831937 ], [ -69.195386809853346, 47.385865411859299 ], [ -68.927865628296047, 47.625161140774082 ], [ -68.986776922217132, 47.797683668266757 ], [ -68.755463204414994, 48.0 ], [ -63.916100140136884, 48.0 ], [ -63.536800998966896, 47.74610527543814 ], [ -63.177724731311287, 47.698884461248952 ], [ -63.093768305862568, 46.977991917393126 ], [ -63.276671475707985, 46.848497375853242 ], [ -63.593793315009464, 47.005586436265048 ], [ -63.883957334763124, 46.703389301375239 ], [ -63.912986421586027, 46.579378787001474 ], [ -63.650660458913023, 46.306025065804192 ], [ -63.855033263574228, 46.022238777197856 ], [ -63.695356504698907, 45.705402667798921 ], [ -63.128871536991824, 45.289852797768447 ], [ -62.830210164067751, 44.875927025112162 ], [ -65.222592985178096, 37.169806511861111 ], [ -65.555153244126871, 37.269996068064131 ], [ -65.746001159825653, 37.184277968753292 ], [ -65.835562601832578, 37.044679144726786 ], [ -66.124502745904977, 36.982281944556121 ], [ -66.393261489925806, 37.079127613648495 ], [ -66.504827820747266, 37.289055228416089 ], [ -66.696232209049185, 37.329517842474502 ], [ -66.965725677597902, 36.557276169959323 ], [ -67.173872273186817, 36.470480496677624 ], [ -67.553966345470428, 36.539372452276893 ], [ -68.055572844810911, 36.798424750501908 ], [ -68.55062835591383, 36.618795439358109 ], [ -69.367419720343776, 37.105913010676943 ], [ -69.521858578510546, 37.453408782989015 ], [ -69.500214480613749, 37.820056982543747 ], [ -69.044861733781943, 38.062582877497846 ], [ -68.806093783701101, 38.466498096809744 ], [ -68.805559082785408, 38.817736348353833 ], [ -69.049377340391914, 39.312682677263808 ], [ -69.049538481815432, 39.571830834225693 ], [ -69.911351120158031, 40.606144174414169 ], [ -69.849670589725918, 40.981728295024823 ], [ -70.4396711777826, 41.055208057505922 ], [ -70.429102598705924, 41.27679296702189 ], [ -70.868030172654301, 41.549319174340496 ], [ -71.039612520101684, 41.771152473907591 ], [ -71.672808078430023, 41.753479582516775 ], [ -71.668195977262485, 41.949175192081498 ], [ -71.540010428638311, 42.060580432740835 ], [ -71.521071502247992, 42.35499936003248 ], [ -71.412574117801285, 42.432381547970124 ], [ -71.575171301814066, 42.600822293713918 ], [ -71.406857432424545, 42.695855987164123 ], [ -71.488151717128005, 43.229211812075505 ], [ -70.934736067915139, 43.3305806906464 ], [ -71.101447143970461, 43.555126115278028 ], [ -71.09839221982503, 43.85339516615403 ], [ -71.010368962057896, 43.994358223053609 ], [ -71.128588258841035, 44.122015360620424 ], [ -71.336087971182906, 44.059639231565313 ], [ -71.491870360728512, 43.908879692343987 ], [ -71.818311731401252, 44.006971241729502 ], [ -71.788508155626857, 44.38517443095526 ], [ -71.941162943215204, 44.631218350546476 ], [ -71.760375129008935, 44.768288758519418 ], [ -71.980710255174074, 44.811337548489121 ], [ -72.263083646792836, 45.012717281677283 ], [ -72.559291632302973, 45.358728720254305 ] ], [ [ -64.461676532745741, 46.337759976142024 ], [ -64.462481933194624, 46.306167307075611 ], [ -64.4615466553538, 46.288914785788791 ], [ -64.460605501342798, 46.318450467914829 ], [ -64.461676532745741, 46.337759976142024 ] ], [ [ -71.126647097385614, 44.723376588558779 ], [ -71.062048696789873, 44.761940348868052 ], [ -71.081558502922519, 44.833515447080288 ], [ -71.168495653951254, 44.740085202570071 ], [ -71.126647097385614, 44.723376588558779 ] ], [ [ -68.355031403776252, 40.405976348729553 ], [ -68.232565157555939, 40.599726937847947 ], [ -68.442377006193851, 40.77909284565834 ], [ -69.06355149220758, 40.834128762132707 ], [ -69.186991126839018, 40.749480524206888 ], [ -68.936239539622989, 40.463986893380479 ], [ -68.798237845000529, 39.951062240829799 ], [ -68.666949188354295, 39.830651175711239 ], [ -68.345815995012117, 39.889200970048762 ], [ -68.293584114315365, 40.124625565417546 ], [ -68.426536087770216, 40.31269414431938 ], [ -68.355031403776252, 40.405976348729553 ] ], [ [ -68.123378387002901, 38.771107759315669 ], [ -68.20453600173505, 38.804856277795011 ], [ -68.469397756701085, 38.602836801077558 ], [ -68.026424506086073, 38.521029014277644 ], [ -68.123378387002901, 38.771107759315669 ] ] ], [ [ [ -86.0, 46.482069175828428 ], [ -86.0, 48.0 ], [ -71.103233940993249, 48.0 ], [ -71.803494588604337, 47.849661683839713 ], [ -71.878065059654716, 47.656462973587395 ], [ -72.111478803304067, 47.577942386931682 ], [ -72.248741592450472, 47.383113273259028 ], [ -72.735020438042739, 47.535100083102407 ], [ -73.786695958351743, 47.531914848991164 ], [ -74.152164540561046, 47.361280290752859 ], [ -75.005546076090525, 47.442330524634031 ], [ -75.122517461911286, 47.380654782192494 ], [ -75.180509061444013, 47.200947788509666 ], [ -75.445586933390246, 47.113701009893759 ], [ -76.169337596452863, 47.24130241197679 ], [ -76.717353565015003, 47.176863646440211 ], [ -77.251780430322583, 47.312991734880711 ], [ -77.96334780046061, 47.214845460849403 ], [ -78.075253132526029, 47.280582154043202 ], [ -78.164291369650925, 47.485868101531707 ], [ -78.308643862524207, 47.441415640719299 ], [ -78.390272021436601, 47.258385769887411 ], [ -78.638420357313578, 47.176114920367354 ], [ -79.945398807808715, 47.461252541071985 ], [ -80.833495184255298, 47.437466814741754 ], [ -81.294003024919618, 47.601063112272868 ], [ -82.140194662353736, 47.601379762665943 ], [ -83.402074391120209, 47.177653106405785 ], [ -83.65618495966811, 46.997010575877425 ], [ -83.973096058136548, 47.00192890069826 ], [ -84.511194571172496, 46.575686233632837 ], [ -85.133687136851847, 46.483602590786973 ], [ -85.566932273405655, 46.525750559540768 ], [ -85.812264858036713, 46.429071532125533 ], [ -86.0, 46.482069175828428 ] ] ] ] } },
{ "type": "Feature", "properties": { "PRODUCT": "24-hour QPF", "VALID_TIME": "12Z 06/22/25 - 12Z 06/23/25", "QPF": 0.25, "UNITS": "Inches", "ISSUE_TIME": "2025-06-20 10:03:05", "START_TIME": "2025-06-22 12:00:00", "END_TIME": "2025-06-23 12:00:00", "InPoly_FID": 2, "fill": "darkgreen", "color": "darkgreen" }, "geometry": { "type": "MultiPolygon", "coordinates": [ [ [ [ -66.143310610052453, 45.062432660435796 ], [ -65.964109617144913, 44.948785310004411 ], [ -65.855637626978009, 44.55991601800158 ], [ -65.396807997554205, 43.883212946423448 ], [ -65.336272079971565, 43.374192023853851 ], [ -65.693512242950561, 42.621607251044693 ], [ -65.471567383844047, 42.512719487863862 ], [ -65.195785750712275, 42.121261439614933 ], [ -65.521976658021217, 41.696487626959019 ], [ -65.907205994485011, 41.914620633537297 ], [ -66.147117704065593, 41.856575145607856 ], [ -66.30415862145145, 41.664307878982989 ], [ -66.244700275503263, 41.507211051184335 ], [ -65.956222478034135, 41.391825880640027 ], [ -66.290939696635903, 41.130333745951681 ], [ -66.183032664000933, 41.049910195052369 ], [ -66.266336391553409, 40.999450900745657 ], [ -66.531507339664856, 41.127979586389785 ], [ -66.577759462763723, 41.444659798676184 ], [ -66.370949952326711, 41.672215118915432 ], [ -66.584202563921465, 41.5999874568518 ], [ -66.676885093705096, 41.670662313220291 ], [ -66.319781354826873, 41.936374302264682 ], [ -66.336446859041686, 42.01534266030086 ], [ -66.784707863969231, 41.944721730984362 ], [ -67.259607906955864, 42.124603767991083 ], [ -67.374106889887841, 42.109800896431842 ], [ -67.332103304573707, 42.047949066926435 ], [ -67.724147754968129, 42.028149611594749 ], [ -67.99465726049057, 42.147121993953725 ], [ -68.168296274290071, 41.998557833653479 ], [ -68.230795592939728, 42.027696587628803 ], [ -68.197858418259514, 42.134002509578977 ], [ -68.300890844789933, 42.241984449088584 ], [ -68.308856123508335, 42.391631180372435 ], [ -67.776413293862362, 42.592726584647771 ], [ -67.760311626439886, 42.817457775387396 ], [ -67.934977104570336, 43.064995317033848 ], [ -68.190442732060035, 43.164098915713588 ], [ -68.631624323695192, 43.641911371842362 ], [ -68.851291528770417, 44.263855287130617 ], [ -68.473767096486441, 45.230009538045586 ], [ -67.969491416222951, 45.434338707255641 ], [ -67.340930272528993, 45.443233535064138 ], [ -66.594071589254938, 45.262889161185257 ], [ -66.143310610052453, 45.062432660435796 ] ], [ [ -66.509441680623837, 41.423390619909441 ], [ -66.44875259290751, 41.420892351607854 ], [ -66.307025496829027, 41.49634037203203 ], [ -66.373083924142463, 41.501559193764102 ], [ -66.509441680623837, 41.423390619909441 ] ], [ [ -66.244424562977443, 41.249197842711922 ], [ -66.335489561649979, 41.286039000507387 ], [ -66.457691060106455, 41.231164951732168 ], [ -66.352142493287616, 41.17348895057804 ], [ -66.244424562977443, 41.249197842711922 ] ], [ [ -66.121719723435547, 41.268647673689877 ], [ -66.13496090200951, 41.307668674366418 ], [ -66.178403759467258, 41.297053391358645 ], [ -66.148534008451946, 41.257228731720545 ], [ -66.121719723435547, 41.268647673689877 ] ], [ [ -66.274020059533115, 41.448368365233527 ], [ -66.300880039722657, 41.42913725691092 ], [ -66.240047583965023, 41.431905231385954 ], [ -66.251745626968713, 41.449494272888259 ], [ -66.274020059533115, 41.448368365233527 ] ], [ [ -66.200488156974899, 41.218103233978646 ], [ -66.181861711946624, 41.23672967900697 ], [ -66.203182539723031, 41.256472726474499 ], [ -66.220093377461922, 41.237324803545746 ], [ -66.200488156974899, 41.218103233978646 ] ], [ [ -66.349500049784126, 41.419248170703362 ], [ -66.359196628808462, 41.403204285610769 ], [ -66.339019826463584, 41.386657035244795 ], [ -66.321838268630984, 41.411962652998142 ], [ -66.349500049784126, 41.419248170703362 ] ], [ [ -66.239273785162737, 41.892863796444374 ], [ -66.25808559191519, 41.900878011848548 ], [ -66.275051738431273, 41.880025331081434 ], [ -66.254874936086466, 41.86347808071541 ], [ -66.239273785162737, 41.892863796444374 ] ], [ [ -66.377831475024848, 41.853955704269836 ], [ -66.396768714576552, 41.864593989515186 ], [ -66.416559106373796, 41.849679119665304 ], [ -66.397406286371236, 41.83409738122846 ], [ -66.377831475024848, 41.853955704269836 ] ], [ [ -66.411027874224729, 41.090903126813267 ], [ -66.421758529337239, 41.114887573659743 ], [ -66.441745318918393, 41.108930134594324 ], [ -66.437450470716442, 41.087890284616705 ], [ -66.411027874224729, 41.090903126813267 ] ], [ [ -66.181290514268568, 41.910347218659815 ], [ -66.198592471397419, 41.920919825527811 ], [ -66.219791564051519, 41.909536149758871 ], [ -66.202489606922555, 41.898963542890826 ], [ -66.181290514268568, 41.910347218659815 ] ], [ [ -66.332116661200814, 41.812064410981655 ], [ -66.347823187999666, 41.809789976576113 ], [ -66.344942458582281, 41.789366795256456 ], [ -66.32179486568225, 41.79680274989056 ], [ -66.332116661200814, 41.812064410981655 ] ], [ [ -66.410776085029298, 41.539734859617319 ], [ -66.417444388182915, 41.556002951919503 ], [ -66.444177938390638, 41.544908291457773 ], [ -66.432410438815296, 41.53462469989703 ], [ -66.410776085029298, 41.539734859617319 ] ], [ [ -66.405755894195522, 41.385642205596959 ], [ -66.412743178316745, 41.370278828815792 ], [ -66.390053650367278, 41.370355265035343 ], [ -66.389062462799018, 41.384691598929614 ], [ -66.405755894195522, 41.385642205596959 ] ] ], [ [ [ -69.144487822917483, 43.267149210263625 ], [ -69.119512643668671, 43.02772392455573 ], [ -69.286069356236524, 42.873953923498256 ], [ -69.52473722398264, 42.908585185618229 ], [ -69.708520279010372, 43.13218009893248 ], [ -69.68414205242982, 43.266763050449072 ], [ -69.523012188972146, 43.366443704540657 ], [ -69.144487822917483, 43.267149210263625 ] ] ] ] } }
]
}
