{
"type": "FeatureCollection",
"features": [
{ "type": "Feature", "properties": { "PRODUCT": "24-hour QPF", "VALID_TIME": "12Z 03/24/25 - 12Z 03/25/25", "QPF": 0.5, "UNITS": "Inches", "ISSUE_TIME": "2025-03-24 09:39:37", "START_TIME": "2025-03-24 12:00:00", "END_TIME": "2025-03-25 12:00:00", "InPoly_FID": 3, "fill": "royalblue", "color": "royalblue" }, "geometry": { "type": "MultiPolygon", "coordinates": [ [ [ [ -75.993306874323537, 38.422017107943816 ], [ -75.9406259286243, 38.597255993902991 ], [ -75.989504515899782, 38.749185823000808 ], [ -75.8843856388917, 38.914670997449818 ], [ -75.360596973207038, 39.344025875564036 ], [ -75.048663566293911, 39.732944510870674 ], [ -74.337516800811898, 40.277690202160258 ], [ -74.135771047044756, 40.484321569133165 ], [ -74.056429296801909, 40.80767059501953 ], [ -73.244021362307151, 41.465627851865285 ], [ -73.23565397505179, 41.540289611115846 ], [ -73.399598111893241, 41.66291130050422 ], [ -73.365112267682278, 41.79563356646149 ], [ -72.911027858276526, 42.211083552255829 ], [ -72.633692452664206, 42.251209067554825 ], [ -72.49104593849863, 42.400081289143685 ], [ -72.485409990664564, 42.582241275585154 ], [ -72.707685213842851, 42.486172398545712 ], [ -73.010512234148678, 42.544806481853861 ], [ -73.043016367384041, 42.654036896462046 ], [ -72.946425592994402, 42.857484239923984 ], [ -72.494321721752954, 42.971041475186219 ], [ -72.338452806229355, 43.180684439058837 ], [ -72.154866363219924, 43.268037102813636 ], [ -71.899406176484732, 43.738645113709886 ], [ -71.744381515983065, 43.728574569786723 ], [ -71.760980848797757, 43.605043398766796 ], [ -71.629393368490909, 43.547220713762336 ], [ -71.572161109993374, 43.15925250462351 ], [ -71.340307194828796, 43.239087738301045 ], [ -71.366843691379344, 43.494424438608505 ], [ -71.218236285959037, 43.609893850725989 ], [ -71.380740216186737, 43.731456222438823 ], [ -71.619277074476599, 43.730010169626411 ], [ -71.515525228588757, 44.118350118006596 ], [ -71.578295526222135, 44.18965540049858 ], [ -70.892468108656971, 44.429827852518912 ], [ -70.759532645327482, 44.305079546051694 ], [ -70.558451125064465, 44.306455977252178 ], [ -70.589931904776094, 44.404143236684043 ], [ -70.504850708677907, 44.447331676056422 ], [ -70.1289657429828, 44.350877855754867 ], [ -69.986199502105592, 44.452236413759245 ], [ -69.929686113737787, 44.618404990469664 ], [ -69.846493330236285, 44.368608170785741 ], [ -69.669804710170567, 44.316733876219665 ], [ -69.085584228281377, 44.779819681935486 ], [ -68.711272929889674, 44.73482545293804 ], [ -68.45664133102332, 44.942935251752303 ], [ -68.14212147960356, 45.453462694610586 ], [ -67.626950923466893, 45.749066742555314 ], [ -67.177861702318907, 45.903313357344736 ], [ -67.040903244736839, 46.191111576630711 ], [ -67.196794127453941, 46.238866283311097 ], [ -67.163567642965219, 46.368952117910176 ], [ -66.278928105469305, 46.811609117422272 ], [ -65.694205558910014, 46.868078929872169 ], [ -65.419581678664628, 46.810813946420396 ], [ -64.719936351670739, 47.12853983226475 ], [ -64.538996732380582, 47.314811393201282 ], [ -63.481305512130476, 47.68336135792935 ], [ -62.399306834911982, 47.8674123472886 ], [ -61.87014649333053, 47.69719871801788 ], [ -62.228904077789522, 46.747133164384621 ], [ -64.202568619563138, 46.418990770056666 ], [ -64.968734126936383, 46.130802036302299 ], [ -65.296248471753771, 46.164919836166341 ], [ -66.495194105959683, 45.630728621969546 ], [ -66.407050192192543, 45.586145855190331 ], [ -65.949623197041689, 45.684356327657767 ], [ -65.916395796285386, 45.530303659608812 ], [ -65.825760417318648, 45.498461000553569 ], [ -64.795598668185434, 45.892802440569071 ], [ -64.470190688692341, 45.918281959015523 ], [ -64.416957233295278, 45.869366020616106 ], [ -64.50167000152959, 45.706965351491782 ], [ -64.423586531028334, 45.662729188007454 ], [ -63.115945168013738, 45.719771764647959 ], [ -62.643378495465228, 45.46488798737937 ], [ -63.070381932177042, 44.234458205667508 ], [ -63.699462577913529, 43.544192043074077 ], [ -63.701083433354199, 43.351751649651362 ], [ -63.507265923167218, 43.235070221656883 ], [ -63.934008987758332, 42.516486978979252 ], [ -63.978870410155309, 42.310648983443308 ], [ -64.219610821346706, 42.0037969638935 ], [ -64.260444389429807, 41.712701485743239 ], [ -64.613366256563822, 41.277951377758122 ], [ -64.583210662909806, 41.197829356267391 ], [ -64.416159074888867, 41.20922747949745 ], [ -64.785443164477186, 40.895719889144658 ], [ -64.820514821483386, 40.731909917593228 ], [ -65.13003516834128, 40.365524182791269 ], [ -65.664447312881549, 39.465454702658604 ], [ -66.346053634879937, 38.893974811766931 ], [ -66.454962387402887, 38.649123468624104 ], [ -66.370033908911608, 38.535672875863369 ], [ -67.822256235750118, 37.448586201020717 ], [ -67.817727482357583, 37.375101498317925 ], [ -67.621042842465272, 37.364293514490249 ], [ -68.260756759265618, 36.98580866688998 ], [ -68.417844108009703, 36.687735881801949 ], [ -69.22593077958129, 36.243010282940986 ], [ -69.52129048714275, 36.0 ], [ -70.575725395843165, 36.0 ], [ -70.353177589788785, 36.174923435419728 ], [ -70.785733418900421, 36.0 ], [ -74.086466391400407, 36.0 ], [ -73.290879225075059, 36.687055954712321 ], [ -73.223120153707725, 36.944589154097464 ], [ -72.626015988733684, 37.444808698443232 ], [ -72.7029157896322, 37.742847674236984 ], [ -72.497146768272941, 38.016283197306123 ], [ -72.416803844907051, 38.368402015399539 ], [ -71.593406005959537, 38.997628641612025 ], [ -70.554810001883013, 40.022142453354462 ], [ -69.229403326559762, 41.013976212971578 ], [ -69.229781140727013, 41.188539272926789 ], [ -69.486201183484027, 41.132590284202969 ], [ -69.524524761613137, 41.183391594989402 ], [ -69.35289909219432, 41.466593528942909 ], [ -69.015975357621784, 41.723615493908319 ], [ -69.030709222774519, 41.861473030798365 ], [ -69.200499737494141, 41.796542586167355 ], [ -69.821185789263225, 41.243597336329927 ], [ -70.098254533483299, 41.122194444725707 ], [ -69.613113717057416, 41.544254705635325 ], [ -69.678025390849086, 41.624205710508576 ], [ -69.938465812310298, 41.596145905054506 ], [ -69.547248999360065, 41.856762695379857 ], [ -69.497628163175321, 41.974705671545372 ], [ -69.570476125961619, 42.072317821958485 ], [ -71.530072783680907, 40.742280653151468 ], [ -72.878103172271238, 40.056291973146188 ], [ -73.834429601924853, 39.317777426983653 ], [ -74.875299660281939, 38.764145751892229 ], [ -75.442679245510348, 38.278803806296899 ], [ -75.792821318985702, 38.192432809280163 ], [ -75.993306874323537, 38.422017107943816 ] ], [ [ -64.890958001196978, 44.924489142738025 ], [ -63.847006309092542, 45.029020503753898 ], [ -63.282977436556365, 45.215199185353306 ], [ -63.171636917998569, 45.468116291748601 ], [ -64.527172786544511, 45.379810685504928 ], [ -65.084620964489901, 45.194239370051022 ], [ -65.521023701350444, 44.884234705248282 ], [ -65.401391928511472, 44.803892126182006 ], [ -64.890958001196978, 44.924489142738025 ] ], [ [ -65.783062013200109, 46.607529438952966 ], [ -65.81411449737503, 46.519590570463798 ], [ -65.490493852446207, 46.684543144135844 ], [ -65.682078153798003, 46.692772191593562 ], [ -65.783062013200109, 46.607529438952966 ] ], [ [ -64.93957741530896, 46.246513727023128 ], [ -64.831250207268226, 46.318265883197377 ], [ -64.825492747339766, 46.359515424419406 ], [ -65.050078907220538, 46.236816838080628 ], [ -64.93957741530896, 46.246513727023128 ] ], [ [ -64.486620687901009, 46.443876759593103 ], [ -64.456462852213406, 46.449252985781271 ], [ -64.401670580472981, 46.518845287522353 ], [ -64.461164912294777, 46.518081974386881 ], [ -64.486620687901009, 46.443876759593103 ] ], [ [ -62.608359633061255, 47.704406250375435 ], [ -62.556273878992364, 47.703028128168206 ], [ -62.518731155203987, 47.740725794561186 ], [ -62.609079109248363, 47.75516427281552 ], [ -62.608359633061255, 47.704406250375435 ] ], [ [ -69.847264093699621, 36.481596084544357 ], [ -69.840614186890065, 36.496507575318525 ], [ -69.861131930170771, 36.496225748028955 ], [ -69.857573543355983, 36.485944913417647 ], [ -69.847264093699621, 36.481596084544357 ] ], [ [ -64.418692961191752, 46.426236863717776 ], [ -64.429287535606463, 46.440322523689254 ], [ -64.442934350541464, 46.436147108356693 ], [ -64.436037510628864, 46.419273271160264 ], [ -64.418692961191752, 46.426236863717776 ] ], [ [ -68.991036221215111, 41.794901003992358 ], [ -68.972913461590267, 41.793194353361194 ], [ -68.976174560499899, 41.811322026797619 ], [ -68.987987032804526, 41.808453240323807 ], [ -68.991036221215111, 41.794901003992358 ] ] ] ] } },
{ "type": "Feature", "properties": { "PRODUCT": "24-hour QPF", "VALID_TIME": "12Z 03/24/25 - 12Z 03/25/25", "QPF": 0.25, "UNITS": "Inches", "ISSUE_TIME": "2025-03-24 09:39:37", "START_TIME": "2025-03-24 12:00:00", "END_TIME": "2025-03-25 12:00:00", "InPoly_FID": 2, "fill": "darkgreen", "color": "darkgreen" }, "geometry": { "type": "MultiPolygon", "coordinates": [ [ [ [ -76.155759596228336, 43.633245629482246 ], [ -76.186482553427084, 43.856037806000018 ], [ -76.029242626346104, 44.056338171969117 ], [ -75.757029098913733, 44.079262618475127 ], [ -75.627167345296698, 43.870645953547978 ], [ -75.404086184229982, 43.779649930999597 ], [ -75.342858985853468, 43.912891414207479 ], [ -75.458784073426216, 44.149772967948138 ], [ -75.2040339088378, 44.190470403086692 ], [ -74.746280296798204, 43.970922919357292 ], [ -74.281459146622296, 43.972485495009664 ], [ -74.284629978990324, 43.656802646524966 ], [ -74.22535539943209, 43.615333156899737 ], [ -74.41679225595783, 43.56719110238754 ], [ -74.733632634438493, 43.308358276513331 ], [ -75.527561049802557, 43.287689517657157 ], [ -75.919861085120942, 43.400962131297376 ], [ -76.155759596228336, 43.633245629482246 ] ] ], [ [ [ -86.0, 43.918113294512914 ], [ -86.0, 44.714220473010492 ], [ -85.421720056535321, 44.543636606843961 ], [ -85.402893559789902, 44.712018418215507 ], [ -85.237395167353043, 44.897182661750492 ], [ -84.744902004623782, 45.148400957538229 ], [ -84.757326863543881, 44.95790738821546 ], [ -85.190435626902627, 44.507358876411047 ], [ -85.556174218865067, 43.760869895029657 ], [ -85.701934559032622, 43.749376917211009 ], [ -86.0, 43.918113294512914 ] ] ], [ [ [ -81.305709472114415, 45.150209115558312 ], [ -81.199756924442454, 44.995783062838143 ], [ -80.968833019528176, 44.86923518325716 ], [ -80.943480770421161, 44.608264460236683 ], [ -80.750508325099077, 44.584117764922951 ], [ -80.298784033356412, 44.250404316106369 ], [ -80.548334493242237, 43.965979439599494 ], [ -80.964594505731839, 43.808591333922948 ], [ -81.177776346101439, 43.552464671507437 ], [ -81.37461544184913, 43.653364186707904 ], [ -81.694036175828842, 44.348847695564757 ], [ -81.278752080643983, 44.631262905658616 ], [ -81.52618436731467, 44.833919622192866 ], [ -81.613461381137768, 45.155379861191705 ], [ -81.449157506014046, 45.21798970246283 ], [ -81.305709472114415, 45.150209115558312 ] ], [ [ -80.842210820872651, 44.067300513807709 ], [ -80.925307377533386, 44.161430249206717 ], [ -81.113058344666854, 44.172277871726465 ], [ -81.04814033310987, 44.038811593080595 ], [ -80.842210820872651, 44.067300513807709 ] ] ], [ [ [ -80.436585001996207, 46.266240043243442 ], [ -80.083477637283124, 46.189792652009316 ], [ -79.886521920150471, 46.245942947209301 ], [ -79.838283829734905, 46.092758354614432 ], [ -79.675555016450801, 46.024994680360237 ], [ -79.222631936514631, 46.029931952097968 ], [ -78.775360916672923, 45.675230426642941 ], [ -78.424676393900427, 45.832076883241598 ], [ -78.55577249040806, 45.5486171492621 ], [ -78.205519755532237, 45.274034884002731 ], [ -78.330555108531371, 45.133236338286451 ], [ -78.689694152463119, 45.114437818550527 ], [ -78.896764487091389, 44.964160142376727 ], [ -79.228505563480951, 44.873878915379692 ], [ -79.469616364403635, 45.062313849304758 ], [ -80.367294314880667, 45.386771961257068 ], [ -80.818880935706602, 45.739075333859603 ], [ -81.493098671666303, 46.080678655495603 ], [ -81.049335252419951, 46.226362963380097 ], [ -80.436585001996207, 46.266240043243442 ] ], [ [ -80.06739858467688, 46.121744895410643 ], [ -80.037343135777064, 46.105911046557594 ], [ -79.967834410729438, 46.117305538719677 ], [ -79.996137152007918, 46.128549193890251 ], [ -80.06739858467688, 46.121744895410643 ] ] ], [ [ [ -74.064068361265811, 46.828422474417721 ], [ -74.086344000874874, 46.673494205193492 ], [ -74.265943191025428, 46.549717162916807 ], [ -73.955832519455157, 46.472126161393305 ], [ -73.267638907009939, 46.776910875136821 ], [ -72.795125169191181, 46.798487393478467 ], [ -72.56334190630389, 46.917220841668552 ], [ -72.338293537616607, 46.817315635807972 ], [ -71.994686677548088, 47.085476337862758 ], [ -71.460323000406106, 47.280708205719179 ], [ -71.299545169174166, 47.223725121217399 ], [ -71.171077446566869, 47.325398541709376 ], [ -71.03772302919441, 47.239926842250043 ], [ -70.634187781540845, 47.370513286658934 ], [ -70.498331765898229, 47.272047514980898 ], [ -70.897984599809377, 47.027558462053435 ], [ -70.787086752151879, 46.858795239208973 ], [ -70.897878021153701, 46.725852303940712 ], [ -71.981024329908848, 46.205023375928135 ], [ -72.5619961544989, 46.18493963235818 ], [ -72.632529698386804, 45.998979763105638 ], [ -72.883486593631346, 45.901257217246837 ], [ -73.049567352851, 45.523575102409097 ], [ -73.531738591762576, 45.51100716854603 ], [ -73.728014812633432, 45.408727241668942 ], [ -74.643408464928655, 45.383334609404756 ], [ -74.868644744259484, 45.582131651554505 ], [ -75.469072440840421, 45.646832081135699 ], [ -75.375371200920142, 45.86833844746144 ], [ -74.971705448147873, 46.074642200876895 ], [ -74.795053391201009, 46.304392580453282 ], [ -74.801652222472057, 46.489232185816775 ], [ -75.186024704276633, 46.69661231710478 ], [ -75.084613047653988, 46.917138557298642 ], [ -74.653008880655307, 46.78420056110707 ], [ -74.011417141987465, 46.878630073818897 ], [ -74.064068361265811, 46.828422474417721 ] ], [ [ -71.372540274414121, 47.014202034995947 ], [ -71.383426024591301, 46.974223171662118 ], [ -71.362069001982832, 46.934463295045077 ], [ -71.340855941048801, 47.013500674416662 ], [ -71.372540274414121, 47.014202034995947 ] ] ], [ [ [ -81.471133094916354, 46.607064059159029 ], [ -81.231534365518542, 46.822642508245224 ], [ -80.495246352736956, 47.200749490696467 ], [ -80.299419221819619, 47.593501909285749 ], [ -79.900188126501121, 48.0 ], [ -77.25128953253251, 48.0 ], [ -77.378993546514948, 47.827822630010417 ], [ -77.337647280197757, 47.770748406413873 ], [ -76.721369048118603, 48.0 ], [ -76.299190925728581, 48.0 ], [ -76.28544433898503, 47.728558118262583 ], [ -76.651480204547738, 47.486707223859355 ], [ -76.587722151156299, 47.161757924688516 ], [ -76.443771889960715, 47.275608729559281 ], [ -76.43858784785084, 47.547899658942185 ], [ -76.142428999498691, 47.701819530946636 ], [ -76.045936207290083, 47.815032622957233 ], [ -76.132164069316332, 47.521140197462216 ], [ -76.036747333922278, 47.453487880861076 ], [ -75.650296984718011, 47.715557373973695 ], [ -75.174625201092113, 47.861885382404523 ], [ -74.943219780268578, 47.809968155605929 ], [ -74.77780131777655, 47.666473329980249 ], [ -74.300989895267435, 47.678556784667933 ], [ -75.540702652205596, 46.597170493223757 ], [ -75.939089030234527, 46.497121899456147 ], [ -76.650799743313485, 45.942795595840153 ], [ -77.043430951277344, 45.817913859636974 ], [ -77.166409897398808, 45.835632280105699 ], [ -77.213130347687354, 46.013234825127142 ], [ -77.392242410159042, 46.08844621152349 ], [ -77.728788862815748, 46.155328906304021 ], [ -78.104887267033689, 46.104431927091809 ], [ -77.972699343200077, 46.361595442175997 ], [ -77.717970275807545, 46.484179545449706 ], [ -77.52544496171555, 46.724920939050151 ], [ -77.572048662915449, 46.875271704925296 ], [ -77.510941669722229, 47.109224416773486 ], [ -77.58398267456073, 47.21621875349274 ], [ -77.942219988061936, 47.128441254360439 ], [ -78.146111936916327, 46.943730904957363 ], [ -79.103045154909921, 46.630149843140828 ], [ -78.802775518974954, 46.465397558850327 ], [ -78.534579528422455, 46.449897573414319 ], [ -78.530876612165855, 46.358518064657005 ], [ -79.118101591115476, 46.19212619756604 ], [ -79.551769813725912, 46.233446004929249 ], [ -79.672887545423862, 46.163298319661749 ], [ -80.005744705653626, 46.435280640389294 ], [ -79.793436218506656, 46.64043314557324 ], [ -79.382253283662067, 46.66858588802836 ], [ -79.401230091295645, 46.740549308104164 ], [ -79.585478088442983, 46.74616559946287 ], [ -79.57925447951061, 46.849957466563865 ], [ -79.768156652607388, 46.837260284834315 ], [ -79.517944504834986, 46.924540691799564 ], [ -79.476111134221412, 47.070515144358467 ], [ -79.215883938293075, 46.855793795047646 ], [ -79.152562168509235, 46.984727772968427 ], [ -78.760499163005932, 47.069170268493167 ], [ -78.662922002448397, 47.224552818557811 ], [ -78.725919763586205, 47.448902376243723 ], [ -78.89029355560308, 47.402389679240343 ], [ -79.09545445865632, 47.155641835102642 ], [ -79.155242625746553, 47.157557160834358 ], [ -79.114041624221557, 47.281033326826616 ], [ -79.176925750622843, 47.347844850159788 ], [ -79.376284914017504, 47.290176672915152 ], [ -79.52733169759972, 47.13622045301156 ], [ -79.855478123516548, 47.269725721764701 ], [ -80.112064028332213, 47.201521763718461 ], [ -80.575053505914525, 46.865816697882337 ], [ -80.815240922530506, 46.894165020399441 ], [ -80.95845319915577, 46.754024248720157 ], [ -81.471133094916354, 46.607064059159029 ] ], [ [ -79.59779798748707, 47.823973486687123 ], [ -79.642527652629042, 47.730553982780123 ], [ -79.526895902323986, 47.664319686604301 ], [ -79.530571418935779, 47.761702993798167 ], [ -79.59779798748707, 47.823973486687123 ] ], [ [ -79.001050808647847, 47.337114409302615 ], [ -79.011010878549143, 47.382970550850303 ], [ -79.087372371038043, 47.350722534117722 ], [ -79.052036094090454, 47.330972426436404 ], [ -79.001050808647847, 47.337114409302615 ] ], [ [ -78.720251954563992, 46.816250298012903 ], [ -78.747526386733341, 46.825163041741064 ], [ -78.782466207449488, 46.817241899494093 ], [ -78.750438481450715, 46.79600799946968 ], [ -78.720251954563992, 46.816250298012903 ] ], [ [ -78.87389772040342, 46.776431108408985 ], [ -78.869084657630822, 46.795823981991248 ], [ -78.880208277589873, 46.809064849763047 ], [ -78.897110813313361, 46.790768922447853 ], [ -78.87389772040342, 46.776431108408985 ] ], [ [ -77.073211239107366, 46.275290322990088 ], [ -77.176588281324086, 46.236714249163299 ], [ -77.032398098993042, 46.108198252747229 ], [ -76.85772681683909, 46.301973118164938 ], [ -77.073211239107366, 46.275290322990088 ] ], [ [ -76.199535101363779, 47.402990176355615 ], [ -76.207799254931615, 47.416928945914151 ], [ -76.222783945922345, 47.408781750077765 ], [ -76.213613200189002, 47.398128941397601 ], [ -76.199535101363779, 47.402990176355615 ] ] ], [ [ [ -79.385164383729261, 36.250912073133748 ], [ -79.089763609003342, 36.566980620159541 ], [ -78.521233234026511, 36.970099371089134 ], [ -77.680109659433185, 37.368022424695198 ], [ -77.358156466947378, 37.713417970662874 ], [ -77.284630622305315, 37.93111145882682 ], [ -76.968178646627223, 38.144021431443946 ], [ -76.519938223270344, 38.62722659663018 ], [ -76.422974358979445, 38.973013083287242 ], [ -75.682649021535099, 39.741851860574968 ], [ -75.42343392443604, 40.151142620935275 ], [ -75.467749976979803, 40.414734266972914 ], [ -73.922933586915462, 41.524985693435042 ], [ -74.348640768856342, 41.671024964630476 ], [ -74.326424213806376, 41.764440413494356 ], [ -74.08953607433034, 41.875067611980739 ], [ -74.391034718377512, 41.903694583138531 ], [ -74.49762343387431, 42.039785677067414 ], [ -74.155713446118625, 42.040079893872075 ], [ -74.112481973264437, 42.176383527278006 ], [ -73.955891657074289, 42.03207913734235 ], [ -73.636720392332222, 42.035922392804252 ], [ -73.233046422454379, 42.331527964743827 ], [ -73.33827464715722, 42.399154907872742 ], [ -73.661199322390758, 42.312015121600609 ], [ -73.837507868892999, 42.404207109370645 ], [ -73.857359854473657, 42.52666241893553 ], [ -73.669243661865437, 42.752683316282059 ], [ -73.769432471631205, 43.083826644783869 ], [ -73.129499696154028, 43.596989154525886 ], [ -72.993040876635121, 44.235324435474354 ], [ -72.855463982177014, 44.43193469513011 ], [ -72.791495593546756, 44.392477354046719 ], [ -72.791623192056647, 44.169902299051898 ], [ -72.622966154864116, 44.133052907365823 ], [ -72.154212099408824, 44.338022070462216 ], [ -72.090442457353504, 44.024348614996654 ], [ -71.915345646584285, 44.151527642386839 ], [ -71.901030477474535, 44.444773888803979 ], [ -71.694894220991443, 44.246886530688869 ], [ -71.225194599451186, 44.398816082496239 ], [ -70.821768313656719, 44.854979348718018 ], [ -70.151570996903956, 45.277025038075124 ], [ -70.218376866199378, 45.456749585624948 ], [ -69.980161161008709, 45.676253246290344 ], [ -70.4232367382848, 45.758387428537048 ], [ -70.068244249772249, 45.928726930003847 ], [ -69.549340329592496, 46.310417601091444 ], [ -69.363190742059032, 46.560379299365252 ], [ -69.108283566633247, 46.673069902354143 ], [ -68.528784577046565, 47.456713602450861 ], [ -68.163839072914868, 47.600020843886909 ], [ -68.04279681232299, 47.749176612210931 ], [ -67.546136626693141, 48.0 ], [ -61.718480340713015, 48.0 ], [ -62.511209536690728, 45.834137684206837 ], [ -64.273442436319328, 40.447533070794634 ], [ -64.631577336824591, 40.004021384379428 ], [ -65.588229420451341, 39.323480176069324 ], [ -66.531898891920264, 37.832151854124845 ], [ -67.063137313436243, 37.331839436940527 ], [ -67.655992578094981, 36.983640971253863 ], [ -68.148990899010755, 36.503453462307505 ], [ -68.258197746029111, 36.340881996207202 ], [ -68.079358060326172, 36.243211764811122 ], [ -68.137072763996798, 36.166611967268523 ], [ -68.721101924516219, 36.0 ], [ -74.414042221519892, 36.0 ], [ -73.68659392776749, 36.613594772380907 ], [ -73.643698519870782, 36.837896766722452 ], [ -73.828148440897792, 36.939345042839534 ], [ -73.643509512054322, 37.120127487193827 ], [ -73.532884226425892, 37.615263858140565 ], [ -73.145122336526583, 38.055364964621447 ], [ -72.972946132557922, 38.434593026646894 ], [ -73.014546664197155, 38.496694145718322 ], [ -73.401989256998547, 38.387158942731048 ], [ -73.831708972890738, 38.38731848875733 ], [ -73.942418377506101, 38.41133332637196 ], [ -74.013177657522817, 38.55386432967515 ], [ -74.472152173883671, 38.419771381843873 ], [ -75.529305714786858, 37.835181886834675 ], [ -76.068602052842436, 37.6622744450097 ], [ -77.139641787138714, 36.871140637830251 ], [ -77.814532748387592, 36.45671077807998 ], [ -78.546648763029964, 36.126631791823797 ], [ -78.783254956950657, 36.087506627928576 ], [ -79.385164383729261, 36.250912073133748 ] ], [ [ -67.146927826557885, 46.924242178034149 ], [ -67.215579389776963, 46.954401542697099 ], [ -67.326798971695155, 46.876450985924293 ], [ -67.220413275452245, 46.850311087186981 ], [ -67.146927826557885, 46.924242178034149 ] ], [ [ -69.347613415826459, 46.439780751680416 ], [ -69.383378587551761, 46.457787990323538 ], [ -69.387047826895639, 46.415111805665333 ], [ -69.365659470108426, 46.40888923275196 ], [ -69.347613415826459, 46.439780751680416 ] ], [ [ -69.25107764411797, 46.210641999228926 ], [ -69.059319125277398, 46.050854529313142 ], [ -68.906256850373325, 46.168273978960997 ], [ -69.08530904947304, 46.253213553162993 ], [ -69.25107764411797, 46.210641999228926 ] ], [ [ -63.489416962322935, 45.817125092149354 ], [ -63.409151621649983, 45.855580655922608 ], [ -63.590209749580254, 45.81913099759754 ], [ -63.55871616691752, 45.804705491565244 ], [ -63.489416962322935, 45.817125092149354 ] ], [ [ -69.58145768832162, 45.650838786580778 ], [ -69.519826540562349, 45.66119617966001 ], [ -69.514495896368487, 45.704211155120788 ], [ -69.64619533634567, 45.679334966635452 ], [ -69.58145768832162, 45.650838786580778 ] ], [ [ -69.916500719132841, 45.326944754596809 ], [ -69.844667809571717, 45.363928107496235 ], [ -69.89215784840593, 45.436042424818083 ], [ -70.019046099797606, 45.338017732832157 ], [ -69.916500719132841, 45.326944754596809 ] ], [ [ -72.462879468812389, 44.028521582604981 ], [ -72.561079650905128, 44.034705585394477 ], [ -72.614090023435779, 43.876706331032381 ], [ -72.463696993921076, 43.952019115090138 ], [ -72.462879468812389, 44.028521582604981 ] ], [ [ -72.129107940878725, 43.996636815536647 ], [ -72.145619477456876, 44.005323616291889 ], [ -72.151941693454376, 43.986323961381743 ], [ -72.130060342710635, 43.984733544517496 ], [ -72.129107940878725, 43.996636815536647 ] ], [ [ -72.932657242337825, 43.467938065989017 ], [ -72.932248263046858, 43.489094713350369 ], [ -72.972450626794966, 43.484275287874311 ], [ -72.962780847258273, 43.471887096112653 ], [ -72.932657242337825, 43.467938065989017 ] ], [ [ -73.766921865751442, 41.869957068763767 ], [ -73.703134321791481, 41.930826435891333 ], [ -73.714202396923042, 41.981685608504108 ], [ -73.815979727782178, 41.917105228523553 ], [ -73.766921865751442, 41.869957068763767 ] ] ] ] } },
{ "type": "Feature", "properties": { "PRODUCT": "24-hour QPF", "VALID_TIME": "12Z 03/24/25 - 12Z 03/25/25", "QPF": 1.0, "UNITS": "Inches", "ISSUE_TIME": "2025-03-24 09:39:37", "START_TIME": "2025-03-24 12:00:00", "END_TIME": "2025-03-25 12:00:00", "InPoly_FID": 5, "fill": "deepskyblue", "color": "deepskyblue" }, "geometry": { "type": "MultiPolygon", "coordinates": [ [ [ [ -67.591642873506373, 38.266123697067158 ], [ -67.968722218651664, 38.103373760299633 ], [ -68.772640167430296, 37.916204362285555 ], [ -68.516659060772056, 38.144673083290456 ], [ -67.22495702067495, 38.62032226642939 ], [ -67.591642873506373, 38.266123697067158 ] ] ] ] } },
{ "type": "Feature", "properties": { "PRODUCT": "24-hour QPF", "VALID_TIME": "12Z 03/24/25 - 12Z 03/25/25", "QPF": 0.75, "UNITS": "Inches", "ISSUE_TIME": "2025-03-24 09:39:37", "START_TIME": "2025-03-24 12:00:00", "END_TIME": "2025-03-25 12:00:00", "InPoly_FID": 4, "fill": "dodgerblue", "color": "dodgerblue" }, "geometry": { "type": "MultiPolygon", "coordinates": [ [ [ [ -72.053228727705658, 38.066814981928623 ], [ -71.740653156327781, 38.387336756664624 ], [ -71.725681484528295, 38.631442327832971 ], [ -70.993422977246425, 39.158759692558604 ], [ -70.512589407693667, 39.585237662346465 ], [ -70.32245550208637, 39.856548999680513 ], [ -69.218644613507507, 40.715196850920456 ], [ -68.423096807931614, 41.144996109973576 ], [ -67.802567131307654, 41.309155110278169 ], [ -67.412443486259974, 41.597808059499499 ], [ -67.402241797228982, 41.731250573947044 ], [ -67.026586263037018, 42.126096051709155 ], [ -67.146412928743317, 42.186012820301102 ], [ -66.885116230546927, 42.547091015684785 ], [ -66.970378417135663, 42.645097888879604 ], [ -66.97479814082017, 42.88458574349891 ], [ -66.484941108816656, 43.215999427448288 ], [ -66.460372241010319, 43.00555099680286 ], [ -66.821912239663178, 42.80451644760506 ], [ -66.857340297421601, 42.64483117637031 ], [ -66.495159880632315, 42.639708200748601 ], [ -66.361683336010458, 43.079276673033476 ], [ -66.193011561377773, 43.194844233291938 ], [ -66.232266250458238, 43.298298985951305 ], [ -66.388529080353067, 43.292219091863828 ], [ -66.378061835274707, 43.388615423051839 ], [ -65.915627512307495, 44.148431250101467 ], [ -65.674717522706729, 44.281818069494747 ], [ -65.201008766254603, 44.387308999530312 ], [ -65.046374085280476, 44.389942205871144 ], [ -64.974933133987932, 44.285637579258641 ], [ -64.440523551478705, 44.494397424260747 ], [ -64.225676274910683, 44.453290090212825 ], [ -64.434231617115657, 44.136030312991942 ], [ -64.386951782260141, 43.981729667194536 ], [ -64.6007202588452, 43.730872975881184 ], [ -64.969591077200761, 43.482293741311786 ], [ -65.273888587567313, 43.463156192258616 ], [ -65.515706068040629, 43.325390204631155 ], [ -65.625096899123349, 43.122720918612494 ], [ -66.626050906590947, 42.182153045139742 ], [ -66.71172395358461, 42.00613885900048 ], [ -66.846493014767063, 42.017908985027006 ], [ -67.062153483139411, 41.882259880347156 ], [ -67.204625401725409, 41.674851716013478 ], [ -68.133710160214832, 40.919042712246601 ], [ -68.056042226105845, 40.87881720803869 ], [ -67.778597366958749, 41.002388911749051 ], [ -67.938870621501266, 40.781003817677586 ], [ -67.879258096491796, 40.795275508914877 ], [ -66.574063967673567, 41.493123284672457 ], [ -66.3413063888529, 41.522254778628913 ], [ -67.306557387506629, 40.78347579509262 ], [ -66.620652399249195, 41.057751228298081 ], [ -66.290872982208114, 41.091283035796863 ], [ -66.280463129663502, 41.037161075656051 ], [ -67.331131228667431, 40.259561551165952 ], [ -67.410165683985767, 40.141775419199064 ], [ -67.293085817082414, 40.065575211020224 ], [ -67.660318599778122, 39.742964833916261 ], [ -67.784085539980936, 39.511425100570179 ], [ -68.542113018678336, 39.039974727232249 ], [ -68.239223638650174, 39.100168761797327 ], [ -68.247853753472896, 38.992757092414607 ], [ -69.167227385629957, 38.269272215670199 ], [ -69.207804058785769, 38.049948497570888 ], [ -69.009085001684838, 38.058291075670823 ], [ -67.145143206455188, 38.89892197684491 ], [ -66.521943718980353, 39.054142785210715 ], [ -66.807885416700174, 38.673820489294748 ], [ -67.200743662150813, 38.313065840914973 ], [ -67.609549116347154, 38.074150333012234 ], [ -67.972063013207148, 37.698894983155476 ], [ -67.94658794310088, 37.561584707872747 ], [ -70.561807340401018, 36.277308765886389 ], [ -70.77052824079945, 36.317732813391821 ], [ -71.634760403469258, 36.0 ], [ -71.987459776960719, 36.0 ], [ -70.773008716889791, 36.691840886024963 ], [ -70.090700403827668, 36.96116213533314 ], [ -68.612454632856995, 37.755113108340758 ], [ -68.748178945026197, 37.757184026048272 ], [ -69.215375792354848, 37.472817615910678 ], [ -69.436570787007355, 37.42230621804611 ], [ -69.331271011766688, 37.635834962492915 ], [ -69.5285894896505, 37.645929161587723 ], [ -69.225238761147395, 37.93393337870188 ], [ -69.992033157122108, 37.610969273465983 ], [ -70.066019058143112, 37.619291317909912 ], [ -69.590612325324869, 37.910149641331905 ], [ -69.757813551209352, 37.92364442755612 ], [ -70.884507685351608, 37.569841541355871 ], [ -69.413099096157367, 38.444385891510038 ], [ -69.409567550054575, 38.498279323272186 ], [ -69.608802857385498, 38.465971695390778 ], [ -69.257584948684439, 38.822371294142947 ], [ -69.610962813851657, 38.802055020001127 ], [ -69.265199144996515, 39.02229564582715 ], [ -69.268922229293977, 39.091439338981161 ], [ -69.497960479703025, 39.011845845003663 ], [ -69.936522820793755, 38.627344547342751 ], [ -71.057319975167189, 37.997519192491637 ], [ -71.150229477242888, 38.006629662886333 ], [ -71.133536333074503, 38.12089074596193 ], [ -70.631481417829249, 38.544484716463153 ], [ -70.9950709175518, 38.450053030939593 ], [ -71.760322844161223, 37.957763806723861 ], [ -71.904029941397226, 37.937229143020744 ], [ -72.053228727705658, 38.066814981928623 ] ], [ [ -70.058227384297339, 36.591927846012268 ], [ -69.711795266362913, 36.864999736366059 ], [ -69.466245536758336, 37.020151577768608 ], [ -70.656065731428271, 36.381720197651156 ], [ -70.058227384297339, 36.591927846012268 ] ], [ [ -68.233355157750296, 40.571092380956266 ], [ -68.31807213042454, 40.527664870939802 ], [ -68.322568250288924, 40.489904864033669 ], [ -68.256254749514568, 40.505542360571134 ], [ -68.233355157750296, 40.571092380956266 ] ], [ [ -68.861531240197266, 40.807325465506828 ], [ -68.800321982676252, 40.838103639015721 ], [ -68.779359654451341, 40.877378412809016 ], [ -68.838458738024656, 40.874377569753321 ], [ -68.861531240197266, 40.807325465506828 ] ], [ [ -68.682987065728724, 38.932459490980477 ], [ -68.642719968947603, 38.938147500304531 ], [ -68.634606670802583, 38.966068844434353 ], [ -68.694452796531493, 38.937566344286765 ], [ -68.682987065728724, 38.932459490980477 ] ], [ [ -68.817493501156193, 39.246150181433073 ], [ -68.805671259610619, 39.247062720397139 ], [ -68.80279516602927, 39.274051956351137 ], [ -68.814549106135189, 39.269995634732332 ], [ -68.817493501156193, 39.246150181433073 ] ], [ [ -66.55116012894652, 43.071507090783918 ], [ -66.571228634275926, 43.0554292103782 ], [ -66.530795858899694, 43.053795107535059 ], [ -66.532119595361749, 43.067253422479993 ], [ -66.55116012894652, 43.071507090783918 ] ], [ [ -67.359931794087814, 40.759350487605872 ], [ -67.348775909464877, 40.751113222935764 ], [ -67.34010519009486, 40.768963887942668 ], [ -67.349802685540482, 40.770128452439842 ], [ -67.359931794087814, 40.759350487605872 ] ], [ [ -68.028563529639115, 40.675736816840157 ], [ -68.021064867120657, 40.673920052282021 ], [ -68.023396993681132, 40.685436750611423 ], [ -68.025861720912943, 40.682957995362607 ], [ -68.028563529639115, 40.675736816840157 ] ], [ [ -68.475700407905691, 37.814820689003703 ], [ -68.472906337381346, 37.812271166298814 ], [ -68.467595409944096, 37.815009370334117 ], [ -68.471997367854016, 37.818219339536192 ], [ -68.475700407905691, 37.814820689003703 ] ], [ [ -68.538273395697331, 37.786647783314677 ], [ -68.529489825026232, 37.781986999652048 ], [ -68.524133095663757, 37.787640624590871 ], [ -68.528468489241575, 37.791423646168546 ], [ -68.538273395697331, 37.786647783314677 ] ], [ [ -68.173692680622324, 40.619302135642265 ], [ -68.165057262790825, 40.609794458097582 ], [ -68.154499980494407, 40.619573601199477 ], [ -68.163902482412098, 40.624799993706368 ], [ -68.173692680622324, 40.619302135642265 ] ], [ [ -69.183701944521516, 37.954819879629511 ], [ -69.177788533379868, 37.94937923213147 ], [ -69.169458064823914, 37.959646036706701 ], [ -69.174407864869693, 37.964655382176076 ], [ -69.183701944521516, 37.954819879629511 ] ], [ [ -68.449636710711317, 40.395271512302685 ], [ -68.439995255428883, 40.395014530082484 ], [ -68.443452423621807, 40.404727422425168 ], [ -68.447148544119045, 40.402611443607917 ], [ -68.449636710711317, 40.395271512302685 ] ], [ [ -70.581313223034087, 38.572120913064133 ], [ -70.578306304678108, 38.568151600223175 ], [ -70.571407706105617, 38.572825002275373 ], [ -70.576640456963688, 38.577139567139319 ], [ -70.581313223034087, 38.572120913064133 ] ], [ [ -66.266757325403944, 43.059921852697236 ], [ -66.256637632744798, 43.049802160038077 ], [ -66.24651794008571, 43.059921852697236 ], [ -66.256637632744798, 43.070041545356183 ], [ -66.266757325403944, 43.059921852697236 ] ], [ [ -68.533358081895486, 40.366770883408705 ], [ -68.52881450921879, 40.357592894148659 ], [ -68.519099848328352, 40.367123575959759 ], [ -68.526652574848796, 40.369873903356506 ], [ -68.533358081895486, 40.366770883408705 ] ], [ [ -68.678903193713438, 40.984324628826023 ], [ -68.670233978941724, 40.974719388129138 ], [ -68.659162654958664, 40.985790712112305 ], [ -68.668767895655435, 40.994459926883984 ], [ -68.678903193713438, 40.984324628826023 ] ], [ [ -69.234252771401003, 38.263011946671952 ], [ -69.228735186406155, 38.253560254545562 ], [ -69.219759355545719, 38.261730128956742 ], [ -69.226268358724909, 38.265121981484832 ], [ -69.234252771401003, 38.263011946671952 ] ], [ [ -68.763716016782169, 40.900030590109274 ], [ -68.757156893689128, 40.888939179119149 ], [ -68.742929094880381, 40.900258521438509 ], [ -68.752880525512069, 40.910209952070161 ], [ -68.763716016782169, 40.900030590109274 ] ], [ [ -67.41608898961212, 40.731394716788238 ], [ -67.407652656772967, 40.726594024214734 ], [ -67.397113368410345, 40.732870234979728 ], [ -67.404567460999061, 40.737171059467606 ], [ -67.41608898961212, 40.731394716788238 ] ], [ [ -66.154571967972885, 43.172098284142017 ], [ -66.144722491662989, 43.162375799384911 ], [ -66.134671486606479, 43.173389828068792 ], [ -66.144427689850659, 43.182242562264392 ], [ -66.154571967972885, 43.172098284142017 ] ], [ [ -66.014322654272419, 43.452598007790634 ], [ -66.004202961613217, 43.442478315131474 ], [ -65.994083268954213, 43.452598007790634 ], [ -66.004202961613217, 43.462717700449765 ], [ -66.014322654272419, 43.452598007790634 ] ], [ [ -69.288744538966839, 38.207668082632729 ], [ -69.283807974590076, 38.20489649892793 ], [ -69.275936507883969, 38.20774848410516 ], [ -69.284506337424148, 38.212563191399092 ], [ -69.288744538966839, 38.207668082632729 ] ] ], [ [ [ -70.484760112049926, 42.712547222359163 ], [ -70.721985010755162, 42.547403549054309 ], [ -70.876938567493241, 42.547916626835786 ], [ -70.850987714003878, 43.114553240735837 ], [ -70.732733284614184, 43.328484530626319 ], [ -69.325263490098763, 44.009968286271537 ], [ -69.131270336095383, 44.247295064465625 ], [ -68.835885079865463, 44.217758429181494 ], [ -68.396732043516408, 44.3980439852118 ], [ -68.03495282277089, 44.657745718488982 ], [ -66.874407922577063, 45.056660250982333 ], [ -66.519700816944379, 45.282061070779235 ], [ -66.032322328827803, 45.234401991551991 ], [ -64.914912992542028, 45.671587479993576 ], [ -65.256222330444345, 45.454315115075538 ], [ -65.36539836612863, 45.261376253436751 ], [ -66.409776101401874, 44.750621873370179 ], [ -66.525514584212615, 44.574648923552914 ], [ -66.553941085281181, 44.116728006831224 ], [ -66.639049806986066, 43.948400017146774 ], [ -67.035630672843638, 43.786547490133607 ], [ -67.169985032461526, 43.566119216919361 ], [ -67.778611210249892, 43.215118727901405 ], [ -67.993075312645701, 43.125897399125456 ], [ -68.250292000732173, 43.153669575369868 ], [ -68.993194806305311, 42.823118383720249 ], [ -69.433363361224309, 42.820923887278482 ], [ -69.740922364991917, 42.651007723231004 ], [ -70.036392185327969, 42.722877458174914 ], [ -70.093311796608958, 42.852540637295732 ], [ -70.231470360906187, 42.901470505281175 ], [ -70.369727924999296, 42.875390871326552 ], [ -70.484760112049926, 42.712547222359163 ] ] ], [ [ [ -70.978700289720436, 41.973624641329423 ], [ -70.675010551419518, 41.962573820997953 ], [ -70.618768514398695, 41.867590096895825 ], [ -70.907603098852434, 41.598981400808647 ], [ -71.916660189747077, 41.185323145960425 ], [ -72.081243632079904, 40.990693319999224 ], [ -72.654587511893453, 40.604803294902091 ], [ -73.191791870231441, 40.410314782200821 ], [ -73.338307193848976, 40.455977941605951 ], [ -73.344238526349685, 40.61599175247509 ], [ -73.63905548783093, 40.681570233832403 ], [ -73.481091078090557, 40.867159576378967 ], [ -72.855141520589143, 41.086576404504925 ], [ -72.890951228012838, 41.198719602810904 ], [ -73.261188011963952, 41.162088026924401 ], [ -73.102004906770034, 41.310796455464882 ], [ -72.135452448674883, 41.657421356040814 ], [ -71.727706592660553, 41.910711810823038 ], [ -71.118538909728571, 42.14658801000099 ], [ -70.96001775130577, 42.146713996999836 ], [ -70.978700289720436, 41.973624641329423 ] ], [ [ -71.057121140259085, 41.886451638803941 ], [ -71.099937416408395, 41.884655347402415 ], [ -71.110286241322058, 41.878424177690611 ], [ -71.061965329827018, 41.871208617896592 ], [ -71.057121140259085, 41.886451638803941 ] ] ], [ [ [ -62.796321023105726, 45.143838410190575 ], [ -62.899990671481788, 44.794861545934111 ], [ -63.57796662879236, 44.601627893912081 ], [ -64.318664457129927, 44.633106708828052 ], [ -64.16772870923532, 44.804668864845787 ], [ -63.214704208805905, 44.957921756114743 ], [ -62.796321023105726, 45.143838410190575 ] ] ] ] } },
{ "type": "Feature", "properties": { "PRODUCT": "24-hour QPF", "VALID_TIME": "12Z 03/24/25 - 12Z 03/25/25", "QPF": 0.1, "UNITS": "Inches", "ISSUE_TIME": "2025-03-24 09:39:37", "START_TIME": "2025-03-24 12:00:00", "END_TIME": "2025-03-25 12:00:00", "InPoly_FID": 1, "fill": "green", "color": "green" }, "geometry": { "type": "MultiPolygon", "coordinates": [ [ [ [ -78.777616466726499, 41.963085064624067 ], [ -79.234796890464111, 41.924679933032564 ], [ -80.035131055353872, 41.701192668706767 ], [ -80.343930567541634, 41.732371203568221 ], [ -80.425122128983048, 41.841730071985296 ], [ -80.138914603725937, 42.075530606852055 ], [ -79.083858155929136, 42.515459935627575 ], [ -78.949430228622134, 42.722091472143802 ], [ -78.550601946222798, 42.955407731082005 ], [ -78.204159602883351, 42.932750173681598 ], [ -78.127434217714949, 42.76702213396436 ], [ -78.22073809578643, 42.545867915172209 ], [ -78.777616466726499, 41.963085064624067 ] ] ], [ [ [ -83.42277139498384, 46.977456134593012 ], [ -83.154231250072087, 47.024237003135227 ], [ -83.021613860391312, 47.160542105134084 ], [ -82.839085269869258, 47.0212995448382 ], [ -82.79166070257935, 46.782842253866988 ], [ -83.145444706408057, 46.560608243375782 ], [ -83.522450622797976, 46.62119835751821 ], [ -83.622338546386743, 46.896132681278289 ], [ -83.42277139498384, 46.977456134593012 ] ], [ [ -83.063636402497934, 46.965307948503096 ], [ -83.083677573960813, 46.963334969932987 ], [ -83.091305235048537, 46.957110030903266 ], [ -83.052237597187343, 46.958075428838015 ], [ -83.063636402497934, 46.965307948503096 ] ] ], [ [ [ -83.898921094532852, 47.588628555963169 ], [ -83.809994358053132, 47.709866649326443 ], [ -83.868646522219194, 47.839818827077238 ], [ -83.780089079755442, 48.0 ], [ -82.426528809446154, 48.0 ], [ -82.490189579585376, 47.556798000927074 ], [ -82.692543201207741, 47.423553035544217 ], [ -82.550234015687238, 47.396730188947117 ], [ -82.59815616077816, 47.295044976544489 ], [ -82.797486205923633, 47.311975240165282 ], [ -83.015489568988357, 47.499134635954761 ], [ -82.854401502227518, 47.648263320296053 ], [ -82.885784492560219, 47.702725728309758 ], [ -83.410012802149083, 47.571528206261746 ], [ -83.183806064398311, 47.405196846457329 ], [ -83.114063455364146, 47.26170409197033 ], [ -83.165533279337353, 47.222198958215415 ], [ -83.680443899366423, 47.399517396610634 ], [ -83.898921094532852, 47.588628555963169 ] ], [ [ -82.812528253875769, 47.576045440644634 ], [ -82.796628791385558, 47.579630677913485 ], [ -82.805385795018367, 47.610173081822325 ], [ -82.813480289683582, 47.601844216637346 ], [ -82.812528253875769, 47.576045440644634 ] ] ], [ [ [ -86.0, 42.995998244478372 ], [ -86.0, 44.912019266943744 ], [ -85.717424281405442, 45.12104615565562 ], [ -85.451114418295731, 45.094064692931283 ], [ -85.156791605148442, 45.438487248887498 ], [ -85.10220562758758, 45.691128283843284 ], [ -84.690969011310813, 45.755886408530955 ], [ -84.795265036552166, 45.96818874701313 ], [ -84.975079116108304, 46.085461759152906 ], [ -85.671702405941232, 46.28640541287956 ], [ -85.73367082824609, 46.271762458870455 ], [ -85.67302053686825, 46.03294256754549 ], [ -86.0, 46.055177006038825 ], [ -86.0, 47.240515219360404 ], [ -85.660483966861534, 47.352972572226463 ], [ -85.880853191721371, 47.437920314071278 ], [ -86.0, 47.403669141298167 ], [ -86.0, 47.748358991256509 ], [ -85.843565964197865, 47.890959845420582 ], [ -85.360292139370699, 47.802486969797883 ], [ -85.12615775097936, 47.363166432584876 ], [ -85.068409437845219, 46.878747056731356 ], [ -84.895532010893533, 46.62715802981927 ], [ -84.715265674870977, 46.569832414234554 ], [ -84.56506800238634, 46.685563354365343 ], [ -84.342564280716942, 46.7054992215119 ], [ -84.366928888957034, 46.98791600272142 ], [ -84.212756305658957, 46.99517313233423 ], [ -84.057616805471184, 46.706040720402996 ], [ -84.132554270962771, 46.636017148772453 ], [ -84.298881983116985, 46.64714424640988 ], [ -84.353746885410374, 46.310813853176853 ], [ -84.042517182921642, 46.096823346020642 ], [ -84.053278113494116, 46.238632189224234 ], [ -83.903459269629536, 46.303467407394976 ], [ -83.782479408497863, 46.089495723948573 ], [ -83.572641491211812, 46.155142278993026 ], [ -83.277017355466569, 45.971175894651878 ], [ -83.582819492925239, 45.906521292723539 ], [ -83.94397696896192, 46.01738022761549 ], [ -84.048442096425561, 45.978920732905578 ], [ -84.10300675645658, 45.757342491862573 ], [ -84.342563260885754, 45.735503499187189 ], [ -83.70826527132516, 45.319710343657505 ], [ -82.96311870526398, 45.19998453136111 ], [ -82.835212001332764, 45.267045099451821 ], [ -82.940205618094751, 45.363035081603812 ], [ -82.856425587470824, 45.433449334019599 ], [ -82.493221691527822, 45.391101910924476 ], [ -82.222245634828141, 45.523605870014933 ], [ -82.43225447816161, 45.661787545059212 ], [ -82.938687541796583, 45.781269968434344 ], [ -83.136307783277516, 46.02972885010638 ], [ -83.558730914500075, 46.237790457064023 ], [ -83.443899554520783, 46.330214457331408 ], [ -83.038994034147322, 46.16079081014783 ], [ -82.408984931209545, 46.23114169003702 ], [ -82.384559380411019, 46.493930609310212 ], [ -82.467373770283245, 46.53967253875669 ], [ -82.472182427277176, 46.654937663342537 ], [ -82.308801800662536, 46.724335519968349 ], [ -82.276153147649609, 46.842880615048387 ], [ -82.472971923215653, 47.050580994017707 ], [ -82.479292990778845, 47.155342669328775 ], [ -82.205545674093571, 47.152285574219945 ], [ -82.121397341414138, 47.306838846835376 ], [ -81.555214688906744, 47.595306759599339 ], [ -81.779809037557015, 47.757549630511107 ], [ -82.039168833774625, 47.787976333041399 ], [ -81.84294731596583, 47.961102926159185 ], [ -81.407677422375116, 47.818534342885641 ], [ -81.186651529644337, 47.892940796480616 ], [ -81.13923257609629, 48.0 ], [ -74.133518660828884, 48.0 ], [ -74.142180595458058, 47.924683610959903 ], [ -74.067976270827373, 48.0 ], [ -72.052450664309163, 48.0 ], [ -72.171185823666804, 47.839583695731051 ], [ -71.874197301264417, 47.643064110220564 ], [ -71.619522923444094, 47.707643406518059 ], [ -71.168379037062891, 47.672168312917336 ], [ -71.316074407108147, 47.538236079331625 ], [ -71.780767874237995, 47.564956581281251 ], [ -72.161219920762676, 47.456448171146235 ], [ -72.21374426098879, 47.398950648353775 ], [ -72.142785983486306, 47.359956182931569 ], [ -71.096950558921094, 47.486991275626906 ], [ -70.869581225293246, 47.4415728979709 ], [ -70.297518298930299, 47.674008464319229 ], [ -70.033929752855784, 47.574214386784604 ], [ -69.994531372225026, 47.653508294172468 ], [ -70.282025763478146, 47.945532848462221 ], [ -70.347386933959797, 47.903937617427175 ], [ -70.456136493704207, 47.70805377256363 ], [ -70.578723490996254, 47.702094859290355 ], [ -70.592448291155677, 47.761513921230517 ], [ -70.386993440801248, 48.0 ], [ -69.452838741625925, 48.0 ], [ -69.750887830408999, 47.798867775027873 ], [ -69.846352782055192, 47.634803521565345 ], [ -69.739408876618313, 47.55231406034568 ], [ -69.803957805508276, 47.452711569883093 ], [ -70.157057773297538, 47.260535013779929 ], [ -69.86179254079309, 47.175232548743168 ], [ -69.631973506072427, 47.317789116174822 ], [ -69.427503166337999, 47.60229638137298 ], [ -69.193725162186468, 47.70846619535871 ], [ -69.011794763366183, 48.0 ], [ -61.708449124479785, 48.0 ], [ -62.691940328483327, 45.266632381679131 ], [ -64.38122601536827, 40.066831675541437 ], [ -64.842811584686842, 39.360380713998779 ], [ -65.528346145558146, 38.715440633878188 ], [ -65.905391170765881, 38.124352738488142 ], [ -66.325095766556331, 37.861700238275432 ], [ -66.881583691434173, 37.087007140667083 ], [ -67.207525964451634, 36.828531976069883 ], [ -67.473736507333911, 36.476426796059854 ], [ -68.151682787024626, 36.0 ], [ -74.654691383713086, 36.0 ], [ -74.246547676134298, 36.405859633715181 ], [ -74.525789668858067, 36.446751491488214 ], [ -74.518362704075514, 36.659264661634893 ], [ -75.860839899441771, 36.046577385338139 ], [ -76.008291313093594, 36.048653195988265 ], [ -76.000755899065439, 36.132623914362227 ], [ -75.696294632791023, 36.384091301672299 ], [ -75.279871829521255, 36.619952382996132 ], [ -75.596300760071983, 36.713739918262661 ], [ -74.936435039345554, 37.598811583288011 ], [ -75.9028685164688, 37.350263223568959 ], [ -77.643178771324017, 36.0 ], [ -80.559892815119284, 36.0 ], [ -80.445102470302743, 36.343743534636474 ], [ -80.119491020993792, 36.51144967096559 ], [ -79.885128986313646, 36.787503255870604 ], [ -78.766403709563519, 37.459988835516413 ], [ -78.293113602310882, 37.623486664478037 ], [ -77.319212820415316, 38.247505062208916 ], [ -77.363963068340865, 38.433067485975755 ], [ -76.239592740812327, 39.756976670437041 ], [ -76.106253919482754, 40.242449192875995 ], [ -76.121537415619173, 40.534614924539198 ], [ -75.905299639366831, 40.815853801611695 ], [ -75.450914939872519, 41.106607885445612 ], [ -75.323326546482917, 41.273554198067814 ], [ -74.958270609201236, 41.385261617229901 ], [ -74.849853135813532, 41.509914176498114 ], [ -74.920760526976721, 41.621966505449905 ], [ -75.147730186598778, 41.712467166126885 ], [ -75.033934936448134, 41.965068218123804 ], [ -74.612888546769, 42.266041977355428 ], [ -74.81354674488631, 42.340331020859992 ], [ -74.713271892483817, 42.557516453221808 ], [ -74.542680911794605, 42.489767921752218 ], [ -74.616479934501342, 42.749959655613679 ], [ -74.777368097259853, 42.573209758723465 ], [ -75.11783231600856, 42.626929614510175 ], [ -75.407216548904557, 42.758849097907614 ], [ -75.390513130276702, 42.853677725246882 ], [ -75.234767159676665, 42.950744378450338 ], [ -76.198696581581942, 42.871712263710037 ], [ -76.455186120443045, 42.964556226688558 ], [ -76.534381553865558, 43.086615545870814 ], [ -76.866046290403915, 43.155885126797216 ], [ -76.532231616595766, 43.428508041812734 ], [ -76.485741982706315, 43.828703629169183 ], [ -76.569235513608021, 43.891678436910411 ], [ -76.797914662131916, 43.892346964141154 ], [ -76.943082845496861, 43.793777831581735 ], [ -77.281740262403162, 44.013254646584699 ], [ -77.299385685800701, 44.66127925563319 ], [ -78.303391158974762, 44.395066401493295 ], [ -78.699415400200508, 44.16533276999138 ], [ -79.091328165862137, 44.089952407277849 ], [ -79.341595357539688, 44.24268450418657 ], [ -79.818123403672075, 44.264398428145 ], [ -80.13948397980181, 44.572061976079397 ], [ -80.354197622821971, 44.617055919595089 ], [ -80.398584249663372, 44.561027717255399 ], [ -80.183291290360728, 44.420346795668138 ], [ -80.100900560312596, 44.076886698662292 ], [ -79.935991597034558, 43.831261456650964 ], [ -80.084629577093267, 43.490090660355747 ], [ -80.67804003102259, 43.276754705865017 ], [ -80.899029107307399, 43.072558119761482 ], [ -81.262765694181383, 43.067854811150653 ], [ -81.524568564387721, 43.182396265675152 ], [ -81.463281969387367, 43.291946226537164 ], [ -81.693393827862849, 43.494033963596621 ], [ -81.687227949110536, 43.785575354419109 ], [ -81.874187221463046, 44.106424592221231 ], [ -82.640269785322289, 44.392384004418318 ], [ -82.543030884068003, 44.522118398745135 ], [ -82.197588229812936, 44.569034010910912 ], [ -82.206002715852605, 44.691151294096983 ], [ -83.066954845089981, 45.131169202496778 ], [ -83.478136224107402, 45.148233841918341 ], [ -83.82514088654267, 45.297375076298806 ], [ -84.186843580167078, 44.928444792193432 ], [ -84.244647968728714, 44.749932265461723 ], [ -84.476660217894675, 44.760035230441588 ], [ -84.659937180156703, 44.486218206405169 ], [ -84.625004181697591, 44.383010154894805 ], [ -84.464648526408325, 44.313499881214625 ], [ -84.538042911750949, 44.143606930015835 ], [ -83.974251271478977, 43.863031890209641 ], [ -84.161954624006682, 43.82614506154539 ], [ -85.11033188271017, 44.016182377814516 ], [ -85.362505353838969, 43.833025893230456 ], [ -85.313618474512964, 43.670377654705078 ], [ -85.369560915703687, 43.464810068330053 ], [ -85.54837748523272, 43.262611506016242 ], [ -85.461207328855096, 42.859606754947833 ], [ -85.606830673496745, 42.828052361927007 ], [ -86.0, 42.995998244478372 ] ], [ [ -84.692305672768555, 45.892976658246255 ], [ -84.685265747416281, 45.888426748795496 ], [ -84.67685126947049, 45.89293141335412 ], [ -84.685272821483466, 45.900730559867498 ], [ -84.692305672768555, 45.892976658246255 ] ], [ [ -84.523596762680427, 45.724510048000354 ], [ -84.516078844962692, 45.7169921293833 ], [ -84.508560926345638, 45.724510048000354 ], [ -84.516078844962692, 45.732027966617409 ], [ -84.523596762680427, 45.724510048000354 ] ], [ [ -84.473459797831367, 45.562160788189885 ], [ -84.536211371357638, 45.557536486819458 ], [ -84.545346319576936, 45.525167044523528 ], [ -84.412671029744217, 45.553808081078159 ], [ -84.473459797831367, 45.562160788189885 ] ], [ [ -84.668842631282359, 45.546426404355145 ], [ -84.7275608659412, 45.447958936555722 ], [ -84.608838114287494, 45.446870228977957 ], [ -84.602497849795895, 45.508809874775977 ], [ -84.668842631282359, 45.546426404355145 ] ], [ [ -82.70724193476741, 45.18267539235552 ], [ -82.749252292859012, 45.199785276669218 ], [ -82.804712903377776, 45.191729405187971 ], [ -82.748928715887473, 45.166513567047559 ], [ -82.70724193476741, 45.18267539235552 ] ], [ [ -73.647683897893558, 44.273522564714654 ], [ -73.19124350198598, 44.384020101646399 ], [ -72.943388026735988, 44.527600748675638 ], [ -72.655842098933704, 44.891364295425944 ], [ -72.613493694678255, 45.185689815532612 ], [ -73.060243669809495, 45.203838987879067 ], [ -73.436634581220915, 44.974108412273438 ], [ -73.784076883441401, 45.092589579945184 ], [ -74.001763836232044, 45.057942369844568 ], [ -74.007368850092291, 44.903470602786115 ], [ -73.913963675083494, 44.82516822673233 ], [ -73.807138748154671, 44.851705834456766 ], [ -73.767911556173317, 44.766999680191134 ], [ -73.918759818011154, 44.557692790090243 ], [ -73.96295113998309, 44.29313984342906 ], [ -73.647683897893558, 44.273522564714654 ] ], [ [ -77.007283412099753, 45.219029511203019 ], [ -77.003158862191697, 45.210609019490732 ], [ -76.991359278507844, 45.218595488491076 ], [ -76.998140993212246, 45.223465674401382 ], [ -77.007283412099753, 45.219029511203019 ] ], [ [ -72.426563555863368, 44.869996837983763 ], [ -72.402922406343919, 44.629447703248957 ], [ -71.75762376382562, 45.013762141909353 ], [ -71.578344674766868, 45.048887955015175 ], [ -71.55178108832655, 44.913079972163018 ], [ -71.451896219734692, 44.898114558140378 ], [ -71.208738354091736, 45.175971913273258 ], [ -71.258992868426105, 45.292761692698036 ], [ -71.09049494198797, 45.384974846911689 ], [ -71.665040961271302, 45.414254005517989 ], [ -72.252744442501978, 45.132965127039029 ], [ -72.426563555863368, 44.869996837983763 ] ], [ [ -76.674147867629927, 45.743050607999237 ], [ -76.760670218056077, 45.740396868720552 ], [ -77.310220498377248, 45.495871891474678 ], [ -77.161109486613498, 45.378023379775186 ], [ -76.746880432885632, 45.334516778226771 ], [ -76.57736366450149, 45.531177434091376 ], [ -76.598906314374858, 45.703198037359584 ], [ -76.674147867629927, 45.743050607999237 ] ], [ [ -82.110875113395707, 45.375113192519848 ], [ -82.05643350040566, 45.360552564249474 ], [ -82.182992665579036, 45.446357536271307 ], [ -82.171716780504994, 45.424123425555706 ], [ -82.110875113395707, 45.375113192519848 ] ], [ [ -70.926910073041427, 45.417857339844431 ], [ -70.744016177004937, 45.452242519876449 ], [ -70.677152636884671, 45.517238240052791 ], [ -70.902562349572747, 45.540306636542084 ], [ -70.969615297707776, 45.48464563278975 ], [ -70.926910073041427, 45.417857339844431 ] ], [ [ -72.575562019271729, 45.163943285754101 ], [ -72.569405216477492, 45.161275094370183 ], [ -72.563884797345509, 45.164336097932619 ], [ -72.57219038717659, 45.168951842253762 ], [ -72.575562019271729, 45.163943285754101 ] ], [ [ -71.62561300643506, 44.422046366846416 ], [ -71.639885410083593, 44.403625036266476 ], [ -71.556643799971368, 44.41971850770301 ], [ -71.609582649419679, 44.430718205580774 ], [ -71.62561300643506, 44.422046366846416 ] ], [ [ -76.088794721399211, 44.452526379388928 ], [ -76.148101013750761, 44.362615439251158 ], [ -76.09981632136612, 44.309971205906493 ], [ -75.977897148034913, 44.380520421380368 ], [ -76.088794721399211, 44.452526379388928 ] ], [ [ -76.221430521101638, 44.32189376378625 ], [ -76.213881023690249, 44.314390100322896 ], [ -76.209658650026654, 44.322091168572626 ], [ -76.213731970054312, 44.326049294439429 ], [ -76.221430521101638, 44.32189376378625 ] ], [ [ -75.940806193950664, 44.462322837429042 ], [ -75.933313880830895, 44.45483052430933 ], [ -75.925462886602872, 44.463355859885098 ], [ -75.933081538282352, 44.47014727557638 ], [ -75.940806193950664, 44.462322837429042 ] ], [ [ -75.756583487537853, 44.543645699889169 ], [ -75.828797797780112, 44.51408706166859 ], [ -75.868547738687141, 44.490951581150625 ], [ -75.749050456713178, 44.518648807996158 ], [ -75.714649186011059, 44.568592075963579 ], [ -75.756583487537853, 44.543645699889169 ] ], [ [ -77.203139973331076, 44.574497777250656 ], [ -77.196387494687087, 44.570158113106515 ], [ -77.187941776991352, 44.574670520827908 ], [ -77.195467524206833, 44.58215768442966 ], [ -77.203139973331076, 44.574497777250656 ] ], [ [ -75.604420674974108, 44.602415962126997 ], [ -75.597499891806535, 44.598186919990439 ], [ -75.589020254381182, 44.602740389857161 ], [ -75.595941037548812, 44.606969432893038 ], [ -75.604420674974108, 44.602415962126997 ] ], [ [ -75.549513772542525, 44.645375696731094 ], [ -75.514863511941485, 44.620982197770275 ], [ -75.477106063993631, 44.643946539101535 ], [ -75.54155404937984, 44.683401447518861 ], [ -75.549513772542525, 44.645375696731094 ] ], [ [ -74.987485853888984, 44.714768304913378 ], [ -74.980259348889774, 44.711031447343487 ], [ -74.97703781724141, 44.715765870698419 ], [ -74.980178693192101, 44.718595468805916 ], [ -74.987485853888984, 44.714768304913378 ] ], [ [ -74.706401069353831, 44.801526680611858 ], [ -74.822377708764236, 44.8252190285354 ], [ -74.84405816355337, 44.789690915403469 ], [ -74.771601147874662, 44.763476997065823 ], [ -74.706401069353831, 44.801526680611858 ] ], [ [ -80.70531696780381, 44.938474159354996 ], [ -80.350552318934319, 44.803305559404123 ], [ -80.057815552845454, 44.816036280450021 ], [ -79.866915962101928, 44.910054570961734 ], [ -80.435784303202979, 45.165509107958997 ], [ -80.762999023386158, 45.079654273026335 ], [ -80.816042919045458, 44.975268683403044 ], [ -80.70531696780381, 44.938474159354996 ] ], [ [ -77.033946752240809, 45.164886903907529 ], [ -77.018988965368408, 45.167942178788564 ], [ -77.022763364237846, 45.199650773164706 ], [ -77.035036339355543, 45.191464102486407 ], [ -77.033946752240809, 45.164886903907529 ] ], [ [ -74.096146983496453, 45.04670223731847 ], [ -74.081280742212471, 45.047424399216709 ], [ -74.076317221962199, 45.050887316096805 ], [ -74.115553662571415, 45.05101752264062 ], [ -74.096146983496453, 45.04670223731847 ] ], [ [ -81.915669427502053, 44.181427922260866 ], [ -81.912270715920783, 44.17640260419688 ], [ -81.905067169714073, 44.180844256857029 ], [ -81.90822368847239, 44.18426123187038 ], [ -81.915669427502053, 44.181427922260866 ] ], [ [ -76.361801809705696, 43.53694467795458 ], [ -76.352809871678176, 43.535500355956742 ], [ -76.353627410276715, 43.5440081304709 ], [ -76.35656624273787, 43.543282685147858 ], [ -76.361801809705696, 43.53694467795458 ] ], [ [ -76.445874477025484, 43.508596571274779 ], [ -76.438370812662811, 43.501047073863447 ], [ -76.434232147895273, 43.509414388663174 ], [ -76.438876442094113, 43.512804441571802 ], [ -76.445874477025484, 43.508596571274779 ] ], [ [ -75.154171982750768, 42.977193654763425 ], [ -75.139167173925898, 42.987211854143823 ], [ -75.146711323968361, 43.033488591525327 ], [ -75.156724323468723, 43.020439845922226 ], [ -75.154171982750768, 42.977193654763425 ] ], [ [ -74.622978479673066, 42.442577629653954 ], [ -74.61553928141268, 42.435010652119956 ], [ -74.61215557232174, 42.445374754141653 ], [ -74.61714078601841, 42.44675260454909 ], [ -74.622978479673066, 42.442577629653954 ] ], [ [ -75.975234235671394, 45.916077664152908 ], [ -75.961472073177617, 45.926945731860087 ], [ -75.997082800730652, 45.926700968774753 ], [ -75.992742281331175, 45.918314077532727 ], [ -75.975234235671394, 45.916077664152908 ] ], [ [ -76.058830812691838, 45.979674408846961 ], [ -76.079196156477394, 45.928161557709757 ], [ -75.992133529338844, 45.970699540851172 ], [ -76.010903641289985, 45.981150728723208 ], [ -76.058830812691838, 45.979674408846961 ] ], [ [ -71.056515199716671, 46.509545899523687 ], [ -71.054840245680737, 46.504498413171291 ], [ -71.052504735105401, 46.502004410575125 ], [ -71.049103748239361, 46.509571000501353 ], [ -71.056515199716671, 46.509545899523687 ] ], [ [ -70.505626876579072, 46.721688954581623 ], [ -70.489503452322424, 46.751468000447915 ], [ -70.553746604522132, 46.714682282561341 ], [ -70.547012919010967, 46.709300537090144 ], [ -70.505626876579072, 46.721688954581623 ] ], [ [ -70.465457453198894, 46.802632007261366 ], [ -70.465478860660824, 46.761886219173732 ], [ -70.411112704387733, 46.768494959175086 ], [ -70.443622046120481, 46.816210717950298 ], [ -70.465457453198894, 46.802632007261366 ] ], [ [ -70.078699025939272, 46.846207473496179 ], [ -70.071205996059803, 46.838798464577508 ], [ -70.063712967079709, 46.846207473496179 ], [ -70.071205996059803, 46.850149795576669 ], [ -70.078699025939272, 46.846207473496179 ] ], [ [ -70.315393571955724, 47.084701733798056 ], [ -70.321930209711354, 47.044149940267573 ], [ -70.272201457930919, 47.038828687693808 ], [ -70.304730287972347, 47.061779954681242 ], [ -70.315393571955724, 47.084701733798056 ] ], [ [ -72.675672655468645, 47.484690141636804 ], [ -72.988369976892898, 47.613414760982494 ], [ -73.339621768629684, 47.58948920895989 ], [ -73.493725549294652, 47.395915441844238 ], [ -72.94802341404926, 47.1002486386638 ], [ -72.43829173067877, 47.442204081753005 ], [ -72.675672655468645, 47.484690141636804 ] ], [ [ -73.753005395782338, 47.49198423788232 ], [ -73.74553287674081, 47.489657104491812 ], [ -73.738057206474878, 47.492437980928116 ], [ -73.74553287674081, 47.49922623550242 ], [ -73.753005395782338, 47.49198423788232 ] ], [ [ -72.696238789988115, 47.693523728437356 ], [ -72.687240343566941, 47.615290485067874 ], [ -72.439476015505647, 47.705065384759735 ], [ -72.530521612282541, 47.758584462403064 ], [ -72.696238789988115, 47.693523728437356 ] ], [ [ -81.470289975102219, 47.639408186238882 ], [ -81.401997342103641, 47.666756882624099 ], [ -81.401225728284714, 47.735294121326717 ], [ -81.489054185702059, 47.681113679552709 ], [ -81.470289975102219, 47.639408186238882 ] ], [ [ -74.336930081358105, 47.88445444381756 ], [ -74.333422426803509, 47.88248906182082 ], [ -74.326802889541682, 47.88493620254377 ], [ -74.334341336083753, 47.892002725345549 ], [ -74.336930081358105, 47.88445444381756 ] ], [ [ -69.967101134309871, 47.68706343143225 ], [ -69.963524119542456, 47.678880522618101 ], [ -69.951290978995473, 47.686616399127558 ], [ -69.958962464945785, 47.689774561846605 ], [ -69.967101134309871, 47.68706343143225 ] ], [ [ -72.266437105388036, 47.379184449103093 ], [ -72.258994953754097, 47.371785670872043 ], [ -72.251050874298357, 47.38037396528631 ], [ -72.255653268183721, 47.384540455077968 ], [ -72.266437105388036, 47.379184449103093 ] ], [ [ -72.261640030762749, 47.578526851832805 ], [ -72.281618676860433, 47.578002795292832 ], [ -72.287602288214998, 47.574672130914166 ], [ -72.263825555105257, 47.572361389466607 ], [ -72.261640030762749, 47.578526851832805 ] ], [ [ -70.241649745139568, 47.157452836779044 ], [ -70.243128475198944, 47.133469795594635 ], [ -70.24048499088957, 47.1266547286329 ], [ -70.237238253042904, 47.151143333598043 ], [ -70.241649745139568, 47.157452836779044 ] ], [ [ -83.457938846700358, 46.005166079850767 ], [ -83.44872165907725, 45.998047229096414 ], [ -83.441898102515381, 46.012177507486058 ], [ -83.45219807298264, 46.012890011564821 ], [ -83.457938846700358, 46.005166079850767 ] ] ] ] } },
{ "type": "Feature", "properties": { "PRODUCT": "24-hour QPF", "VALID_TIME": "12Z 03/24/25 - 12Z 03/25/25", "QPF": 0.01, "UNITS": "Inches", "ISSUE_TIME": "2025-03-24 09:39:37", "START_TIME": "2025-03-24 12:00:00", "END_TIME": "2025-03-25 12:00:00", "InPoly_FID": 0, "fill": "lime", "color": "lime" }, "geometry": { "type": "MultiPolygon", "coordinates": [ [ [ [ -86.0, 37.086352676842317 ], [ -86.0, 39.175394409127463 ], [ -85.83859679170854, 39.084011250319008 ], [ -84.182230793716144, 38.813387876249521 ], [ -83.733605290551679, 38.611158226171256 ], [ -83.483219430632175, 38.587001599644168 ], [ -83.305655649088919, 38.457666932383063 ], [ -83.125836739274064, 38.153854394764551 ], [ -83.154700946191667, 37.982130735045416 ], [ -83.277355470878263, 37.910526059030474 ], [ -83.997664155076677, 37.797363463053443 ], [ -84.043178208907193, 37.714677088976543 ], [ -83.811458219621102, 37.628602966054075 ], [ -83.710898356773725, 37.361630884457782 ], [ -84.169518587013158, 37.113412665861915 ], [ -85.35212858576557, 37.004764306827326 ], [ -86.0, 37.086352676842317 ] ] ], [ [ [ -86.0, 41.558879347322723 ], [ -86.0, 41.818073807621261 ], [ -85.898683475262146, 41.825757074629337 ], [ -86.0, 41.837488907651164 ], [ -86.0, 48.0 ], [ -61.702734288014263, 48.0 ], [ -63.472978756464386, 42.915567381329652 ], [ -65.015682912436432, 37.864038843417916 ], [ -65.121594496888463, 37.786614729985843 ], [ -65.095999202401231, 37.57859093142639 ], [ -65.527707447602111, 36.0 ], [ -66.204430100108553, 36.0 ], [ -66.002256572782585, 36.452820145433407 ], [ -66.30996416865689, 36.0 ], [ -66.979669206816041, 36.0 ], [ -66.914311999199356, 36.162476252277258 ], [ -67.112370493803212, 36.000210261594361 ], [ -81.568359900016418, 36.0 ], [ -81.340508715304907, 36.340976286526427 ], [ -81.399286855603862, 36.38115530207557 ], [ -81.682203312732668, 36.146715574064558 ], [ -82.018523952743905, 36.0 ], [ -83.726940513086305, 36.0 ], [ -83.318309152545339, 36.287014550880883 ], [ -83.023387193963799, 36.279346950901129 ], [ -82.540811420210844, 36.540427385815235 ], [ -82.176927935375886, 37.04720670552507 ], [ -81.929260156730834, 37.076277533481459 ], [ -81.860776861163174, 37.212832470742001 ], [ -81.655247662349723, 37.207225586291827 ], [ -81.368953500903331, 37.360521814430228 ], [ -81.092190231294126, 37.377299041317769 ], [ -81.118305432849411, 37.181002193596385 ], [ -80.80766142553432, 37.263853874756592 ], [ -80.999050921063144, 37.07513504015003 ], [ -81.258220333501527, 36.993302040856577 ], [ -81.226114615596998, 36.862376053811886 ], [ -81.001005334928209, 36.964871325151591 ], [ -80.946023350796963, 36.852311699425456 ], [ -80.863368323489283, 36.80843246018992 ], [ -80.932049469907099, 36.906799601420516 ], [ -80.617731574652396, 37.11253566049237 ], [ -80.682465013849253, 37.300305770594889 ], [ -80.834730276281164, 37.367000995399678 ], [ -80.5436090568125, 37.558841211352899 ], [ -80.633468389354675, 37.600963590797107 ], [ -80.602740394153841, 37.687360966035783 ], [ -80.487545930200497, 37.692166925962908 ], [ -80.402467932349168, 37.592802562488316 ], [ -80.374687997552996, 37.713781597143054 ], [ -80.282338615834419, 37.752543738003169 ], [ -80.117451308231239, 37.549391192849328 ], [ -79.877782864287724, 37.601206965329254 ], [ -79.496503947798885, 38.221951658142586 ], [ -79.230192053120732, 38.281493363328082 ], [ -79.208017734730618, 38.145898457747705 ], [ -79.366466898328667, 38.129937965464762 ], [ -78.880748067769048, 38.071839809759467 ], [ -78.646964754919452, 38.242724962287241 ], [ -78.562047563044587, 38.389447076121712 ], [ -78.667984658565103, 38.632919490442191 ], [ -78.587657144161824, 38.814386158794264 ], [ -78.295226617914068, 38.845658589172615 ], [ -78.253288671434973, 38.629666370106975 ], [ -78.173415201350451, 38.689617671518363 ], [ -78.09301529152242, 38.93646897906018 ], [ -77.680901014270376, 39.267371196623458 ], [ -77.790972610697395, 39.295130063901354 ], [ -77.793928911589944, 39.391567110733604 ], [ -77.090507223729333, 39.819292043093355 ], [ -76.825401708422078, 40.102817913216199 ], [ -76.959257861161348, 40.207686436080223 ], [ -76.926393897860066, 40.37681277638859 ], [ -76.77677160352664, 40.578762815551556 ], [ -76.546634795159605, 40.684764444623454 ], [ -76.254065500822151, 40.981322222342726 ], [ -76.43971053811083, 41.105392985897652 ], [ -76.466627938528518, 41.223647869753449 ], [ -76.801736992168401, 41.309510748222522 ], [ -76.936975624125694, 41.477293461823876 ], [ -77.233771017118727, 41.494382220163402 ], [ -77.400292890204696, 41.696847382001124 ], [ -76.023105956674499, 41.799043714196102 ], [ -75.932593536462491, 42.097454387609957 ], [ -76.498895962478628, 42.13414445360371 ], [ -76.888128209749027, 42.03299566791577 ], [ -77.071393213725798, 42.132146846200044 ], [ -77.61729859215626, 42.121319390077815 ], [ -77.767335495536656, 41.856922810339483 ], [ -77.555467827278392, 41.678620354445854 ], [ -77.696735677009826, 41.57950635953091 ], [ -77.342424550852286, 41.443414342897654 ], [ -77.522625719301459, 41.334963351777333 ], [ -77.796450187925814, 41.423224215824973 ], [ -77.823587893466481, 41.543695470769421 ], [ -78.537283990363846, 41.469218484245687 ], [ -78.79851661305122, 41.503382266478468 ], [ -78.919151917826696, 41.679861605928409 ], [ -79.355462360299668, 41.680806132397151 ], [ -80.156159996986219, 41.306949098622056 ], [ -80.90823922805788, 41.359506078842514 ], [ -81.239326413682988, 41.131686867455016 ], [ -81.861942655928772, 41.127673434181702 ], [ -82.022066897669163, 41.262561460043401 ], [ -82.049964310904215, 41.460852188377828 ], [ -82.360304698103278, 41.47355222455559 ], [ -82.447924565866003, 41.648283460913035 ], [ -81.96468115700975, 41.779908164530241 ], [ -81.848314102114102, 42.035081468235205 ], [ -80.953867807852987, 42.402593978329492 ], [ -80.770884431071579, 42.570059175490599 ], [ -80.856767132397181, 42.63421789214209 ], [ -81.041108549320029, 42.604678700861427 ], [ -81.669371855926386, 42.312243761640332 ], [ -81.718178522021162, 42.363536563061984 ], [ -81.632641430157832, 42.464389551836405 ], [ -81.736141812594553, 42.460564949213108 ], [ -81.797071642042624, 42.569256436135674 ], [ -82.141839414457365, 42.732265785737468 ], [ -82.056356916838183, 42.946445240455546 ], [ -82.398334047977869, 43.082987489181335 ], [ -82.728884110812999, 43.063959272702334 ], [ -82.997051533501406, 43.159799153508175 ], [ -83.228552907490666, 43.057766998847967 ], [ -83.200518213644614, 42.623615432006659 ], [ -84.501315293665812, 42.257119585700366 ], [ -84.535133067137281, 42.132716185403694 ], [ -84.382886721944601, 41.918797190537987 ], [ -84.431125560596115, 41.828658266865602 ], [ -85.0805005601527, 41.608316554065766 ], [ -86.0, 41.558879347322723 ] ], [ [ -67.022603842693172, 36.319176966543807 ], [ -66.923276333435979, 36.30338974394158 ], [ -66.903967189434184, 36.362105446109524 ], [ -66.99042580310828, 36.38202190678561 ], [ -67.022603842693172, 36.319176966543807 ] ], [ [ -66.461658864265132, 36.083855990161851 ], [ -66.497509279129872, 36.074678065140631 ], [ -66.452442347536248, 36.149011537852232 ], [ -66.454851670867868, 36.103110445490699 ], [ -66.461658864265132, 36.083855990161851 ] ], [ [ -66.819039008743232, 36.272589500804884 ], [ -66.836104533997002, 36.273158291422078 ], [ -66.844320670962134, 36.272367812524578 ], [ -66.826523567008962, 36.271610733548584 ], [ -66.819039008743232, 36.272589500804884 ] ], [ [ -65.947510336033133, 36.510258489237913 ], [ -65.899327858793583, 36.498552598723506 ], [ -65.891108328686357, 36.543600293818542 ], [ -65.900533136495028, 36.529756088872432 ], [ -65.947510336033133, 36.510258489237913 ] ], [ [ -81.306221177365387, 36.589367916895924 ], [ -81.322444310356616, 36.659070239000357 ], [ -81.512021507386635, 36.501546876187433 ], [ -81.356708345413779, 36.534837309694126 ], [ -81.306221177365387, 36.589367916895924 ] ], [ [ -81.084941208170164, 36.700923066446421 ], [ -81.009022549051338, 36.747569816393991 ], [ -81.072253251686163, 36.716495936538308 ], [ -81.196109469376495, 36.627163968242598 ], [ -81.084941208170164, 36.700923066446421 ] ], [ [ -65.780454445516227, 36.706992572948934 ], [ -65.780316163959753, 36.696111508239539 ], [ -65.779759256084787, 36.693994689403439 ], [ -65.779682186883406, 36.71965718033465 ], [ -65.780454445516227, 36.706992572948934 ] ], [ [ -65.811414804849335, 36.625858479984913 ], [ -65.858303599231704, 36.603123357856759 ], [ -65.863760514536068, 36.591216980579247 ], [ -65.813076013647049, 36.615363113816727 ], [ -65.807307802513037, 36.630971324567042 ], [ -65.806793989251162, 36.653902602323285 ], [ -65.811414804849335, 36.625858479984913 ] ], [ [ -81.235215253780893, 36.580807302714902 ], [ -81.234323371826122, 36.580595809149315 ], [ -81.233917903488418, 36.581322549496122 ], [ -81.234695237894869, 36.581528393520614 ], [ -81.235215253780893, 36.580807302714902 ] ], [ [ -65.696066817629514, 36.805157926996799 ], [ -65.695596729405509, 36.80475215648687 ], [ -65.69489903895942, 36.805160285019213 ], [ -65.695663079587405, 36.80592432654646 ], [ -65.696066817629514, 36.805157926996799 ] ], [ [ -79.943171927242588, 37.352863636647555 ], [ -79.991500368946845, 37.312437678955746 ], [ -80.028294567440298, 37.189111134071652 ], [ -79.842630257680185, 37.30724244838035 ], [ -79.943171927242588, 37.352863636647555 ] ], [ [ -79.413752734401157, 37.829553997818778 ], [ -79.432759779939829, 37.81452728690482 ], [ -79.411070696155662, 37.865080295219514 ], [ -79.411595270705163, 37.862677828319192 ], [ -79.413752734401157, 37.829553997818778 ] ], [ [ -78.345813205115292, 38.572206647618771 ], [ -78.345375954736483, 38.571831338945174 ], [ -78.344685455269484, 38.572212666781184 ], [ -78.345435249736965, 38.572962460349345 ], [ -78.345813205115292, 38.572206647618771 ] ], [ [ -76.32750679570205, 41.517658306985311 ], [ -76.344893989565946, 41.518183669340942 ], [ -76.352703721099829, 41.51744896010149 ], [ -76.335105628122221, 41.516795360717367 ], [ -76.32750679570205, 41.517658306985311 ] ], [ [ -76.607247655854621, 41.517243650274281 ], [ -76.60658990250198, 41.516828146401906 ], [ -76.606081221670991, 41.517329482469677 ], [ -76.606514575287406, 41.51765045770253 ], [ -76.607247655854621, 41.517243650274281 ] ], [ [ -76.438950077683899, 41.545281002516333 ], [ -76.438169368121805, 41.544495110161279 ], [ -76.437380625815194, 41.545217048128336 ], [ -76.438169368121805, 41.545720249390058 ], [ -76.438950077683899, 41.545281002516333 ] ], [ [ -77.196255185528344, 42.218506386060938 ], [ -77.195471834657383, 42.218066482682104 ], [ -77.194719505900423, 42.21848466563489 ], [ -77.195564232803065, 42.219267130673586 ], [ -77.196255185528344, 42.218506386060938 ] ], [ [ -77.281118890224548, 42.246504983817999 ], [ -77.298536880472625, 42.246990791292035 ], [ -77.306335651968709, 42.246333421949942 ], [ -77.288748211460756, 42.245603366702085 ], [ -77.281118890224548, 42.246504983817999 ] ], [ [ -76.999530045575113, 42.330671462118346 ], [ -76.998991707801054, 42.330270985917309 ], [ -76.998337367375541, 42.330811652935495 ], [ -76.999050451517064, 42.331469250705425 ], [ -76.999530045575113, 42.330671462118346 ] ], [ [ -76.864934195057003, 42.40085161830757 ], [ -76.914244995010449, 42.387915886009409 ], [ -76.785398344857697, 42.360573096371354 ], [ -76.664289884270715, 42.357616263080104 ], [ -76.864934195057003, 42.40085161830757 ] ], [ [ -76.969707872720107, 42.569675914112224 ], [ -77.191956958546768, 42.492024838775365 ], [ -77.250131389352077, 42.421138999864979 ], [ -77.003777380821418, 42.470106369413486 ], [ -76.916096838498277, 42.576299013588653 ], [ -76.969707872720107, 42.569675914112224 ] ], [ [ -79.830424559046151, 42.484725781869372 ], [ -79.822539347412942, 42.49521687805651 ], [ -79.781714942390636, 42.499392585899159 ], [ -79.824155224983599, 42.498219484141941 ], [ -79.830424559046151, 42.484725781869372 ] ], [ [ -79.640031947616251, 42.595337694578973 ], [ -79.736546745336, 42.550906283298389 ], [ -79.746238451243471, 42.539958222693883 ], [ -79.646826103541798, 42.587102074701022 ], [ -79.640031947616251, 42.595337694578973 ] ], [ [ -79.563042579951059, 42.610348419144259 ], [ -79.518484794137919, 42.611174169452397 ], [ -79.501490016750836, 42.616918625893902 ], [ -79.495287679482772, 42.629856428431481 ], [ -79.49416435699942, 42.655533505466963 ], [ -79.563042579951059, 42.610348419144259 ] ], [ [ -77.844129298428356, 42.656236091822223 ], [ -77.891221224479864, 42.633640084922035 ], [ -77.896641909696314, 42.621819838414865 ], [ -77.845788706783367, 42.645737334310581 ], [ -77.840023797959873, 42.661353024722359 ], [ -77.839514789775706, 42.684330697603684 ], [ -77.844129298428356, 42.656236091822223 ] ], [ [ -79.317444245655395, 42.729308731213052 ], [ -79.304154960183212, 42.739302000486987 ], [ -79.297992398130646, 42.758687010397239 ], [ -79.3153849231756, 42.733392921346308 ], [ -79.375566017557617, 42.715646917771096 ], [ -79.429972700879432, 42.689340641757269 ], [ -79.435311784311352, 42.682617043042171 ], [ -79.317444245655395, 42.729308731213052 ] ], [ [ -77.813364684632461, 42.723306932868695 ], [ -77.81288078821774, 42.72244994191135 ], [ -77.811814368538251, 42.723328480624957 ], [ -77.812549721692278, 42.724063833778985 ], [ -77.813364684632461, 42.723306932868695 ] ], [ [ -84.441612762718762, 43.025563672125827 ], [ -84.177312473391908, 42.908874117646462 ], [ -84.109001840462554, 42.635314814127412 ], [ -83.585946506725861, 42.851281901638515 ], [ -83.827357053485173, 43.357073577783467 ], [ -84.490844709215935, 43.593258990609968 ], [ -84.600951955668165, 43.215100128068514 ], [ -84.441612762718762, 43.025563672125827 ] ], [ [ -79.578160527985915, 43.445834325493763 ], [ -79.21020526006464, 43.514604320433079 ], [ -78.872136813662962, 43.66976610042525 ], [ -79.261136563701427, 43.712842451018332 ], [ -79.626236996739976, 43.55241392816032 ], [ -79.578160527985915, 43.445834325493763 ] ], [ [ -78.753348735255884, 43.67689826114588 ], [ -78.738852073064663, 43.687690050155766 ], [ -78.737956873510882, 43.724502845729774 ], [ -78.785869507371842, 43.677091703519352 ], [ -78.753348735255884, 43.67689826114588 ] ], [ [ -78.626717227717847, 43.70506550247103 ], [ -78.625936518155754, 43.704626254697928 ], [ -78.625147775849143, 43.705129456859027 ], [ -78.625936518155754, 43.705851394826084 ], [ -78.626717227717847, 43.70506550247103 ] ], [ [ -78.415581374680642, 43.705517696884272 ], [ -78.428220106772471, 43.704858091827532 ], [ -78.402689423178288, 43.704837451487265 ], [ -78.406092380458972, 43.705403845411183 ], [ -78.415581374680642, 43.705517696884272 ] ], [ [ -78.162739676694684, 43.6781084212667 ], [ -78.3598581036685, 43.661299550833633 ], [ -78.388847147278, 43.496501683505926 ], [ -78.037848164860861, 43.641146805880453 ], [ -78.162739676694684, 43.6781084212667 ] ], [ [ -82.515072709038236, 43.35516680370506 ], [ -82.459769547326687, 43.324761201967931 ], [ -82.264436951803873, 43.408491935354562 ], [ -82.450116193007887, 43.448194220287064 ], [ -82.515072709038236, 43.35516680370506 ] ], [ [ -78.374270708926019, 43.424582612597533 ], [ -78.373153490141419, 43.424219500529603 ], [ -78.372658681353016, 43.425282371484286 ], [ -78.373672327915585, 43.425353420623935 ], [ -78.374270708926019, 43.424582612597533 ] ], [ [ -82.005021041487851, 43.367969894994701 ], [ -81.942102764231151, 43.367539989379054 ], [ -81.916054321149943, 43.368237660939371 ], [ -82.011672664761647, 43.368456477684333 ], [ -82.005021041487851, 43.367969894994701 ] ], [ [ -84.208327767812193, 42.555029095716236 ], [ -84.207570994605703, 42.554272322509746 ], [ -84.206764753290713, 42.55515583087697 ], [ -84.207524165108111, 42.555832698420375 ], [ -84.208327767812193, 42.555029095716236 ] ], [ [ -84.430853351101234, 42.512069512198309 ], [ -84.404623465300631, 42.524266008069844 ], [ -84.332629097754648, 42.527119367165142 ], [ -84.417431455197459, 42.524773948758764 ], [ -84.449157216732146, 42.500671706933758 ], [ -84.430853351101234, 42.512069512198309 ] ], [ [ -84.513278425359033, 42.456450631791256 ], [ -84.496012133652982, 42.471044712143794 ], [ -84.56388036668551, 42.442979649990889 ], [ -84.526177124474657, 42.443897043014204 ], [ -84.513278425359033, 42.456450631791256 ] ] ] ] } }
]
}
